GC,title,lat,lon,country,region,county,numfinds,,
 GC102PW,Spidermans Cave,N 47Â° 08.554,E 015Â° 17.774,Austria,Steiermark,Graz-Umgebung,102,,
 GC10BZ6,Grotte Notre-Dame de Lourdes Ã  Allain.,N 50Â° 35.914,E 003Â° 24.716,Belgium,Hainaut,Tournai,415,,
 GC113PK,Flint Mountain Cave,N 47Â° 08.259,E 017Â° 41.969,Hungary,VeszprÃ©m,VeszprÃ©mi jÃ¡rÃ¡s,80,,
 GC119NK,Breadman's Cave,N 51Â° 42.168,E 006Â° 56.233,Germany,Nordrhein-Westfalen,Recklinghausen (Kr),70,,
 GC11WY1,new Baarburg-Cave,N 47Â° 12.360,E 008Â° 33.165,Switzerland,Zug,Baar (9),559,,
 GC129EE,La mine de PlombiÃ¨res,N 50Â° 44.280,E 005Â° 57.639,Belgium,LiÃ¨ge,PlombiÃ¨res,253,,
 GC12XAA,Above The Cave,N 50Â° 06.276,E 014Â° 21.066,Czechia,HlavnÃ­ mÄ›sto Praha,HlavnÃ­ mÄ›sto Praha,2565,,
 GC12Z0A,TCL#5 Jeskyne Salka / Cave Salka,N 49Â° 23.189,E 012Â° 53.435,Czechia,PlzeÅˆskÃ½ kraj,DomaÅ¾lice,658,,
 GC1340J,Altes Bergwerk,N 47Â° 44.615,E 013Â° 00.600,Austria,Salzburg,Salzburg-Umgebung,355,,
 GC13D3G,CHYNOVSKA JESKYNE/CHYNOV CAVE,N 49Â° 25.760,E 014Â° 50.004,Czechia,JihoÄeskÃ½ kraj,TÃ¡bor,633,,
 GC13FDN,Nad jeskyni / Over the cave,N 49Â° 59.207,E 014Â° 01.854,Czechia,StÅ™edoÄeskÃ½ kraj,Beroun,617,,
 GC13NFK,Lost Place: Ore Mine,N 46Â° 26.888,E 013Â° 34.347,Italy,Friuli-Venezia Giulia,Udine,434,,
 GC13R3Y,wet cave,N 47Â° 41.749,E 013Â° 40.503,Austria,OberÃ¶sterreich,Gmunden,186,,
 GC13XJJ,Die AggertalhÃ¶hle - The Aggertal Cave,N 50Â° 59.630,E 007Â° 26.930,Germany,Nordrhein-Westfalen,Oberbergischer Kreis,241,,
 GC13XJP,TropfsteinhÃ¶hle Wiehl - Stalactite Cave Wiehl,N 50Â° 56.321,E 007Â° 32.886,Germany,Nordrhein-Westfalen,Oberbergischer Kreis,346,,
 GC149E0,Dans ta cave Charles,N 47Â° 09.258,E 001Â° 01.845,France,Centre-Val-de-Loire,Indre-et-Loire,109,,
 GC14D7V,Grotte Cascade,N 46Â° 54.167,E 006Â° 36.972,Switzerland,NeuchÃ¢tel,Val-de-Travers (24),104,,
 GC14G0B,Descent to the salamander's cave,N 49Â° 47.664,E 006Â° 18.761,Luxembourg,Canton Echternach,Berdorf,471,,
 GC14NYQ,Amberstar 9 - Doras Mine,N 51Â° 32.677,E 006Â° 52.773,Germany,Nordrhein-Westfalen,Bottrop,29,,
 GC14RAV,Kubacher Crystal Cave,N 50Â° 28.091,E 008Â° 18.172,Germany,Hessen,Limburg-Weilburg (Lkr),1327,,
 GC14WC1,Sprengmastas Cave,N 48Â° 18.237,E 014Â° 20.508,Austria,OberÃ¶sterreich,Urfahr-Umgebung,407,,
 GC153HX,In the mountain mine,N 42Â° 54.633,W 000Â° 01.349,France,Occitanie,Hautes-PyrÃ©nÃ©es,51,,
 GC154HD,Cave Canem,N 52Â° 37.914,E 009Â° 11.917,Germany,Niedersachsen,Nienburg/Weser (Lkr),24,,
 GC15E3R,Planina Cave,N 45Â° 49.355,E 014Â° 14.849,Slovenia,Littoralâ€“Inner Carniola Region,Postojna,421,,
 GC16D4P,Lieglloch ( HÃ¶hle ),N 47Â° 34.359,E 014Â° 00.000,Austria,Steiermark,Bezirk Liezen,113,,
 GC16H2K,La grotte de Bulteau,N 50Â° 07.006,E 004Â° 56.119,Belgium,Namur,Beauraing,73,,
 GC16MY2,La cave des mouches 2,N 47Â° 50.302,E 001Â° 43.086,France,Centre-Val-de-Loire,Loiret,55,,
 GC16QF2,DunsthÃ¶hle - The Vapours Cave,N 51Â° 59.334,E 009Â° 15.627,Germany,Niedersachsen,Hameln-Pyrmont (Lkr),1190,,
 GC178X7,Dave in China,N 42Â° 01.331,E 128Â° 03.595,China,Jilin, ,0,,
 GC17BPC,King Lokietek Cave,N 50Â° 12.095,E 019Â° 49.052,Poland,MaÅ‚opolskie,Krakowski (MaÅ‚opolskie),63,,
 GC17RMH,"Te mine pas, tu trouveras...",N 43Â° 37.018,E 003Â° 37.959,France,Occitanie,HÃ©rault,22,,
 GC1853A,Mine Shaft No. 10,N 51Â° 36.074,E 006Â° 53.410,Germany,Nordrhein-Westfalen,Bottrop,360,,
 GC18DTN,Kopalnia Prezydent,N 50Â° 17.883,E 018Â° 58.110,Poland,ÅšlÄ…skie,ChorzÃ³w (ÅšlÄ…skie),33,,
 GC18KXW,BERCHTESGADEN -Salzbergwerk/ Salt Mine-,N 47Â° 38.276,E 013Â° 01.071,Germany,Bayern,Berchtesgadener Land (Lkr),411,,
 GC18NGT,Alte Mine,N 50Â° 16.656,E 007Â° 38.859,Germany,Rheinland-Pfalz,Rhein-Lahn-Kreis,810,,
 GC18P16,Cave canem,N 51Â° 03.542,E 006Â° 58.887,Germany,Nordrhein-Westfalen,Leverkusen,418,,
 GC18Y1D,Trpaslici jeskyne - Dwarfish cave,N 50Â° 46.431,E 014Â° 15.365,Czechia,ÃšsteckÃ½ kraj,DÄ›ÄÃ­n,128,,
 GC1969M,Demanovska Cave of Liberty,N 48Â° 59.880,E 019Â° 35.100,Slovakia,Å½ilinskÃ½ kraj,LiptovskÃ½ MikulÃ¡Å¡,1006,,
 GC1A0F6,DOWN TOWN CAVE,N 47Â° 48.290,E 013Â° 02.125,Austria,Salzburg,Salzburg,124,,
 GC1AT88,Grotta dell'Edera,N 44Â° 11.758,E 008Â° 19.189,Italy,Liguria,Savona,209,,
 GC1AW1C,GROTTA DEI PORCI,N 44Â° 04.824,E 010Â° 42.194,Italy,Toscana,Lucca,15,,
 GC1B1D5,Jaskinia Goryla,N 54Â° 29.708,E 018Â° 33.749,Poland,Pomorskie,Gdynia (Pomorskie),14,,
 GC1BCFF,Jack le Mineur et la Mine de Roly #3,N 50Â° 08.357,E 004Â° 32.815,Belgium,Namur,Philippeville,119,,
 GC1BDX5,Lourdes Grotte Zuckenriet,N 47Â° 29.283,E 009Â° 09.777,Switzerland,St. Gallen,Niederhelfenschwil (17),248,,
 GC1BF9D,supply cave//Fornitura grotta,N 45Â° 52.100,E 011Â° 47.751,Italy,Veneto,Treviso,96,,
 GC1BF9D,supply cave//Fornitura grotta,N 45Â° 52.100,E 011Â° 47.751,Italy,Veneto,Treviso,96,,
 GC1BJ13,grotta delle capre,N 41Â° 13.442,E 013Â° 04.968,Italy,Lazio,Latina,47,,
 GC1BJZ6,GombaseckÃ¡ jaskyna - GombaseckÃ¡ Cave,N 48Â° 33.767,E 020Â° 28.033,Slovakia,KoÅ¡ickÃ½ kraj,RoÅ¾Åˆava,432,,
 GC1BQNK,Jaskyna Domica - Domica cave,N 48Â° 28.717,E 020Â° 28.367,Slovakia,KoÅ¡ickÃ½ kraj,RoÅ¾Åˆava,490,,
 GC1BRE0,JasovskÃ¡ jaskyna - JasovskÃ¡ Cave,N 48Â° 40.622,E 020Â° 58.608,Slovakia,KoÅ¡ickÃ½ kraj,KoÅ¡ice - okolie,333,,
 GC1BRE9,DobÅ¡inskÃ¡ ladovÃ¡ jaskyna - DobÅ¡inskÃ¡ Ice Cave,N 48Â° 52.061,E 020Â° 18.884,Slovakia,KoÅ¡ickÃ½ kraj,RoÅ¾Åˆava,818,,
 GC1BRF5,Demanovska Ice Cave,N 49Â° 00.965,E 019Â° 34.962,Slovakia,Å½ilinskÃ½ kraj,LiptovskÃ½ MikulÃ¡Å¡,1078,,
 GC1BWKZ,La grotta dimenticata dal tempo ,N 43Â° 41.574,E 010Â° 31.503,Italy,Toscana,Pisa,156,,
 GC1BZ6M,KrÃ¡snohorskÃ¡ jaskyna - KrÃ¡snohorskÃ¡ Cave,N 48Â° 37.075,E 020Â° 35.264,Slovakia,KoÅ¡ickÃ½ kraj,RoÅ¾Åˆava,319,,
 GC1C19Y,Smrduta Cave & Flint Block,N 49Â° 22.326,E 017Â° 45.582,Czechia,ZlÃ­nskÃ½ kraj,KromÄ›Å™Ã­Å¾,335,,
 GC1C2RA,Klenkes 2008 - Mystic Mine ,N 50Â° 36.073,E 006Â° 19.180,Germany,Nordrhein-Westfalen,StÃ¤dteregion Aachen,136,,
 GC1C68F,La Grotta,N 46Â° 38.652,E 011Â° 51.921,Italy,Trentino-Alto Adige,Bolzano - Bozen,46,,
 GC1C99Q,Les caves cathÃ©drales : La cave Ã  vin,N 44Â° 19.542,E 004Â° 45.696,France,Auvergne-RhÃ´ne-Alpes,DrÃ´me,475,,
 GC1CEBE,"ZsivÃ¡ny-valley, Benard cave",N 46Â° 58.765,E 017Â° 28.738,Hungary,VeszprÃ©m,Tapolcai jÃ¡rÃ¡s,66,,
 GC1CENV,Grotta de Su Coloru,N 40Â° 49.082,E 008Â° 48.558,Italy,Sardegna,Sassari,164,,
 GC1CHXJ,La cave du curÃ©,N 45Â° 32.213,E 004Â° 33.108,France,Auvergne-RhÃ´ne-Alpes,Loire,165,,
 GC1CHYE,Lourdes-Grotte Rheintal am Valentisberg,N 47Â° 17.242,E 009Â° 32.348,Switzerland,St. Gallen,RÃ¼thi (SG) (17),380,,
 GC1CQWE,Moggaster Ruine,N 49Â° 46.146,E 011Â° 15.576,Germany,Bayern,Forchheim (Lkr),152,,
 GC1CT3K,BB#3: The Cave,N 48Â° 51.677,E 002Â° 15.499,France,Ãle-de-France,Paris,512,,
 GC1DG78,Ledena Jama,N 45Â° 59.355,E 013Â° 50.666,Slovenia,GoriÅ¡ka,Nova Gorica,62,,
 GC1DMB3,The Cave,N 46Â° 53.706,E 007Â° 59.387,Switzerland,Luzern,FlÃ¼hli (3),64,,
 GC1DWWX,EbermannstÃ¤dter Aussichten,N 49Â° 46.664,E 011Â° 12.010,Germany,Bayern,Forchheim (Lkr),164,,
 GC1E5A2,FrÃ¤nkischer Zuckerhut,N 49Â° 47.299,E 011Â° 12.814,Germany,Bayern,Forchheim (Lkr),259,,
 GC1EG4E,La mine du Coulmy,N 49Â° 32.176,E 005Â° 44.847,France,Grand-Est,Meurthe-et-Moselle,136,,
 GC1F9KC,HÃ¶hle oder Bergwerk ?,N 50Â° 55.136,E 010Â° 20.087,Germany,ThÃ¼ringen,Wartburgkreis,103,,
 GC1FHV8,Cave Cache,N 45Â° 48.936,E 014Â° 07.610,Slovenia,Littoralâ€“Inner Carniola Region,Postojna,76,,
 GC1FMW8,Baradla Barlang â€“ Baradla Cave,N 48Â° 27.918,E 020Â° 29.910,Hungary,Borsod-AbaÃºj-ZemplÃ©n,Putnoki jÃ¡rÃ¡s,278,,
 GC1FPA5,Kleine HÃ¶hle / Small cave,N 47Â° 46.391,E 013Â° 26.249,Austria,Salzburg,Salzburg-Umgebung,538,,
 GC1FPA5,Kleine HÃ¶hle / Small cave,N 47Â° 46.391,E 013Â° 26.249,Austria,Salzburg,Salzburg-Umgebung,538,,
 GC1FTVA,Lourdes - Grotte,N 47Â° 34.820,E 008Â° 12.532,Switzerland,Aargau,Leuggern (19),129,,
 GC1G1FN,Backes-Rallye: Pretzfeld,N 49Â° 45.308,E 011Â° 10.429,Germany,Bayern,Forchheim (Lkr),658,,
 GC1G3H5,"Pitigliano, Le vie cave",N 42Â° 37.966,E 011Â° 38.917,Italy,Toscana,Grosseto,225,,
 GC1G458,Grafitovy dul / Graphite Mine (Earth),N 48Â° 49.010,E 014Â° 18.289,Czechia,JihoÄeskÃ½ kraj,ÄŒeskÃ½ Krumlov,1404,,
 GC1G4M5,Jaskyna SilickÃ¡ ladnica - SilickÃ¡ ladnica Cave,N 48Â° 32.977,E 020Â° 30.218,Slovakia,KoÅ¡ickÃ½ kraj,RoÅ¾Åˆava,349,,
 GC1GA44,La grotte du chateau - BCLT 2008,N 50Â° 27.448,E 005Â° 00.072,Belgium,Namur,Andenne,394,,
 GC1GA7P,La mine du Neufbourg,N 48Â° 39.961,W 000Â° 56.139,France,Normandie,Manche,159,,
 GC1GADZ,Vieille Montagne - Mine Schmalgraf,N 50Â° 41.835,E 005Â° 59.151,Belgium,LiÃ¨ge,Lontzen,258,,
 GC1GAEF,Vieille Montagne - Mine Lontzen,N 50Â° 40.911,E 006Â° 00.399,Belgium,LiÃ¨ge,Lontzen,245,,
 GC1H6GQ,Spitzegel - Die kleine HÃ¶hle,N 46Â° 38.761,E 013Â° 23.901,Austria,KÃ¤rnten,Hermagor,23,,
 GC1H778,Cachticka jaskyna / Cachticka cave,N 48Â° 44.309,E 017Â° 46.281,Slovakia,TrenÄiansky kraj,NovÃ© Mesto nad VÃ¡hom,469,,
 GC1H8VF,USB-Cache IN WARTUNG!,N 48Â° 11.087,E 011Â° 43.985,Germany,Bayern,MÃ¼nchen (Lkr),82,,
 GC1HC42,Vieille Montagne - Mine Fossey,N 50Â° 42.082,E 006Â° 02.386,Belgium,LiÃ¨ge,Lontzen,499,,
 GC1HGK3,NebelhÃ¶hle (Fog Cave),N 48Â° 25.038,E 009Â° 13.246,Germany,Baden-WÃ¼rttemberg,Reutlingen (Lkr),919,,
 GC1HVZV,Jeskyne Pekarna / Pekarna cave,N 49Â° 14.523,E 016Â° 44.744,Czechia,JihomoravskÃ½ kraj,Brno-venkov,1503,,
 GC1J0HB,Geburtskanal,N 51Â° 55.500,E 009Â° 42.000,Germany,Niedersachsen,Holzminden (Lkr),17,,
 GC1J567,MYSTERY CAVE,N 47Â° 47.256,E 013Â° 05.928,Austria,Salzburg,Salzburg,176,,
 GC1J650,Front de mine,N 49Â° 28.565,E 005Â° 54.994,France,Grand-Est,Meurthe-et-Moselle,95,,
 GC1JA3V,LamprechtshÃ¶hle - Lamprechts Cave,N 47Â° 31.567,E 012Â° 44.360,Austria,Salzburg,Zell am See,792,,
 GC1JNZ4,Grotta dell'Arciere,N 42Â° 54.087,E 011Â° 38.997,Italy,Toscana,Siena,101,,
 GC1JRVQ,mine d'heydt,N 49Â° 29.804,E 005Â° 53.414,France,Grand-Est,Meurthe-et-Moselle,177,,
 GC1JRXX,La cave de Vitalis,N 43Â° 46.833,E 003Â° 26.883,France,Occitanie,HÃ©rault,27,,
 GC1JT98,The Cave and the pond,N 48Â° 51.815,E 002Â° 14.470,France,Ãle-de-France,Paris,129,,
 GC1KFNW,La cave aux FÃ©es,N 48Â° 14.159,E 002Â° 52.735,France,Ãle-de-France,Seine-et-Marne,141,,
 GC1KWZH,Bahnhof Forchheim,N 49Â° 43.068,E 011Â° 04.212,Germany,Bayern,Forchheim (Lkr),209,,
 GC1M0HE,La grotte de Spy,N 50Â° 28.811,E 004Â° 40.468,Belgium,Namur,Jemeppe-sur-Sambre,406,,
 GC1MG46,"Solna Jama, Salt Cave",N 50Â° 11.372,E 016Â° 36.438,Poland,DolnoÅ›lÄ…skie,KÅ‚odzki (DolnoÅ›lÄ…skie),94,,
 GC1MHHR,Stalactite Cave,N 52Â° 21.986,E 013Â° 10.500,Germany,Brandenburg,Potsdam-Mittelmark (Lkr),688,,
 GC1N5RC,PUIT COURIOT MUSEE DE LA MINE ST ETIENNE ,N 45Â° 26.331,E 004Â° 22.590,France,Auvergne-RhÃ´ne-Alpes,Loire,336,,
 GC1NGBE,Wounded Earth â€“ opencast mine / Tagebau Garzweiler,N 51Â° 02.749,E 006Â° 27.878,Germany,Nordrhein-Westfalen,Rhein-Kreis Neuss,2293,,
 GC1NWJ7,Farinet - La Grotte,N 46Â° 10.933,E 007Â° 11.233,Switzerland,Valais,Saillon (23),120,,
 GC1P45C,Westumgehung,N 49Â° 37.243,E 011Â° 06.838,Germany,Bayern,Forchheim (Lkr),183,,
 GC1PBWD,(Treasures of Dahu) La Grotta della Beaume,N 45Â° 02.793,E 006Â° 49.840,Italy,Piemonte,Torino,110,,
 GC1PC2C,StraÅ¡Ã­nskÃ¡ dracÃ­ jeskyne/ Strasin - DragonÂ´s cave,N 49Â° 10.972,E 013Â° 37.780,Czechia,PlzeÅˆskÃ½ kraj,Klatovy,948,,
 GC1PH2X,EGC-Bonus,N 49Â° 46.804,E 011Â° 15.313,Germany,Bayern,Forchheim (Lkr),29,,
 GC1PH3Q,EGC- Ein Golf- Cache,N 49Â° 46.615,E 011Â° 14.874,Germany,Bayern,Forchheim (Lkr),34,,
 GC1PPWD,Postojna Cave,N 45Â° 46.840,E 014Â° 12.330,Slovenia,Littoralâ€“Inner Carniola Region,Postojna,2117,,
 GC1PZ0G,Trainmeuseler Brunnen,N 49Â° 47.938,E 011Â° 14.472,Germany,Bayern,Forchheim (Lkr),242,,
 GC1Q5KD,La grotta del ghiaccio,N 45Â° 19.918,E 007Â° 37.462,Italy,Piemonte,Torino,43,,
 GC1QVF6,Lourdes Grotte,N 47Â° 27.193,E 009Â° 02.032,Switzerland,Thurgau,Wilen (TG) (20),513,,
 GC1R15Y,Malenicka jeskyne - Malenice cave,N 49Â° 07.819,E 013Â° 53.026,Czechia,JihoÄeskÃ½ kraj,Strakonice,312,,
 GC1RCF7,Rote Grube / Red Mine,N 50Â° 28.470,E 012Â° 41.362,Germany,Sachsen,Erzgebirgskreis,146,,
 GC1RGE1,[BD] - Grotta di Croara,N 44Â° 26.383,E 011Â° 22.968,Italy,Emilia-Romagna,Bologna,0,,
 GC1RN5R,Grotte et ancienne cave Ã  fromage de Landric,N 43Â° 54.978,E 003Â° 04.707,France,Occitanie,Aveyron,16,,
 GC1RX4F,GBGA-02 - SzemlÃ¶-hegyi Cave,N 47Â° 31.677,E 019Â° 01.497,Hungary,Budapest,Budapest,289,,
 GC1T5NV,Skocjan Cave,N 45Â° 39.775,E 013Â° 59.350,Slovenia,Obalno-kraÅ¡ka,DivaÄa,1352,,
 GC1T7KE,Skocjan Cave,N 45Â° 39.700,E 013Â° 59.050,Slovenia,Obalno-kraÅ¡ka,DivaÄa,1,,
 GC1T83M,Cave Hope / Jeskyne Nadeje,N 49Â° 13.189,E 018Â° 02.471,Czechia,ZlÃ­nskÃ½ kraj,VsetÃ­n,325,,
 GC1T9X2,SpÃ©lÃ©o en Belgique - 1 : grotte Sainte Anne,N 50Â° 33.393,E 005Â° 34.827,Belgium,LiÃ¨ge,Esneux,20,,
 GC1TA6Y,Paradana Ice Cave,N 45Â° 59.342,E 013Â° 50.674,Slovenia,GoriÅ¡ka,Nova Gorica,58,,
 GC1TBF4,wet cave extreme,N 47Â° 42.019,E 013Â° 39.676,Austria,OberÃ¶sterreich,Gmunden,50,,
 GC1TCCJ,Stoissengraben - The Cave,N 47Â° 28.121,E 012Â° 50.071,Austria,Salzburg,Zell am See,745,,
 GC1THAM,EisensteinhÃ¶hle / Eisenstein Cave,N 47Â° 49.839,E 016Â° 08.633,Austria,NiederÃ¶sterreich,Bezirk Wiener Neustadt,90,,
 GC1THZ5,Pik-Ass in der HÃ¶hle,N 47Â° 46.590,E 014Â° 53.140,Austria,NiederÃ¶sterreich,Bezirk Scheibbs,53,,
 GC1TKHR,Groty Mechowskie/Cave in Mechowo,N 54Â° 42.789,E 018Â° 17.092,Poland,Pomorskie,Pucki (Pomorskie),94,,
 GC1TM3F,EbermannstÃ¤dter Aussichten- Bonus,N 49Â° 46.402,E 011Â° 13.347,Germany,Bayern,Forchheim (Lkr),95,,
 GC1TNE8,Heiners HÃ¶h,N 49Â° 47.017,E 011Â° 14.440,Germany,Bayern,Forchheim (Lkr),190,,
 GC1TPD8,Cave Cache Kanne,N 50Â° 47.022,E 005Â° 41.226,Belgium,LiÃ¨ge,VisÃ©,789,,
 GC1TQ5P,NÃ¼rnberger Kapelle,N 49Â° 45.657,E 011Â° 19.569,Germany,Bayern,Forchheim (Lkr),248,,
 GC1TR2E,Open-Cast Mine Zukunft -Revegetation BlueStoneSea ,N 50Â° 51.180,E 006Â° 16.040,Germany,Nordrhein-Westfalen,StÃ¤dteregion Aachen,1039,,
 GC1TV2Q,Hohle Wege - Stinkende Brunnen,N 48Â° 39.887,E 016Â° 20.770,Austria,NiederÃ¶sterreich,Bezirk Mistelbach,11,,
 GC1V1VY,Event de la forÃªt enchantÃ©e : la mine de la Moria,N 48Â° 21.316,W 003Â° 43.221,France,Bretagne,FinistÃ¨re,151,,
 GC1V206,St. Beatus Cave,N 46Â° 41.048,E 007Â° 46.919,Switzerland,Bern,Beatenberg (2),748,,
 GC1V2XK,La mine d 'Ottange,N 49Â° 26.087,E 006Â° 01.090,France,Grand-Est,Moselle,37,,
 GC1VAKT,Vier auf einen Streich,N 49Â° 49.123,E 011Â° 21.873,Germany,Bayern,Bayreuth (Lkr),45,,
 GC1VKMJ,Cave Palvolgyi,N 47Â° 32.000,E 019Â° 00.900,Hungary,Budapest,Budapest,337,,
 GC1VY0Y,Zlatorudne mlyny / Gold ore mine & mill,N 50Â° 15.078,E 017Â° 22.004,Czechia,OlomouckÃ½ kraj,JesenÃ­k,897,,
 GC1W1JH,KÃ¼hberg kleine HÃ¶hle,N 47Â° 48.566,E 013Â° 04.964,Austria,Salzburg,Salzburg,152,,
 GC1W1JM,Coal mine Station,N 52Â° 18.882,E 008Â° 00.429,Germany,Niedersachsen,OsnabrÃ¼ck,164,,
 GC1W2AX,Coal mine Station Bonus,N 52Â° 18.617,E 008Â° 00.363,Germany,Niedersachsen,OsnabrÃ¼ck,100,,
 GC1W9T1,TeufelshÃ¶hle / Devil's Cave,N 50Â° 20.266,E 009Â° 27.304,Germany,Hessen,Main-Kinzig-Kreis,469,,
 GC1WBJE,Event ForÃªt EnchantÃ©e: La Mine de Plomb Argent,N 48Â° 21.416,W 003Â° 43.366,France,Bretagne,FinistÃ¨re,80,,
 GC1WD2H,[BD] - Grotta Corna Bianca,N 45Â° 55.762,E 010Â° 24.832,Italy,Lombardia,Brescia,21,,
 GC1WFP5,Potocka zijalka â€“ cave,N 46Â° 26.946,E 014Â° 40.138,Slovenia,Savinja Statistical Region,SolÄava,118,,
 GC1WG21,Grotte Aux FÃ©es,N 46Â° 13.346,E 007Â° 00.238,Switzerland,Valais,Saint-Maurice (23),621,,
 GC1WH3M,Small Cave,N 51Â° 19.782,E 008Â° 29.298,Germany,Nordrhein-Westfalen,Hochsauerlandkreis,299,,
 GC1WM1M,KristallhÃ¶hle / Crystal Cave Idar-Oberstein,N 49Â° 43.633,E 007Â° 16.580,Germany,Rheinland-Pfalz,Birkenfeld (Lkr),1061,,
 GC1WVYP,Barbarossa cave,N 51Â° 22.520,E 011Â° 02.172,Germany,ThÃ¼ringen,KyffhÃ¤userkreis,1037,,
 GC1WYRN,Coal Mine Worker,N 52Â° 18.781,E 008Â° 00.256,Germany,Niedersachsen,OsnabrÃ¼ck,144,,
 GC1X6Y0,"SumÃ¨ne #  5, la petite mine abandonnÃ©e",N 43Â° 57.721,E 003Â° 42.226,France,Occitanie,Gard,29,,
 GC1XAMY,Le trou de mine,N 50Â° 00.914,E 002Â° 41.846,France,Hauts-de-France,Somme,522,,
 GC1XAZC,Jingyuetan Ski Trail,N 43Â° 45.760,E 125Â° 29.870,China,Jilin, ,0,,
 GC1XCD5,Mine of health,N 46Â° 37.611,E 013Â° 40.549,Austria,KÃ¤rnten,Villach-Land,362,,
 GC1XEBA,Schiefergrube Herrenberg/Slate Mine Herrenberg  ğŸŒ,N 49Â° 50.926,E 007Â° 23.321,Germany,Rheinland-Pfalz,Birkenfeld (Lkr),322,,
 GC1XEZP,Zwirns mine,N 46Â° 37.682,E 013Â° 38.820,Austria,KÃ¤rnten,Villach-Land,476,,
 GC1XT16,Open-Cast Mine Hambach,N 50Â° 55.910,E 006Â° 32.865,Germany,Nordrhein-Westfalen,Rhein-Erft-Kreis,1399,,
 GC1XT26,Tse-Tse Fly Cave,N 49Â° 21.207,E 011Â° 22.789,Germany,Bayern,Neumarkt in der Oberpfalz (Lkr),189,,
 GC1XW6A,Loupeznicka jeskyne -  The Bandit's cave,N 50Â° 45.276,E 014Â° 55.021,Czechia,LibereckÃ½ kraj,Liberec,90,,
 GC1XXGX,Tobel Grotte Tils,N 47Â° 03.650,E 009Â° 22.930,Switzerland,St. Gallen,Mels (17),170,,
 GC1XYW0,"Autour du Fenarupt #1, La mine",N 48Â° 14.895,E 007Â° 10.383,France,Grand-Est,Haut-Rhin,93,,
 GC1XZXH,Trubachtal Cave,N 49Â° 41.680,E 011Â° 20.401,Germany,Bayern,Forchheim (Lkr),205,,
 GC1Y12B,Velka jama ( Big Hole),N 48Â° 23.225,E 017Â° 46.228,Slovakia,TrnavskÃ½ kraj,Hlohovec,202,,
 GC1Y1JD,grotta della neve - schneegrotte,N 46Â° 37.394,E 011Â° 57.050,Italy,Trentino-Alto Adige,Bolzano - Bozen,25,,
 GC1Y5KB,Hohle Gasse am Zinken,N 47Â° 33.282,E 010Â° 27.085,Austria,Tirol,Reutte (AuÃŸerfern),112,,
 GC1YB3H,EWR#3:Sunfixl-HÃ¶hle,N 47Â° 06.457,E 015Â° 06.397,Austria,Steiermark,Voitsberg,124,,
 GC1YBCC,Cave Czernice,N 49Â° 41.740,E 013Â° 24.586,Czechia,PlzeÅˆskÃ½ kraj,PlzeÅˆ-mÄ›sto,793,,
 GC1YDJ9,"Spitzkegelhalde ""Hohe Linde"" Point Cone Mine Dump",N 51Â° 29.499,E 011Â° 17.253,Germany,Sachsen-Anhalt,Mansfeld-SÃ¼dharz (Lkr),310,,
 GC1YG7W,Little Cave,N 51Â° 36.416,E 010Â° 00.625,Germany,Niedersachsen,GÃ¶ttingen (Lkr),115,,
 GC1YK4W,The Cave,N 49Â° 34.711,E 007Â° 06.806,Germany,Saarland,St. Wendel (Lkr),167,,
 GC1YXDC,the copy cave,N 51Â° 18.517,E 005Â° 00.073,Belgium,Antwerpen,Oud-Turnhout,209,,
 GC1YZM2,SchneckenhÃ¶hle SchÃ¶nenbach (Snail Hole Cave),N 47Â° 22.560,E 010Â° 04.061,Austria,Vorarlberg,Bregenz,29,,
 GC1Z45Z,Bystrianska cave (jaskyna),N 48Â° 50.415,E 019Â° 35.842,Slovakia,BanskobystrickÃ½ kraj,Brezno,530,,
 GC1Z98B,Dzierzyslaw -Stara kopalnia gipsu/AFW TEAM NO-26,N 50Â° 03.103,E 017Â° 59.539,Poland,Opolskie,GÅ‚ubczycki (Opolskie),142,,
 GC1ZH08,Pseudokarst Cave under Spisska Hill,N 49Â° 06.234,E 020Â° 45.765,Slovakia,PreÅ¡ovskÃ½ kraj,LevoÄa,19,,
 GC1ZHND,VeÅ¡nerjeva jama,N 46Â° 28.386,E 015Â° 33.778,Slovenia,Podravska,RaÄe-Fram,75,,
 GC200GH,Lâ€™ancienne mine dâ€™Entrevernes,N 45Â° 46.125,E 006Â° 11.098,France,Auvergne-RhÃ´ne-Alpes,Haute-Savoie,46,,
 GC206CT,Wendelstein Cave,N 47Â° 42.169,E 012Â° 00.795,Germany,Bayern,Rosenheim (Lkr),651,,
 GC20DQT,LÃ³czy Cave,N 46Â° 58.141,E 017Â° 52.410,Hungary,VeszprÃ©m,BalatonfÃ¼redi jÃ¡rÃ¡s,443,,
 GC20DW8,Lake Cave of Tapolca,N 46Â° 52.998,E 017Â° 26.595,Hungary,VeszprÃ©m,Tapolcai jÃ¡rÃ¡s,812,,
 GC20FMT,HarmaneckÃ¡ jaskyna â€“ Harmanecka cave,N 48Â° 48.834,E 019Â° 02.406,Slovakia,BanskobystrickÃ½ kraj,BanskÃ¡ Bystrica,403,,
 GC20FMZ,VAZECKA JASKYNA - VAZECKA CAVE,N 49Â° 03.375,E 019Â° 58.319,Slovakia,Å½ilinskÃ½ kraj,LiptovskÃ½ MikulÃ¡Å¡,609,,
 GC20JGP,"Sosnowiec"" coalmine. Kopalnia ""Sosnowiec",N 50Â° 16.876,E 019Â° 08.935,Poland,ÅšlÄ…skie,Sosnowiec (ÅšlÄ…skie),7,,
 GC20MG1,Belianska Cave - Belianska jaskyna ,N 49Â° 13.544,E 020Â° 18.922,Slovakia,PreÅ¡ovskÃ½ kraj,Poprad,949,,
 GC20WZ0,Grotta Gigante,N 45Â° 42.562,E 013Â° 45.867,Italy,Friuli-Venezia Giulia,Provincia di Trieste,91,,
 GC218K2,Cimrmanova jeskyne - Cimrman's cave,N 50Â° 27.306,E 014Â° 33.250,Czechia,StÅ™edoÄeskÃ½ kraj,MÄ›lnÃ­k,384,,
 GC229P9,Grotta Cassone,N 37Â° 41.936,E 015Â° 02.971,Italy,Sicilia,Catania,763,,
 GC22MPY,Le chemin de la mine,N 42Â° 56.714,W 000Â° 06.218,France,Occitanie,Hautes-PyrÃ©nÃ©es,23,,
 GC22P67,Dracula's cave ( Draculas HÃ¶hle ),N 47Â° 18.939,E 007Â° 53.127,Switzerland,Solothurn,Olten (11),203,,
 GC22Y11,Dul Jeronym / The Hieronymus Mine,N 50Â° 06.125,E 012Â° 42.730,Czechia,KarlovarskÃ½ kraj,Sokolov,629,,
 GC22YXV,Radmer Copper Mine,N 47Â° 31.379,E 014Â° 42.191,Austria,Steiermark,Leoben,46,,
 GC22ZBG,The Odelstein Cave,N 47Â° 31.452,E 014Â° 36.715,Austria,Steiermark,Bezirk Liezen,66,,
 GC230DW,L'ancienne mine de cuivre du Lispach,N 48Â° 03.333,E 006Â° 56.862,France,Grand-Est,Vosges,791,,
 GC2388T,Somewhere  2 : grotte et falaises,N 50Â° 29.647,E 004Â° 38.338,Belgium,Namur,Jemeppe-sur-Sambre,19,,
 GC23A1R,Acqua salsa di Pillo - Grotta alla Vacca,N 43Â° 31.600,E 010Â° 58.231,Italy,Toscana,Firenze,44,,
 GC23FF3,Abaliget Cave,N 46Â° 08.198,E 018Â° 06.992,Hungary,Baranya,PÃ©csi jÃ¡rÃ¡s,122,,
 GC23M96,la mine d'osenbach,N 47Â° 59.102,E 007Â° 13.158,France,Grand-Est,Haut-Rhin,297,,
 GC24FJE,Anna cave,N 48Â° 06.306,E 020Â° 37.505,Hungary,Borsod-AbaÃºj-ZemplÃ©n,Miskolci jÃ¡rÃ¡s,238,,
 GC24GXT,Mucin Cave,N 48Â° 13.989,E 019Â° 40.568,Slovakia,BanskobystrickÃ½ kraj,LuÄenec,76,,
 GC24JH6,Le mÃ©morial de la mine,N 47Â° 42.724,E 006Â° 38.906,France,Bourgogne-Franche-ComtÃ©,Haute-SaÃ´ne,147,,
 GC24X4C,St. Istvan Cave,N 48Â° 05.978,E 020Â° 37.278,Hungary,Borsod-AbaÃºj-ZemplÃ©n,Miskolci jÃ¡rÃ¡s,231,,
 GC254FW,"Alaunbergwerk / alum-mine ""Ewiges Leben""   ",N 50Â° 29.921,E 012Â° 08.101,Germany,Sachsen,Vogtlandkreis,883,,
 GC25DNV,Jaskinia Jasna ,N 50Â° 02.381,E 019Â° 54.069,Poland,MaÅ‚opolskie,KrakÃ³w (MaÅ‚opolskie),29,,
 GC25ENA,HÃ¶llerersee - Die HÃ¶hle,N 48Â° 01.571,E 012Â° 53.551,Austria,OberÃ¶sterreich,Braunau am Inn,373,,
 GC25F7X,Matejovicka jeskyne - Matejovicka Cave,N 50Â° 13.624,E 017Â° 44.228,Czechia,MoravskoslezskÃ½ kraj,BruntÃ¡l,99,,
 GC25Q33,Grotte Sainte-Reine Cave,N 48Â° 38.712,E 005Â° 56.525,France,Grand-Est,Meurthe-et-Moselle,88,,
 GC25X6D,La Grotta Azzurra,N 40Â° 33.663,E 014Â° 12.350,Italy,Campania,Napoli,374,,
 GC25Z7V,Scarhem 06 - BuffyÂ´s Cave,N 51Â° 42.782,E 008Â° 38.970,Germany,Nordrhein-Westfalen,Paderborn (Kr),342,,
 GC2657B,The Cave,N 50Â° 44.635,E 007Â° 44.741,Germany,Rheinland-Pfalz,Altenkirchen (Lkr),109,,
 GC26EAP,Cave of Love,N 50Â° 19.858,E 004Â° 17.200,Belgium,Hainaut,Thuin,53,,
 GC26H8N,BarackulinaÂ´s cave,N 49Â° 10.017,E 019Â° 09.667,Slovakia,Å½ilinskÃ½ kraj,RuÅ¾omberok,243,,
 GC26JMY,La mine Saint Nicolas,N 47Â° 49.520,E 007Â° 08.296,France,Grand-Est,Haut-Rhin,141,,
 GC26JN0,La mine du Donnerloch,N 47Â° 49.430,E 007Â° 08.704,France,Grand-Est,Haut-Rhin,130,,
 GC26P0Y,Leogang - The Cave,N 47Â° 26.582,E 012Â° 44.486,Austria,Salzburg,Zell am See,521,,
 GC26RY8,La Mine du HOCHKOPF,N 49Â° 01.122,E 007Â° 27.398,France,Grand-Est,Moselle,101,,
 GC26V5X,Gollums HÃ¶hle,N 47Â° 12.212,E 015Â° 20.919,Austria,Steiermark,Graz-Umgebung,7,,
 GC26Z1P,Railway Cave,N 49Â° 43.862,E 011Â° 33.164,Germany,Bayern,Bayreuth (Lkr),18,,
 GC276M3,SECRET CAVE,N 48Â° 37.695,E 010Â° 07.688,Germany,Baden-WÃ¼rttemberg,Heidenheim (Lkr),61,,
 GC27DV7,La cave abondonnÃ©e,N 49Â° 27.412,E 006Â° 04.802,France,Grand-Est,Moselle,593,,
 GC27Q6F,Bergwerk I-Veitsch,N 47Â° 35.603,E 015Â° 29.964,Austria,Steiermark,Bruck-MÃ¼rzzuschlag,82,,
 GC27Z4P,"Skull Cachers ""Cave""",N 50Â° 47.034,E 007Â° 28.392,Germany,Nordrhein-Westfalen,Rhein-Sieg-Kreis,57,,
 GC28EQG,HÃ¶hle von Unterloiben,N 48Â° 23.619,E 015Â° 32.485,Austria,NiederÃ¶sterreich,Bezirk Krems,277,,
 GC28J5J,?HÃ¶hle?Mauer?,N 48Â° 15.692,E 015Â° 14.861,Austria,NiederÃ¶sterreich,Bezirk Melk,58,,
 GC292T4,Grotte der Ruhe!,N 46Â° 45.140,E 007Â° 15.240,Switzerland,Fribourg,Rechthalten (10),130,,
 GC29E3N,Only a little Cave in Iserlohn,N 51Â° 23.010,E 007Â° 43.480,Germany,Nordrhein-Westfalen,MÃ¤rkischer Kreis,26,,
 GC29G63,Lourdes Grotte Mels,N 47Â° 03.143,E 009Â° 24.782,Switzerland,St. Gallen,Mels (17),617,,
 GC29HW4,Die Sunfixl-HÃ¶hle | The Sunfixl Cave,N 47Â° 06.574,E 015Â° 06.048,Austria,Steiermark,Voitsberg,108,,
 GC29HW4,Die Sunfixl-HÃ¶hle | The Sunfixl Cave,N 47Â° 06.574,E 015Â° 06.048,Austria,Steiermark,Voitsberg,108,,
 GC2A2YK,Cave Piccolo,N 36Â° 58.186,E 015Â° 05.856,Italy,Sicilia,Siracusa,9,,
 GC2A7BP,La grotte de Revogne,N 50Â° 05.610,E 005Â° 02.735,Belgium,Namur,Beauraing,375,,
 GC2A8YD,Jeskyne Barcalina / Barcalina Cave,N 50Â° 26.276,E 014Â° 36.228,Czechia,StÅ™edoÄeskÃ½ kraj,MÄ›lnÃ­k,29,,
 GC2A9P6,Die verbotene HÃ¶hle,N 47Â° 55.697,E 014Â° 25.727,Austria,OberÃ¶sterreich,Steyr-Land,77,,
 GC2AGX3,Jaskyna Driny / Driny Cave,N 48Â° 30.046,E 017Â° 24.165,Slovakia,TrnavskÃ½ kraj,Trnava,542,,
 GC2B3WX,Selim cave,N 47Â° 35.420,E 018Â° 24.415,Hungary,KomÃ¡rom-Esztergom,TatabÃ¡nyai jÃ¡rÃ¡s,321,,
 GC2BCP3,Grotte de N.D. de Lourdes,N 50Â° 03.368,E 005Â° 33.067,Belgium,Luxembourg,Sainte-Ode,313,,
 GC2BG5M,Kossuth Cave,N 48Â° 29.252,E 020Â° 33.050,Hungary,Borsod-AbaÃºj-ZemplÃ©n,Putnoki jÃ¡rÃ¡s,95,,
 GC2BG9F,Imre Vass Cave,N 48Â° 29.875,E 020Â° 32.208,Hungary,Borsod-AbaÃºj-ZemplÃ©n,Putnoki jÃ¡rÃ¡s,58,,
 GC2BH14,RÃ¡kÃ³czi Cave,N 48Â° 31.234,E 020Â° 44.943,Hungary,Borsod-AbaÃºj-ZemplÃ©n,EdelÃ©nyi jÃ¡rÃ¡s,55,,
 GC2BJ53,The Cave at Turold,N 48Â° 48.995,E 016Â° 38.411,Czechia,JihomoravskÃ½ kraj,BÅ™eclav,2031,,
 GC2BJV0,Jama na kopci,N 48Â° 44.840,E 018Â° 28.972,Slovakia,TrenÄiansky kraj,Prievidza,127,,
 GC2BPPP,Grotta del Cavallone,N 42Â° 02.295,E 014Â° 09.259,Italy,Abruzzo,Chieti,19,,
 GC2BRYG,Spas in Hungary 04 / Cave Bath,N 48Â° 03.647,E 020Â° 44.735,Hungary,Borsod-AbaÃºj-ZemplÃ©n,Miskolci jÃ¡rÃ¡s,322,,
 GC2BWBY,Kokas mountain cave,N 47Â° 14.334,E 017Â° 53.234,Hungary,VeszprÃ©m,Zirci jÃ¡rÃ¡s,119,,
 GC2BXDQ,BÃ©ke Cave,N 48Â° 27.647,E 020Â° 32.512,Hungary,Borsod-AbaÃºj-ZemplÃ©n,Putnoki jÃ¡rÃ¡s,53,,
 GC2BXNG,Meteor Cave,N 48Â° 33.182,E 020Â° 42.429,Hungary,Borsod-AbaÃºj-ZemplÃ©n,EdelÃ©nyi jÃ¡rÃ¡s,40,,
 GC2C1HF,Cave SzabadsÃ¡g,N 48Â° 27.265,E 020Â° 34.310,Hungary,Borsod-AbaÃºj-ZemplÃ©n,EdelÃ©nyi jÃ¡rÃ¡s,38,,
 GC2CNK9,l'ancienne mine de talc d'Argentine,N 45Â° 29.291,E 006Â° 20.287,France,Auvergne-RhÃ´ne-Alpes,Savoie,6,,
 GC2CQ8J,Zatopeny dul/Flooded mine,N 50Â° 14.616,E 012Â° 52.303,Czechia,KarlovarskÃ½ kraj,Karlovy Vary,805,,
 GC2CWPD,La grotte Ã  Yosi,N 46Â° 52.041,E 006Â° 52.915,Switzerland,Fribourg,Estavayer (10),51,,
 GC2DPE1,Die Veleda-HÃ¶hle / The Veleda-cave,N 51Â° 20.912,E 008Â° 22.740,Germany,Nordrhein-Westfalen,Hochsauerlandkreis,353,,
 GC2DTEA,Diabelnie gleboka jaskinia / Devilishly deep cave,N 49Â° 44.979,E 020Â° 50.250,Poland,MaÅ‚opolskie,NowosÄ…decki (MaÅ‚opolskie),24,,
 GC2DTEA,Diabelnie gleboka jaskinia / Devilishly deep cave,N 49Â° 44.979,E 020Â° 50.250,Poland,MaÅ‚opolskie,NowosÄ…decki (MaÅ‚opolskie),24,,
 GC2DWNK,Mine de la Bouisseyre,N 44Â° 30.431,E 004Â° 11.780,France,Auvergne-RhÃ´ne-Alpes,ArdÃ¨che,64,,
 GC2DYW4, [kmg]Mine de cuivre d'Anozel,N 48Â° 14.312,E 006Â° 55.554,France,Grand-Est,Vosges,124,,
 GC2E031,Babja jama,N 46Â° 08.135,E 014Â° 38.300,Slovenia,Osrednjeslovenska,DomÅ¾ale,272,,
 GC2E03D,grotte aux chats,N 47Â° 04.115,E 006Â° 45.483,Switzerland,NeuchÃ¢tel,Le Locle (24),33,,
 GC2E3M2,Smrtni jeskyne (Death cave),N 49Â° 22.052,E 016Â° 44.572,Czechia,JihomoravskÃ½ kraj,Blansko,2025,,
 GC2E7D,Cave of Turul,N 47Â° 35.808,E 018Â° 24.519,Hungary,KomÃ¡rom-Esztergom,TatabÃ¡nyai jÃ¡rÃ¡s,306,,
 GC2E829,Jaskinia Mylna (Mylna Cave),N 49Â° 14.335,E 019Â° 51.663,Poland,MaÅ‚opolskie,TatrzaÅ„ski (MaÅ‚opolskie),197,,
 GC2E829,Jaskinia Mylna (Mylna Cave),N 49Â° 14.335,E 019Â° 51.663,Poland,MaÅ‚opolskie,TatrzaÅ„ski (MaÅ‚opolskie),197,,
 GC2EBE8,Backes-Rallye: Kersbach,N 49Â° 40.809,E 011Â° 04.325,Germany,Bayern,Forchheim (Lkr),306,,
 GC2EHWX,La Grotte de Kaschbour,N 49Â° 42.594,E 005Â° 42.128,Belgium,Luxembourg,Habay,117,,
 GC2EQVG,Alter Bahnhof,N 49Â° 36.631,E 011Â° 07.766,Germany,Bayern,Forchheim (Lkr),322,,
 GC2EYP4,The Jared Cave,N 47Â° 08.481,E 009Â° 03.173,Switzerland,St. Gallen,SchÃ¤nis (17),254,,
 GC2F24R,Sontheimer TropfsteinhÃ¶hle (limestone cave),N 48Â° 25.870,E 009Â° 41.023,Germany,Baden-WÃ¼rttemberg,Alb-Donau-Kreis,270,,
 GC2F51C,SalzofenhÃ¶hle / Salzofen-cave,N 47Â° 40.838,E 013Â° 56.163,Austria,Steiermark,Bezirk Liezen,34,,
 GC2FA1V,La mine d'Ã©tain,N 47Â° 33.685,W 001Â° 32.620,France,Pays de la Loire,Loire-Atlantique,110,,
 GC2FCX6,"Tavolara, la grotta delle capre.",N 40Â° 53.318,E 009Â° 41.574,Italy,Sardegna,Olbia-Tempio,99,,
 GC2FF91,The cave,N 47Â° 35.543,E 013Â° 17.527,Austria,Salzburg,Hallein,95,,
 GC2FHJR,La grotte aux cristaux / Crystal Cave,N 48Â° 26.605,E 002Â° 40.229,France,Ãle-de-France,Seine-et-Marne,279,,
 GC2FJ8X,Bergwerk Lohberg / Mine Lohberg,N 51Â° 34.946,E 006Â° 45.684,Germany,Nordrhein-Westfalen,Wesel (Kr),766,,
 GC2FJJ5,Grotta de Tofana,N 46Â° 32.106,E 012Â° 03.386,Italy,Veneto,Belluno,3,,
 GC2FM69,the cave #1 - Frauengrube,N 47Â° 56.147,E 013Â° 00.083,Austria,Salzburg,Salzburg-Umgebung,87,,
 GC2FM87,La cave voutÃ©e de Fosse,N 49Â° 17.725,E 002Â° 40.996,France,Hauts-de-France,Oise,151,,
 GC2FM8W,the cave #2 - Frauenloch am Gaisberg,N 47Â° 48.080,E 013Â° 07.779,Austria,Salzburg,Salzburg-Umgebung,164,,
 GC2FWB5,BILDSTOCK: Cave and Lostplace,N 49Â° 31.620,E 007Â° 15.672,Germany,Saarland,St. Wendel (Lkr),113,,
 GC2FXPZ,LP Betonwerke,N 49Â° 36.500,E 011Â° 08.036,Germany,Bayern,Forchheim (Lkr),701,,
 GC2G1GB,the cave #3 - UrspungshÃ¶hle,N 47Â° 46.912,E 013Â° 07.638,Austria,Salzburg,Salzburg-Umgebung,23,,
 GC2G4G2,Anthofgrotte Cave,N 47Â° 55.974,E 015Â° 28.346,Austria,NiederÃ¶sterreich,Bezirk Lilienfeld,35,,
 GC2GCDW,Les Golutches - Les puits de mine,N 47Â° 33.446,E 006Â° 48.113,France,Bourgogne-Franche-ComtÃ©,Doubs,55,,
 GC2GE6W,Gorges Cave,N 46Â° 26.794,E 006Â° 56.614,Switzerland,Vaud,Montreux (22),52,,
 GC2GG9K,[HALLOWEEN] La grotte de Post,N 49Â° 45.154,E 005Â° 46.117,Belgium,Luxembourg,Attert,23,,
 GC2GHYZ,Kutna Hora - Medieval silver mine,N 49Â° 56.862,E 015Â° 15.923,Czechia,StÅ™edoÄeskÃ½ kraj,KutnÃ¡ Hora,1954,,
 GC2H16B,on the way to the mine,N 49Â° 30.084,E 006Â° 00.358,Luxembourg,Canton Esch-sur-Alzette,Schifflange,328,,
 GC2HAYX,The Heartbeat of Changchun,N 43Â° 50.601,E 125Â° 12.807,China,Jilin, ,21,,
 GC2HB4E,1 La tourniquette des Zinzins : La cave,N 43Â° 54.893,E 004Â° 30.658,France,Occitanie,Gard,67,,
 GC2HM3Y,LadovÃ¡ jama,N 48Â° 15.396,E 017Â° 15.825,Slovakia,BratislavskÃ½ kraj,Pezinok,40,,
 GC2HX3G,Le Pont de la Mine,N 49Â° 18.077,E 006Â° 04.429,France,Grand-Est,Moselle,148,,
 GC2J8JC,the cave #4 - Lettenloch - Luegloch,N 47Â° 39.637,E 013Â° 13.198,Austria,Salzburg,Hallein,36,,
 GC2J8MM,mine car heÃŸler,N 51Â° 31.264,E 007Â° 03.463,Germany,Nordrhein-Westfalen,Gelsenkirchen,181,,
 GC2JHE3,The biggest thermal water cave in the world,N 47Â° 31.080,E 019Â° 02.168,Hungary,Budapest,Budapest,962,,
 GC2JJ42,un arbre avec une bien sale mine !!!!,N 47Â° 38.253,E 001Â° 51.822,France,Centre-Val-de-Loire,Loir-et-Cher,114,,
 GC2JMJP,Mini-HÃ¶hle,N 48Â° 50.582,E 015Â° 08.323,Austria,NiederÃ¶sterreich,Bezirk GmÃ¼nd,230,,
 GC2K485,Die Balver HÃ¶hle - The Cave Balver,N 51Â° 20.365,E 007Â° 52.295,Germany,Nordrhein-Westfalen,MÃ¤rkischer Kreis,435,,
 GC2KB54,Grotte N-D de Lourdes Battincourt,N 49Â° 34.807,E 005Â° 45.834,Belgium,Luxembourg,Aubange,380,,
 GC2KMW3,Grotta di San Zanobi,N 43Â° 43.209,E 011Â° 10.150,Italy,Toscana,Firenze,40,,
 GC2MB81,La mine dâ€™or de Rouez,N 48Â° 08.178,W 000Â° 05.475,France,Pays de la Loire,Sarthe,47,,
 GC2ME0C,Cave canem! I,N 53Â° 43.308,E 009Â° 56.211,Germany,Schleswig-Holstein,Pinneberg (Kr),589,,
 GC2MQA1,La mine,N 45Â° 32.752,E 004Â° 51.128,France,Auvergne-RhÃ´ne-Alpes,IsÃ¨re,40,,
 GC2MTZD,Dr.cave,N 45Â° 46.729,E 013Â° 47.114,Slovenia,Obalno-kraÅ¡ka,SeÅ¾ana,108,,
 GC2MWEB,sad Cave,N 45Â° 44.362,E 013Â° 48.024,Slovenia,Obalno-kraÅ¡ka,SeÅ¾ana,37,,
 GC2N75V,L'ancienne mine de Saint-Maime,N 43Â° 54.138,E 005Â° 48.303,France,Provence-Alpes-CÃ´te d'Azur,Alpes-de-Haute-Provence,16,,
 GC2NMTK,Zpivajici jeskyne (The Singing cave),N 49Â° 59.797,E 013Â° 10.031,Czechia,PlzeÅˆskÃ½ kraj,PlzeÅˆ-sever,340,,
 GC2NP44,Horseshoe Cave,N 45Â° 34.961,E 011Â° 28.206,Italy,Veneto,Vicenza,26,,
 GC2P17B,Cave Canem! II,N 53Â° 43.223,E 009Â° 56.125,Germany,Schleswig-Holstein,Pinneberg (Kr),626,,
 GC2P17K,Cave Canem! III,N 53Â° 43.211,E 009Â° 55.905,Germany,Schleswig-Holstein,Pinneberg (Kr),747,,
 GC2PMX3,Dourbes : La grotte ,N 50Â° 04.866,E 004Â° 34.338,Belgium,Namur,Viroinval,199,,
 GC2PV1K,Le Ronc rouge #1 : L'ancien puits de mine,N 44Â° 17.216,E 004Â° 05.011,France,Occitanie,Gard,83,,
 GC2Q12C,Neolithikum/Stone Age Cave,N 49Â° 08.748,E 011Â° 46.678,Germany,Bayern,Neumarkt in der Oberpfalz (Lkr),82,,
 GC2QH57,Quicksilver - The dead mine,N 42Â° 52.942,E 011Â° 39.921,Italy,Toscana,Siena,68,,
 GC2QKQV,Zupanova jama/Mayor's cave,N 45Â° 54.764,E 014Â° 38.326,Slovenia,Osrednjeslovenska,Grosuplje,156,,
 GC2QKQV,Zupanova jama/Mayor's cave,N 45Â° 54.764,E 014Â° 38.326,Slovenia,Osrednjeslovenska,Grosuplje,156,,
 GC2QNBB,L'ancienne mine de Mas Nau,N 44Â° 04.921,E 003Â° 08.045,France,Occitanie,Aveyron,31,,
 GC2QQJW,Stribrny dul/Silver mine,N 49Â° 18.111,E 015Â° 04.783,Czechia,Kraj VysoÄina,PelhÅ™imov,203,,
 GC2QWZN,Borzas mountain cave,N 47Â° 11.085,E 017Â° 50.019,Hungary,VeszprÃ©m,VeszprÃ©mi jÃ¡rÃ¡s,117,,
 GC2R0DF,The Heart beats or Time to relax,N 43Â° 53.137,E 125Â° 18.505,China,Jilin, ,64,,
 GC2R57K,Silver Cave,N 47Â° 38.519,E 007Â° 41.696,Germany,Baden-WÃ¼rttemberg,LÃ¶rrach (Lkr),61,,
 GC2R6N7,Zur Fledermaus HÃ¶hle,N 48Â° 09.631,E 013Â° 03.827,Austria,OberÃ¶sterreich,Braunau am Inn,3,,
 GC2RHHH,Visonta Nyugati BÃ¡nya,N 47Â° 46.517,E 020Â° 00.809,Hungary,Heves,GyÃ¶ngyÃ¶si jÃ¡rÃ¡s,85,,
 GC2RHNJ,the cave #5 - GutortenbrandhÃ¶hle,N 47Â° 39.667,E 013Â° 12.569,Austria,Salzburg,Hallein,29,,
 GC2T0JK,La grotta della calcara,N 45Â° 37.374,E 011Â° 26.249,Italy,Veneto,Vicenza,41,,
 GC2T413,Hoehlenmalerei - Cave painting,N 48Â° 18.540,E 016Â° 16.490,Austria,NiederÃ¶sterreich,Bezirk Tulln,79,,
 GC2TAMR,LA GROTTE,N 50Â° 35.896,E 005Â° 41.934,Belgium,LiÃ¨ge,Olne,148,,
 GC2TC19,Grave (Cave Cache),N 48Â° 02.612,E 014Â° 19.797,Austria,OberÃ¶sterreich,Steyr-Land,272,,
 GC2TYRY,La cave des Templiers,N 48Â° 08.907,E 002Â° 41.939,France,Ãle-de-France,Seine-et-Marne,53,,
 GC2TZZ1,Les Avants-la grotte,N 46Â° 27.190,E 006Â° 56.955,Switzerland,Vaud,Montreux (22),58,,
 GC2V1ZW,In der Klamm 2 - In der HÃ¶hle,N 47Â° 34.280,E 012Â° 30.233,Austria,Tirol,KitzbÃ¼hel,446,,
 GC2VR3R,Jama na mamuta,N 49Â° 11.000,E 018Â° 36.000,Slovakia,Å½ilinskÃ½ kraj,BytÄa,10,,
 GC2VTQJ,[Event GEO LOCO] Pont minÃ©,N 48Â° 28.997,E 007Â° 42.044,France,Grand-Est,Bas-Rhin,91,,
 GC2W06C,ERW04 - HÃ¶hle / Cave,N 47Â° 39.107,E 015Â° 51.951,Austria,NiederÃ¶sterreich,Bezirk Neunkirchen,236,,
 GC2W06C,ERW04 - HÃ¶hle / Cave,N 47Â° 39.107,E 015Â° 51.951,Austria,NiederÃ¶sterreich,Bezirk Neunkirchen,236,,
 GC2W50J,Martin's cave,N 46Â° 38.893,E 014Â° 17.807,Austria,KÃ¤rnten,Klagenfurt am WÃ¶rthersee,119,,
 GC2WP2Q,La cave aux fÃ©es,N 49Â° 02.148,E 001Â° 48.868,France,Ãle-de-France,Yvelines,157,,
 GC2WPQG,The high cave of Karlgraben,N 47Â° 41.797,E 015Â° 35.059,Austria,Steiermark,Bruck-MÃ¼rzzuschlag,28,,
 GC2WRXG,Grotta del vento,N 44Â° 02.042,E 010Â° 21.455,Italy,Toscana,Lucca,148,,
 GC2X1W4,Cave di Caolino,N 38Â° 29.801,E 014Â° 54.659,Italy,Sicilia,Messina,99,,
 GC2XPH5,"secret place of hell ""groÃŸhÃ¶hle""",N 47Â° 49.679,E 013Â° 37.392,Austria,OberÃ¶sterreich,Gmunden,29,,
 GC2XYT6,Grotte de Lourdes,N 50Â° 33.448,E 005Â° 21.699,Belgium,LiÃ¨ge,Engis,30,,
 GC2Y956,MBC Cave Bunker,N 50Â° 23.429,E 007Â° 37.548,Germany,Rheinland-Pfalz,Mayen-Koblenz (Lkr),55,,
 GC2YM9E,Glasenbachklamm - Kleine HÃ¶hle,N 47Â° 46.070,E 013Â° 05.826,Austria,Salzburg,Salzburg-Umgebung,210,,
 GC2YPR2,[ECL 2011] Le bois de la mine,N 46Â° 26.736,W 001Â° 41.405,France,Pays de la Loire,VendÃ©e,451,,
 GC2YPR7,[ECL 2011] Entre mine et golf,N 46Â° 26.769,W 001Â° 41.529,France,Pays de la Loire,VendÃ©e,66,,
 GC2YQN3,[ECL 2011] La mine de Richard Coeur de Lion,N 46Â° 26.737,W 001Â° 41.707,France,Pays de la Loire,VendÃ©e,245,,
 GC2YWP7,Cave Canem,N 48Â° 53.655,E 013Â° 38.551,Germany,Bayern,Freyung-Grafenau (Lkr),139,,
 GC2Z5T2,Trhlovca (Triglovca) cave,N 45Â° 40.335,E 013Â° 56.784,Slovenia,Obalno-kraÅ¡ka,SeÅ¾ana,301,,
 GC2ZAKP,Grotte Notre-Dame de Lourdes,N 50Â° 30.118,E 003Â° 59.567,Belgium,Hainaut,Mons,430,,
 GC2ZCYR,Wolf-hole cave,N 47Â° 57.632,E 019Â° 46.396,Hungary,NÃ³grÃ¡d,BÃ¡tonyterenyei jÃ¡rÃ¡s,22,,
 GC30CW5,Grotte et ancienne cave Ã  fromage de Matharel,N 43Â° 57.475,E 003Â° 02.460,France,Occitanie,Aveyron,19,,
 GC30GJC,Vilenica Cave,N 45Â° 40.477,E 013Â° 54.694,Slovenia,Obalno-kraÅ¡ka,SeÅ¾ana,122,,
 GC30WPG,La mine de plomb argentifÃ¨re de La Plagne,N 45Â° 30.657,E 006Â° 40.663,France,Auvergne-RhÃ´ne-Alpes,Savoie,205,,
 GC31DGN,little cave,N 51Â° 31.115,E 004Â° 28.237,Netherlands,Noord-Brabant,Roosendaal,125,,
 GC31DNA,La grotte du colÃ©optÃ¨re,N 50Â° 22.344,E 005Â° 32.243,Belgium,Luxembourg,Durbuy,288,,
 GC31H8V,Budapest 2011 - Cave HUNt,N 47Â° 32.047,E 019Â° 01.353,Hungary,Budapest,Budapest,30,,
 GC31KTP,St. John's Cave / Grotte di San Giovanni,N 39Â° 20.220,E 008Â° 37.660,Italy,Sardegna,Carbonia-Iglesias,92,,
 GC31ND5,MD2: LE PUIT DE MINE,N 50Â° 38.370,E 005Â° 41.791,Belgium,LiÃ¨ge,FlÃ©ron,174,,
 GC326K1,The Cave,N 47Â° 29.813,E 014Â° 33.125,Austria,Steiermark,Bezirk Liezen,54,,
 GC32KJQ,Mick 02 - Le terril de Blegny-Mine,N 50Â° 41.326,E 005Â° 43.270,Belgium,LiÃ¨ge,Blegny,263,,
 GC32TRD,ODK 06 Jama,N 48Â° 11.840,E 016Â° 59.847,Slovakia,BratislavskÃ½ kraj,Bratislava IV,541,,
 GC32W5F,La Grotta di Sant'Angelo,N 39Â° 42.276,E 016Â° 02.296,Italy,Calabria,Cosenza,9,,
 GC33AEJ,Jazvinska jaskyna/cave,N 48Â° 30.563,E 018Â° 32.670,Slovakia,BanskobystrickÃ½ kraj,Å½arnovica,76,,
 GC33H8K,2#DÃ©couverte de...Listrac-MÃ©doc~Cave et ChÃ¢teau,N 45Â° 04.466,W 000Â° 47.581,France,Nouvelle-Aquitaine,Gironde,62,,
 GC340EW,Dragon Cave,N 47Â° 25.180,E 009Â° 16.904,Switzerland,St. Gallen,Gossau (SG) (17),241,,
 GC3414,OdvaskÃµ Cave,N 47Â° 17.336,E 017Â° 42.971,Hungary,VeszprÃ©m,PÃ¡pai jÃ¡rÃ¡s,305,,
 GC342FF,[JM #3] Le Cave di Tor Marancia,N 41Â° 51.110,E 012Â° 30.638,Italy,Lazio,Roma,25,,
 GC3434A,Bat Cave,N 39Â° 17.732,E 009Â° 26.134,Italy,Sardegna,Cagliari,2,,
 GC3466P,Grotte Vilters,N 47Â° 01.194,E 009Â° 27.795,Switzerland,St. Gallen,Vilters-Wangs (17),133,,
 GC34A6N,La grotte de hohiÃ¨re,N 50Â° 21.467,E 005Â° 33.967,Belgium,Luxembourg,Durbuy,82,,
 GC34ADM,Nameless in Changchun ,N 43Â° 53.017,E 125Â° 18.082,China,Jilin, ,25,,
 GC34DD0,Krizna Jama,N 45Â° 44.715,E 014Â° 28.048,Slovenia,Littoralâ€“Inner Carniola Region,Cerknica,226,,
 GC34YR4,Lost Places - Castle & Cave,N 46Â° 43.911,E 014Â° 32.009,Austria,KÃ¤rnten,VÃ¶lkermarkt,4,,
 GC35212,Grotta dello Smeraldo,N 40Â° 36.888,E 014Â° 34.010,Italy,Campania,Salerno,233,,
 GC353WE,On the Bridge!,N 51Â° 12.952,E 011Â° 47.643,Germany,Sachsen-Anhalt,Burgenlandkreis,37,,
 GC359D5,Chemin de la mine,N 49Â° 06.401,W 000Â° 23.340,France,Normandie,Calvados,75,,
 GC35GPT,Mine D'Or,N 46Â° 11.749,E 002Â° 28.139,France,Nouvelle-Aquitaine,Creuse,28,,
 GC35Q50,Turska jama/Turkish cave,N 46Â° 25.853,E 014Â° 06.282,Slovenia,Upper Carniola Statistical Region,Jesenice,17,,
 GC35Q50,Turska jama/Turkish cave,N 46Â° 25.853,E 014Â° 06.282,Slovenia,Upper Carniola Statistical Region,Jesenice,17,,
 GC35RJX,Grotte de grobois,N 50Â° 24.026,E 006Â° 05.213,Belgium,LiÃ¨ge,Waimes,316,,
 GC35Y7Q,FOXI CAVE,N 48Â° 07.056,E 016Â° 14.230,Austria,NiederÃ¶sterreich,Bezirk MÃ¶dling,127,,
 GC36AVG,Grotta all'onda,N 43Â° 58.522,E 010Â° 20.536,Italy,Toscana,Lucca,30,,
 GC36CD0,La grotte du blaireau,N 50Â° 24.013,E 005Â° 32.291,Belgium,LiÃ¨ge,FerriÃ¨res,74,,
 GC36K8X,Jama Zijalka / Zijalka Cave,N 46Â° 22.925,E 014Â° 12.850,Slovenia,Upper Carniola Statistical Region,Radovljica,116,,
 GC36K8X,Jama Zijalka / Zijalka Cave,N 46Â° 22.925,E 014Â° 12.850,Slovenia,Upper Carniola Statistical Region,Radovljica,116,,
 GC36R6G,Jaskyna&bifurkacia / Cave&Bifurcation on Branisko,N 49Â° 01.280,E 020Â° 51.380,Slovakia,PreÅ¡ovskÃ½ kraj,LevoÄa,115,,
 GC36YT6,Turska jama II. / Turkish Cave II.,N 46Â° 24.649,E 014Â° 08.882,Slovenia,Upper Carniola Statistical Region,Å½irovnica,65,,
 GC36YT6,Turska jama II. / Turkish Cave II.,N 46Â° 24.649,E 014Â° 08.882,Slovenia,Upper Carniola Statistical Region,Å½irovnica,65,,
 GC379Y0,Snezna jama,N 46Â° 24.914,E 014Â° 03.376,Slovenia,Upper Carniola Statistical Region,Gorje,29,,
 GC37B3T,Flint Mountain Cave,N 47Â° 08.259,E 017Â° 41.969,Hungary,VeszprÃ©m,VeszprÃ©mi jÃ¡rÃ¡s,44,,
 GC37FXZ,Grotta La Palombara ,N 40Â° 00.317,E 018Â° 25.863,Italy,Puglia,Lecce,37,,
 GC37G4T,Tanzstunde,N 50Â° 57.405,E 013Â° 56.156,Germany,Sachsen,SÃ¤chsische Schweiz-Osterzgebirge (Lkr),35,,
 GC37PGC,Grotta del Leone,N 43Â° 44.239,E 010Â° 28.415,Italy,Toscana,Pisa,148,,
 GC37XYA,Dul Engerth / Engerth mine,N 50Â° 09.116,E 014Â° 05.348,Czechia,StÅ™edoÄeskÃ½ kraj,Kladno,164,,
 GC383P1,Der Stromkasten,N 50Â° 59.358,E 013Â° 49.753,Germany,Sachsen,Dresden,231,,
 GC383QG,Dans la grotte,N 50Â° 33.992,E 005Â° 46.909,Belgium,LiÃ¨ge,Pepinster,408,,
 GC386QK,Inside the Cave,N 49Â° 18.761,E 007Â° 31.442,Germany,Rheinland-Pfalz,SÃ¼dwestpfalz (Lkr),3,,
 GC38DAW,Dragon-Cave,N 50Â° 25.260,E 007Â° 58.951,Germany,Hessen,Limburg-Weilburg (Lkr),145,,
 GC38DCC,Grotte de Troubat / Troubat cave,N 42Â° 58.557,E 000Â° 35.042,France,Occitanie,Hautes-PyrÃ©nÃ©es,41,,
 GC38G0B,Lourdes-Grotte ,N 47Â° 31.933,E 007Â° 59.126,Switzerland,Aargau,Eiken (19),230,,
 GC38QKQ,HÃ¶hle der RÃ¶mer,N 46Â° 50.276,E 013Â° 21.958,Austria,KÃ¤rnten,Spittal an der Drau,126,,
 GC397A2,La mine de cuivre de Cap Garonne,N 43Â° 04.888,E 006Â° 02.124,France,Provence-Alpes-CÃ´te d'Azur,Var,89,,
 GC3993,Hideout Cave,N 50Â° 54.633,E 014Â° 16.827,Germany,Sachsen,SÃ¤chsische Schweiz-Osterzgebirge (Lkr),134,,
 GC39BAT,la miniera d'argento (the silver mine),N 45Â° 52.723,E 008Â° 49.365,Italy,Lombardia,Varese,29,,
 GC3ACTF,DivaÅ¡ka jama / Divaca Cave,N 45Â° 40.513,E 013Â° 57.035,Slovenia,Obalno-kraÅ¡ka,DivaÄa,188,,
 GC3ACTF,DivaÅ¡ka jama / Divaca Cave,N 45Â° 40.513,E 013Â° 57.035,Slovenia,Obalno-kraÅ¡ka,DivaÄa,188,,
 GC3ARPC,Å½upanova jama / Mayor's cave,N 45Â° 54.765,E 014Â° 38.359,Slovenia,Osrednjeslovenska,Grosuplje,91,,
 GC3ARPC,Å½upanova jama / Mayor's cave,N 45Â° 54.765,E 014Â° 38.359,Slovenia,Osrednjeslovenska,Grosuplje,91,,
 GC3B0FG,Grotte de Chaumont,N 50Â° 13.879,E 004Â° 36.687,Belgium,Namur,Florennes,170,,
 GC3BFH2,Jeskyne krale Saula / King Saul's cave,N 49Â° 58.341,E 016Â° 20.407,Czechia,PardubickÃ½ kraj,ÃšstÃ­ nad OrlicÃ­,25,,
 GC3BGXY,MatjaÅ¾eva jama / MatjaÅ¾ cave,N 46Â° 08.202,E 014Â° 27.159,Slovenia,Osrednjeslovenska,Medvode,118,,
 GC3BGXY,MatjaÅ¾eva jama / MatjaÅ¾ cave,N 46Â° 08.202,E 014Â° 27.159,Slovenia,Osrednjeslovenska,Medvode,118,,
 GC3BGY8,"Cave of the Monk, Moldava nad Bodvou",N 48Â° 36.838,E 020Â° 59.456,Slovakia,KoÅ¡ickÃ½ kraj,KoÅ¡ice - okolie,119,,
 GC3BM09,Huda luknja / Cave Huda luknja,N 46Â° 24.850,E 015Â° 10.469,Slovenia,KoroÅ¡ka,Mislinja,152,,
 GC3BPHH,War Cave,N 45Â° 27.305,E 011Â° 34.690,Italy,Veneto,Vicenza,41,,
 GC3C29Z,Beskid MaÅ‚y - Jaskinia Czarne DziaÅ‚y,N 49Â° 44.858,E 019Â° 21.661,Poland,ÅšlÄ…skie,Å¼ywiecki (ÅšlÄ…skie),50,,
 GC3C384,The Treasurer of Pu Yi in Changchun Fu,N 43Â° 52.000,E 125Â° 17.000,China,Jilin, ,21,,
 GC3C3A5,Bird Nest,N 43Â° 52.514,E 125Â° 18.062,China,Jilin, ,26,,
 GC3D141,cave 022012,N 48Â° 04.587,E 009Â° 17.662,Germany,Baden-WÃ¼rttemberg,Sigmaringen (Lkr),47,,
 GC3D6DZ,Enrico VIII Cave,N 45Â° 29.327,E 011Â° 31.336,Italy,Veneto,Vicenza,89,,
 GC3DPA1,Jama Pekel - Parkirisce,N 46Â° 17.170,E 015Â° 07.877,Slovenia,Savinja Statistical Region,Å½alec,228,,
 GC3DQAY,La mine de plomb-argent,N 44Â° 27.695,E 004Â° 00.725,France,Auvergne-RhÃ´ne-Alpes,ArdÃ¨che,11,,
 GC3DTHC,Jaskinia - Zimna Dziura,N 51Â° 06.346,E 015Â° 37.531,Poland,DolnoÅ›lÄ…skie,LwÃ³wecki (DolnoÅ›lÄ…skie),54,,
 GC3E96Z,Jack Daniels Cave,N 49Â° 07.195,E 007Â° 33.349,Germany,Rheinland-Pfalz,SÃ¼dwestpfalz (Lkr),22,,
 GC3EAZN,The Dragon Cave: Cavallasca 1,N 45Â° 49.170,E 009Â° 02.093,Italy,Lombardia,Como,127,,
 GC3EJPE,Grotte de la porte AÃ¯ve ,N 50Â° 16.150,E 005Â° 28.450,Belgium,Luxembourg,Hotton,256,,
 GC3F91K,Dans la grotte nÂ°2,N 50Â° 34.004,E 005Â° 46.928,Belgium,LiÃ¨ge,Pepinster,314,,
 GC3F95B,1000er in der HÃ¶hle - Kein Aprilscherz!,N 48Â° 03.180,E 016Â° 04.660,Austria,NiederÃ¶sterreich,Bezirk Baden,23,,
 GC3FB6W,[JLX.33]  Grotta S. Bambino,N 44Â° 24.585,E 008Â° 40.688,Italy,Liguria,Genova,64,,
 GC3FDCZ,Skednena jama,N 45Â° 52.533,E 014Â° 14.435,Slovenia,Osrednjeslovenska,Logatec,80,,
 GC3FYWN,The blue mine car,N 49Â° 13.020,E 006Â° 49.972,Germany,Saarland,Regionalverband SaarbrÃ¼cken,620,,
 GC3G5BE,NUMBER ONE,N 43Â° 50.463,E 125Â° 12.334,China,Jilin, ,12,,
 GC3GE8X,Grotte de Notre Dame de Moulin de Bistain,N 50Â° 09.495,E 005Â° 51.116,Belgium,Luxembourg,Gouvy,135,,
 GC3GFZ6,Treasure cave,N 47Â° 50.434,E 107Â° 23.900,Mongolia, , ,33,,
 GC3GV2M,Grotte de l'hyÃ¨ne,N 50Â° 15.633,E 005Â° 26.559,Belgium,Luxembourg,Hotton,281,,
 GC3H9FH,The Palace of the last Emperor Pu Yi ,N 43Â° 54.148,E 125Â° 20.448,China,Jilin, ,23,,
 GC3HD29,Lourdes-Grotte,N 50Â° 37.008,E 005Â° 59.836,Belgium,LiÃ¨ge,Baelen,148,,
 GC3HFYE,enemy mine,N 49Â° 29.346,E 010Â° 46.987,Germany,Bayern,FÃ¼rth (Lkr),191,,
 GC3HP0T,La mine de Pont-PÃ©an,N 48Â° 00.798,W 001Â° 42.618,France,Bretagne,Ille-et-Vilaine,57,,
 GC3HTG0,"Petite grotte ""Le trou des hiboux""",N 50Â° 09.732,E 005Â° 14.725,Belgium,Namur,Rochefort,343,,
 GC3HYCV,Jaskynne dobrodruzstvo / Cave adventure,N 48Â° 50.446,E 019Â° 35.998,Slovakia,BanskobystrickÃ½ kraj,Brezno,247,,
 GC3HYNX,mine car heÃŸler (reloaded),N 51Â° 31.265,E 007Â° 03.469,Germany,Nordrhein-Westfalen,Gelsenkirchen,64,,
 GC3J035,Die Karte von FICHTA GEBIRGA - Die dunkle Mine,N 50Â° 04.709,E 011Â° 53.142,Germany,Bayern,Wunsiedel im Fichtelgebirge (Lkr),65,,
 GC3J57V,"Cave in the Hill #2, Debrad",N 48Â° 39.003,E 021Â° 00.080,Slovakia,KoÅ¡ickÃ½ kraj,KoÅ¡ice - okolie,60,,
 GC3JV26,"Cave in the Hill #3, Debrad",N 48Â° 38.440,E 021Â° 00.001,Slovakia,KoÅ¡ickÃ½ kraj,KoÅ¡ice - okolie,56,,
 GC3K6T9,PICCOLA GROTTA A SULZANO,N 45Â° 41.205,E 010Â° 06.344,Italy,Lombardia,Brescia,248,,
 GC3KMW5,Zirbenrunde #05 - Der hohle Baumstamm,N 47Â° 03.447,E 014Â° 36.965,Austria,Steiermark,Murtal,481,,
 GC3KQ3B,Cave Du Vin,N 43Â° 06.701,E 002Â° 50.125,France,Occitanie,Aude,73,,
 GC3KWZD,Grotte de Bohon ,N 50Â° 21.894,E 005Â° 29.243,Belgium,Luxembourg,Durbuy,258,,
 GC3KXEM,Die Hohle Erde,N 47Â° 51.406,E 016Â° 30.011,Austria,Burgenland,Eisenstadt,317,,
 GC3M417,La Grotte du Talent,N 46Â° 37.304,E 006Â° 38.712,Switzerland,Vaud,Bottens (22),92,,
 GC3M4ZC,BoÃ®te de nuit: la Cave de la FÃªte Triste,N 48Â° 47.199,E 007Â° 40.938,France,Grand-Est,Bas-Rhin,43,,
 GC3M8N5,Une mine plutÃ´t humide,N 44Â° 05.972,E 003Â° 00.680,France,Occitanie,Aveyron,31,,
 GC3MP25,Sudslavicka sluj/Sudslavice Cave,N 49Â° 05.467,E 013Â° 47.733,Czechia,JihoÄeskÃ½ kraj,Prachatice,68,,
 GC3MQHZ,Survival Cache I - Grotta dei Baci,N 38Â° 57.412,E 008Â° 35.673,Italy,Sardegna,Carbonia-Iglesias,7,,
 GC3MZ4G,Lost-Cave,N 51Â° 30.898,E 009Â° 50.119,Germany,Niedersachsen,GÃ¶ttingen (Lkr),75,,
 GC3N5GC,La Mina - The Mine,N 46Â° 17.832,E 011Â° 05.436,Italy,Trentino-Alto Adige,Trento,9,,
 GC3NKDY,HISTOIRE DE LA MINE,N 46Â° 09.790,E 002Â° 50.066,France,Auvergne-RhÃ´ne-Alpes,Puy-de-DÃ´me,22,,
 GC3P2BG,Una grotta nel bosco,N 45Â° 44.043,E 009Â° 11.143,Italy,Lombardia,Como,40,,
 GC3P3PH,Berninger HÃ¶hle,N 46Â° 34.875,E 014Â° 11.915,Austria,KÃ¤rnten,Klagenfurt-Land,56,,
 GC3PFYD,Achtung Mine!,N 53Â° 22.500,E 008Â° 27.000,Germany,Niedersachsen,Wesermarsch (Lkr),84,,
 GC3PKER,La cave du pÃ¨re GERARDIN,N 48Â° 40.448,E 005Â° 55.518,France,Grand-Est,Meurthe-et-Moselle,247,,
 GC3PNW2,É²âˆš #4 Grotta dei Falsari,N 44Â° 11.600,E 008Â° 25.328,Italy,Liguria,Savona,119,,
 GC3PR7K,Liskovska jaskyna /cave,N 49Â° 05.510,E 019Â° 20.675,Slovakia,Å½ilinskÃ½ kraj,RuÅ¾omberok,233,,
 GC3PWJG,Kopalnia Soli Bochnia / Bochnia Salt Mine,N 49Â° 58.152,E 020Â° 25.070,Poland,MaÅ‚opolskie,BocheÅ„ski (MaÅ‚opolskie),134,,
 GC3QFMY,Grotte MÃ¼ntschenberg,N 47Â° 12.625,E 009Â° 26.067,Switzerland,St. Gallen,Gams (17),153,,
 GC3QM1X,Irchel - Grotte,N 47Â° 32.559,E 008Â° 35.311,Switzerland,ZÃ¼rich,Freienstein-Teufen (1),323,,
 GC3QR8T,Budapest 2012 - Cave Hunting,N 47Â° 32.047,E 019Â° 01.353,Hungary,Budapest,Budapest,46,,
 GC3QRAB,L'ancienne mine,N 45Â° 02.045,E 006Â° 29.782,France,Provence-Alpes-CÃ´te d'Azur,Hautes-Alpes,4,,
 GC3QVBZ,Jaskinia Stajnia w Mirowie,N 50Â° 36.963,E 019Â° 29.075,Poland,ÅšlÄ…skie,Myszkowski (ÅšlÄ…skie),152,,
 GC3QYVX,HAPPY BIRTHDAY 7 -  THE CAVE,N 50Â° 35.511,E 005Â° 41.840,Belgium,LiÃ¨ge,Trooz,125,,
 GC3R0JX,Vlcia jama,N 48Â° 24.115,E 018Â° 53.582,Slovakia,BanskobystrickÃ½ kraj,BanskÃ¡ Å tiavnica,428,,
 GC3R5BN,Zur Schneckenloch HÃ¶hle 1,N 47Â° 22.533,E 010Â° 03.517,Austria,Vorarlberg,Bregenz,67,,
 GC3R5C3,Zur Schneckenloch HÃ¶hle 3,N 47Â° 22.493,E 010Â° 03.864,Austria,Vorarlberg,Bregenz,64,,
 GC3R5DF,Zur Schneckenloch HÃ¶hle 2,N 47Â° 22.554,E 010Â° 03.972,Austria,Vorarlberg,Bregenz,38,,
 GC3R7F9,La Mine des Eduits,N 44Â° 55.556,E 006Â° 35.244,France,Provence-Alpes-CÃ´te d'Azur,Hautes-Alpes,37,,
 GC3RAG5,Jama/Cave Malikovec,N 45Â° 38.333,E 015Â° 11.133,Slovenia,Jugovzhodna Slovenija,SemiÄ,7,,
 GC3RAG5,Jama/Cave Malikovec,N 45Â° 38.333,E 015Â° 11.133,Slovenia,Jugovzhodna Slovenija,SemiÄ,7,,
 GC3RB2B,La grotta di... Lourdes.,N 45Â° 21.276,E 009Â° 03.159,Italy,Lombardia,Milano,58,,
 GC3RRJD,La grotte du Brahon,N 47Â° 11.917,E 007Â° 12.247,Switzerland,Bern,Sonceboz-Sombeval (2),89,,
 GC3T1R3,"[K8] La grotte ""Notre Dame de Lourdes""",N 49Â° 34.575,E 005Â° 29.538,Belgium,Luxembourg,Meix-devant-Virton,80,,
 GC3T2N7,La cave de Laudun,N 44Â° 06.246,E 004Â° 39.826,France,Occitanie,Gard,33,,
 GC3T4NP,Grotte Notre-Dame de Lourdes,N 50Â° 03.565,E 004Â° 59.998,Belgium,Namur,Beauraing,78,,
 GC3TFKT,"Phyrnpass  ""das Bergwerk""",N 47Â° 37.094,E 014Â° 17.816,Austria,OberÃ¶sterreich,Kirchdorf an der Krems,69,,
 GC3TPJ1,La mine de fer,N 43Â° 51.118,E 007Â° 07.719,France,Provence-Alpes-CÃ´te d'Azur,Alpes-Maritimes,25,,
 GC3VEBN,Czerwona Jaskinia i smok,N 50Â° 49.544,E 015Â° 39.234,Poland,DolnoÅ›lÄ…skie,JeleniogÃ³rski (DolnoÅ›lÄ…skie),72,,
 GC3VEEX,Bloc Party: The Cave,N 47Â° 11.005,E 012Â° 31.786,Austria,Salzburg,Zell am See,39,,
 GC3VFN0,Lost Mine City,N 46Â° 50.783,E 013Â° 38.985,Austria,KÃ¤rnten,Spittal an der Drau,79,,
 GC3VTTW,bat cave,N 52Â° 10.937,E 008Â° 08.400,Germany,Niedersachsen,OsnabrÃ¼ck (Lkr),230,,
 GC3W892,Grotte ND de Lourdes,N 50Â° 11.233,E 004Â° 38.731,Belgium,Namur,Philippeville,86,,
 GC3WP4N,Le loup-garou de la grotte,N 46Â° 42.103,E 007Â° 05.769,Switzerland,Fribourg,Pont-en-Ogoz (10),62,,
 GC3WPK3,Lourdes Grotte Libingen (reloaded),N 47Â° 19.541,E 009Â° 00.916,Switzerland,St. Gallen,Mosnang (17),133,,
 GC3WXQ3,"Cave, Ardovo",N 48Â° 31.285,E 020Â° 25.246,Slovakia,KoÅ¡ickÃ½ kraj,RoÅ¾Åˆava,80,,
 GC3X1RR,Der Hohle Zahn,N 47Â° 17.227,E 011Â° 27.221,Austria,Tirol,Innsbruck-Land,347,,
 GC3X2J9,Jama ob Zbiljskem jezeru / A Cave by Zbilje lake,N 46Â° 09.066,E 014Â° 24.770,Slovenia,Osrednjeslovenska,Medvode,172,,
 GC3X2J9,Jama ob Zbiljskem jezeru / A Cave by Zbilje lake,N 46Â° 09.066,E 014Â° 24.770,Slovenia,Osrednjeslovenska,Medvode,172,,
 GC3X3PM,Zadlaska (Dantejeva) Jama ,N 46Â° 12.012,E 013Â° 44.593,Slovenia,GoriÅ¡ka,Tolmin,128,,
 GC3X6CB,Route de la Corniche 2 - La Mine sous-marine,N 45Â° 04.494,W 000Â° 38.204,France,Nouvelle-Aquitaine,Gironde,251,,
 GC3XM2J,KriÅ¾na jama / KriÅ¾na cave,N 45Â° 44.742,E 014Â° 28.036,Slovenia,Littoralâ€“Inner Carniola Region,Cerknica,140,,
 GC3XM2J,KriÅ¾na jama / KriÅ¾na cave,N 45Â° 44.742,E 014Â° 28.036,Slovenia,Littoralâ€“Inner Carniola Region,Cerknica,140,,
 GC3XTK6,Rotta-Cave,N 47Â° 04.257,E 009Â° 52.081,Austria,Vorarlberg,Bludenz,27,,
 GC3XVDW,Cave Canem,N 50Â° 15.130,E 007Â° 19.100,Germany,Rheinland-Pfalz,Mayen-Koblenz (Lkr),118,,
 GC3XX76,"Cave, Hacava",N 48Â° 39.856,E 020Â° 49.795,Slovakia,KoÅ¡ickÃ½ kraj,KoÅ¡ice - okolie,89,,
 GC3XXMN,Buddha's HÃ¶hle,N 48Â° 12.776,E 016Â° 15.611,Austria,Wien,Wien,391,,
 GC3YB97,Planinska Jama - An Underground Confluence, , , , , , ,,
 GC3YDZ8,Vestige d'Algrange - Mine d'Angevillers,N 49Â° 22.180,E 006Â° 03.177,France,Grand-Est,Moselle,151,,
 GC3YG9H,La prima grotta - The first cave,N 45Â° 52.805,E 011Â° 52.428,Italy,Veneto,Treviso,12,,
 GC3YG9H,La prima grotta - The first cave,N 45Â° 52.805,E 011Â° 52.428,Italy,Veneto,Treviso,12,,
 GC3YHFZ,La Grotta di Bourud (Genevris),N 45Â° 02.792,E 006Â° 52.678,Italy,Piemonte,Torino,16,,
 GC3YMQA,La Grotte de Pont,N 50Â° 22.096,E 006Â° 01.845,Belgium,LiÃ¨ge,Malmedy,205,,
 GC3YN35,Drive in  Cave/Jama,N 45Â° 57.612,E 013Â° 45.704,Slovenia,GoriÅ¡ka,Nova Gorica,33,,
 GC3YN35,Drive in  Cave/Jama,N 45Â° 57.612,E 013Â° 45.704,Slovenia,GoriÅ¡ka,Nova Gorica,33,,
 GC3YN74,SneÅ¾na jama,N 46Â° 01.449,E 013Â° 47.955,Slovenia,GoriÅ¡ka,Nova Gorica,23,,
 GC3YQ1G,Balestrate #2: La Grotta,N 38Â° 02.869,E 012Â° 59.888,Italy,Sicilia,Palermo,97,,
 GC3YQ2N,Grotta Gigante,N 45Â° 42.560,E 013Â° 45.870,Italy,Friuli-Venezia Giulia,Provincia di Trieste,394,,
 GC3YQ36,Enemy mine - near the Muggel's Territory,N 53Â° 30.112,E 010Â° 13.117,Germany,Hamburg,Hamburg,311,,
 GC3YQK0,Flyer greetz the sun,N 43Â° 53.045,E 125Â° 19.128,China,Jilin, ,44,,
 GC3Z4MC,Vestige d'Algrange - Mine de la Burbach,N 49Â° 21.484,E 006Â° 01.820,France,Grand-Est,Moselle,126,,
 GC3Z4Q5,Algrange 12 - La mine Sainte Barbe,N 49Â° 21.906,E 006Â° 02.923,France,Grand-Est,Moselle,213,,
 GC40AEP,Cave de Rocheval,N 46Â° 27.138,E 006Â° 19.456,Switzerland,Vaud,Gilly (22),250,,
 GC40GD5,KOPALNIA HALIOZYTU DUNINO,N 51Â° 08.709,E 016Â° 04.515,Poland,DolnoÅ›lÄ…skie,Legnicki (DolnoÅ›lÄ…skie),99,,
 GC40YKT,AGT 26: Jeskyne Sipka / Sipka cave,N 49Â° 35.271,E 018Â° 07.194,Czechia,MoravskoslezskÃ½ kraj,NovÃ½ JiÄÃ­n,2093,,
 GC41X1E,HÃ¶hle fÃ¼r AnfÃ¤nger,N 47Â° 42.832,E 013Â° 05.555,Austria,Salzburg,Hallein,191,,
 GC428NZ,Jaskinia NiedÅºwiedzia,N 50Â° 14.067,E 016Â° 50.559,Poland,DolnoÅ›lÄ…skie,KÅ‚odzki (DolnoÅ›lÄ…skie),339,,
 GC42H1D,L'ancienne mine de Piriac,N 47Â° 22.303,W 002Â° 32.856,France,Pays de la Loire,Loire-Atlantique,24,,
 GC42JB9,Une mine au dessus de Peyre,N 44Â° 06.088,E 003Â° 00.621,France,Occitanie,Aveyron,24,,
 GC42MEP,Grotte ND,N 50Â° 33.861,E 003Â° 55.196,Belgium,Hainaut,Lens,211,,
 GC42ZCQ,SVLC:Mine de lignite et usine de chaux ,N 44Â° 03.968,E 004Â° 38.050,France,Occitanie,Gard,160,,
 GC43GPK,Cave des Coyes [EdM],N 48Â° 35.443,E 001Â° 35.060,France,Centre-Val-de-Loire,Eure-et-Loir,131,,
 GC43V5B,Cave Ã  Vin,N 48Â° 16.123,E 002Â° 44.254,France,Ãle-de-France,Seine-et-Marne,66,,
 GC43VF0,"The Cave, Part Deux",N 48Â° 51.811,E 002Â° 14.468,France,Ãle-de-France,Paris,290,,
 GC440TP,Zanabazar's meditation cave,N 47Â° 50.177,E 106Â° 53.283,Mongolia, , ,18,,
 GC449GW,La piccola grotta,N 45Â° 49.282,E 011Â° 57.844,Italy,Veneto,Treviso,91,,
 GC44FNR,Les roches de la Mine de Saint Clair,N 48Â° 41.207,W 000Â° 36.733,France,Normandie,Orne,42,,
 GC45DQJ,The Cave,N 49Â° 45.002,E 006Â° 10.710,Luxembourg,Canton Mersch,Fischbach,153,,
 GC45QGN,La mine de charbon,N 44Â° 01.519,E 002Â° 08.639,France,Occitanie,Tarn,98,,
 GC45T49,Jeskyne Postojna/Postojna Cave,N 50Â° 35.933,E 015Â° 12.521,Czechia,LibereckÃ½ kraj,Semily,583,,
 GC45YWH,#5 Richwiller: Giratoire de la carotte/Mine Max,N 47Â° 47.229,E 007Â° 15.404,France,Grand-Est,Haut-Rhin,196,,
 GC4640J,Jama BelojaÄa / Belojaca cave,N 46Â° 17.945,E 015Â° 39.299,Slovenia,Podravska,Makole,39,,
 GC4640J,Jama BelojaÄa / Belojaca cave,N 46Â° 17.945,E 015Â° 39.299,Slovenia,Podravska,Makole,39,,
 GC466W7,Grotte Notre Dame de Lourdes -Bertrix,N 49Â° 51.279,E 005Â° 15.336,Belgium,Luxembourg,Bertrix,51,,
 GC46QXX,HANDS 07: Booming Bad Bat Cave,N 48Â° 48.238,E 007Â° 43.685,France,Grand-Est,Bas-Rhin,36,,
 GC46V5J,De la Ragounite Ã  la Mine #01,N 46Â° 24.802,W 001Â° 36.743,France,Pays de la Loire,VendÃ©e,209,,
 GC46V5M,De la Ragounite Ã  la Mine #02,N 46Â° 24.787,W 001Â° 36.881,France,Pays de la Loire,VendÃ©e,377,,
 GC46V5N,De la Ragounite Ã  la Mine #03,N 46Â° 24.757,W 001Â° 37.004,France,Pays de la Loire,VendÃ©e,540,,
 GC46V5Q,De la Ragounite Ã  la Mine #04,N 46Â° 24.788,W 001Â° 37.140,France,Pays de la Loire,VendÃ©e,173,,
 GC46V5R,De la Ragounite Ã  la Mine #05,N 46Â° 24.811,W 001Â° 37.287,France,Pays de la Loire,VendÃ©e,496,,
 GC46V5T,De la Ragounite Ã  la Mine #06,N 46Â° 24.798,W 001Â° 37.413,France,Pays de la Loire,VendÃ©e,399,,
 GC46V5W,De la Ragounite Ã  la Mine #07,N 46Â° 24.855,W 001Â° 37.531,France,Pays de la Loire,VendÃ©e,378,,
 GC46V5Y,De la Ragounite Ã  la Mine #08,N 46Â° 24.915,W 001Â° 37.631,France,Pays de la Loire,VendÃ©e,372,,
 GC46V60,De la Ragounite Ã  la Mine #10,N 46Â° 24.940,W 001Â° 37.487,France,Pays de la Loire,VendÃ©e,278,,
 GC46V61,De la Ragounite Ã  la Mine #11,N 46Â° 24.880,W 001Â° 37.365,France,Pays de la Loire,VendÃ©e,200,,
 GC46V62,De la Ragounite Ã  la Mine #12,N 46Â° 24.937,W 001Â° 37.235,France,Pays de la Loire,VendÃ©e,282,,
 GC46V63,De la Ragounite Ã  la Mine #09,N 46Â° 25.007,W 001Â° 37.605,France,Pays de la Loire,VendÃ©e,329,,
 GC46WZD,Die Mine von Moria,N 49Â° 06.264,E 009Â° 53.627,Germany,Baden-WÃ¼rttemberg,SchwÃ¤bisch Hall (Lkr),107,,
 GC46ZB2,les castors font grise mine,N 44Â° 29.318,E 004Â° 10.537,France,Auvergne-RhÃ´ne-Alpes,ArdÃ¨che,23,,
 GC47274,Grotta a PiÃ¨ Lucese,N 43Â° 56.727,E 010Â° 23.425,Italy,Toscana,Lucca,44,,
 GC47E39,Jaskinia Malinowska / Malinowska Cave,N 49Â° 39.450,E 018Â° 58.936,Poland,ÅšlÄ…skie,CieszyÅ„ski (ÅšlÄ…skie),76,,
 GC47E39,Jaskinia Malinowska / Malinowska Cave,N 49Â° 39.450,E 018Â° 58.936,Poland,ÅšlÄ…skie,CieszyÅ„ski (ÅšlÄ…skie),76,,
 GC47GGY,LÃ¤rchberg-HÃ¶hle,N 47Â° 34.910,E 012Â° 40.942,Austria,Salzburg,Zell am See,117,,
 GC47N3Z,La mine d'Ã©tain d'Abbaretz,N 47Â° 33.693,W 001Â° 32.631,France,Pays de la Loire,Loire-Atlantique,81,,
 GC47YQT,WWI Grotta del Cannone,N 45Â° 50.339,E 012Â° 12.345,Italy,Veneto,Treviso,49,,
 GC487RF,The Mine,N 47Â° 42.104,E 015Â° 47.567,Austria,NiederÃ¶sterreich,Bezirk Neunkirchen,69,,
 GC48995,PST km 12 - Gramozna jama,N 46Â° 04.454,E 014Â° 31.567,Slovenia,Osrednjeslovenska,Ljubljana,171,,
 GC48GRN,[ESD] Circuit des CarriÃ¨res # la Barre Ã  mine,N 45Â° 01.869,E 005Â° 46.677,France,Auvergne-RhÃ´ne-Alpes,IsÃ¨re,91,,
 GC48WBZ,La Grotte Saint-Remacle,N 49Â° 48.522,E 005Â° 11.715,Belgium,Luxembourg,Bertrix,160,,
 GC48X6V,La cave du chÃ¢teau,N 47Â° 00.380,E 000Â° 19.820,France,Centre-Val-de-Loire,Indre-et-Loire,142,,
 GC49H8A,Batman's cave,N 52Â° 18.276,E 004Â° 48.691,Netherlands,Noord-Holland,Amstelveen,768,,
 GC49Q7R,Ex Grandi Cave Gollin-Andolfatto,N 45Â° 48.426,E 011Â° 44.886,Italy,Veneto,Vicenza,11,,
 GC49RYW,Bolechowice - Kopalnia / Quarry / Steinbruch,N 50Â° 48.970,E 020Â° 30.907,Poland,ÅšwiÄ™tokrzyskie,Kielecki (ÅšwiÄ™tokrzyskie),52,,
 GC4A07C,SchneckenlochhÃ¶hle (Snail Hole Cave),N 47Â° 22.467,E 010Â° 04.083,Austria,Vorarlberg,Bregenz,44,,
 GC4A7N5,26mon5: la grotte,N 50Â° 01.976,E 004Â° 55.321,Belgium,Namur,Gedinne,304,,
 GC4A9QD,Vodna jama Lebica/water hole Lebica,N 45Â° 39.090,E 015Â° 11.507,Slovenia,Jugovzhodna Slovenija,SemiÄ,77,,
 GC4AAF4,[BoÃ®t'Ã  Sel] - La mine de sel de VarangÃ©ville,N 48Â° 38.300,E 006Â° 18.500,France,Grand-Est,Meurthe-et-Moselle,66,,
 GC4AJ0Q,Ans - La mine,N 50Â° 39.214,E 005Â° 31.636,Belgium,LiÃ¨ge,Ans,223,,
 GC4B3CG,durch diese hohle Gasse ...,N 47Â° 16.376,E 011Â° 30.965,Austria,Tirol,Innsbruck-Land,87,,
 GC4B49B,BatmanÂ´s Cave,N 50Â° 59.199,E 007Â° 28.690,Germany,Nordrhein-Westfalen,Oberbergischer Kreis,43,,
 GC4B71W,Le tour du pic saint loup #27Bis La Cave Gennevaux,N 43Â° 46.465,E 003Â° 49.573,France,Occitanie,HÃ©rault,140,,
 GC4BNHN,LetÂ´s go gospel- Bonus- This little light of mine,N 51Â° 56.841,E 009Â° 44.893,Germany,Niedersachsen,Holzminden (Lkr),57,,
 GC4CDM9,Cave #6 - Kleine EishÃ¶hle,N 47Â° 43.072,E 012Â° 59.837,Austria,Salzburg,Salzburg-Umgebung,5,,
 GC4CRMA,Cavecchie trail 3 - la grotta,N 45Â° 26.806,E 011Â° 27.958,Italy,Veneto,Vicenza,19,,
 GC4CX9Q,la mine temoin,N 44Â° 07.941,E 004Â° 04.006,France,Occitanie,Gard,160,,
 GC4CZ25,Nous irons au bois... 3: la mine,N 50Â° 24.886,E 004Â° 21.043,Belgium,Hainaut,Fontaine-l'Ã‰vÃªque,36,,
 GC4D7TH,Durch diese hohle Gasse ...,N 47Â° 47.855,E 016Â° 30.003,Austria,Burgenland,Bezirk Eisenstadt-Umgebung,155,,
 GC4DC3E,Kopalnia MajÃ³wka IV,N 51Â° 03.891,E 021Â° 05.291,Poland,ÅšwiÄ™tokrzyskie,Starachowicki (ÅšwiÄ™tokrzyskie),15,,
 GC4DCYH,La Grotte de Kaschbour - Reloaded,N 49Â° 42.662,E 005Â° 42.114,Belgium,Luxembourg,Habay,245,,
 GC4DEH1,Lamprechtskogel - HÃ¶hle (2727/1),N 46Â° 41.694,E 014Â° 33.970,Austria,KÃ¤rnten,VÃ¶lkermarkt,56,,
 GC4E2V7,Beaune : c'Ã©tait une VER(T)itable mine d'or,N 45Â° 54.817,E 001Â° 18.037,France,Nouvelle-Aquitaine,Haute-Vienne,129,,
 GC4E567,Sentier de Ronde #5 Mine du Pont Piron,N 47Â° 47.656,E 006Â° 46.891,France,Bourgogne-Franche-ComtÃ©,Haute-SaÃ´ne,26,,
 GC4EE02,Yin Yang Park,N 43Â° 52.553,E 125Â° 15.149,China,Jilin, ,17,,
 GC4EE08,Sporting Changchun,N 43Â° 52.628,E 125Â° 15.013,China,Jilin, ,5,,
 GC4EHF8,"RGC-EVENT Goldrush ""The Mine""",N 51Â° 00.750,E 003Â° 13.950,Belgium,West-Vlaanderen,Pittem,27,,
 GC4ENGZ,small cave,N 47Â° 37.336,E 013Â° 59.618,Austria,Steiermark,Bezirk Liezen,10,,
 GC4F9PK,La Grotta di forno Alpi Graie,N 45Â° 21.881,E 007Â° 13.325,Italy,Piemonte,Torino,15,,
 GC4FFVX,The Cave,N 48Â° 45.771,E 009Â° 11.163,Germany,Baden-WÃ¼rttemberg,Stuttgart,145,,
 GC4FVFB,cave canem,N 52Â° 15.057,E 009Â° 31.999,Germany,Niedersachsen,Region Hannover,271,,
 GC4FVRK,The Cave II,N 48Â° 45.477,E 009Â° 10.887,Germany,Baden-WÃ¼rttemberg,Stuttgart,241,,
 GC4G1MQ,2. Gaisbergrunde - kleine HÃ¶hle,N 47Â° 48.126,E 013Â° 06.342,Austria,Salzburg,Salzburg,918,,
 GC4G37J,"Åšciezka Geoturystyczna ""Dawna Kopalnia Babina""",N 51Â° 31.820,E 014Â° 46.022,Poland,Lubuskie,Å¼arski (Lubuskie),150,,
 GC4G3CK,Die HÃ¶hle von Ischgl,N 46Â° 59.048,E 010Â° 19.030,Austria,Tirol,Landeck,484,,
 GC4G550,The Cave III,N 48Â° 45.905,E 009Â° 11.714,Germany,Baden-WÃ¼rttemberg,Stuttgart,101,,
 GC4GD8N,Vista sulla Grotta della neve,N 46Â° 37.507,E 011Â° 56.886,Italy,Trentino-Alto Adige,Bolzano - Bozen,128,,
 GC4GK5H,Uranovy dul Dylen / Uranium Mine Dylen,N 49Â° 56.114,E 012Â° 31.269,Czechia,KarlovarskÃ½ kraj,Cheb,158,,
 GC4GKFD,Jaskinia Dziura,N 49Â° 16.317,E 019Â° 56.550,Poland,MaÅ‚opolskie,TatrzaÅ„ski (MaÅ‚opolskie),0,,
 GC4GVPJ,grotta del cardinale,N 46Â° 00.767,E 009Â° 31.199,Italy,Lombardia,Lecco,7,,
 GC4H0E3,The old Silver-Mine,N 47Â° 16.822,E 015Â° 17.020,Austria,Steiermark,Graz-Umgebung,73,,
 GC4H1BN,Grotta del Ciclope,N 45Â° 59.056,E 010Â° 31.628,Italy,Trentino-Alto Adige,Trento,1,,
 GC4H76D,Le MusÃ©e de la Mine,N 46Â° 42.068,E 004Â° 22.951,France,Bourgogne-Franche-ComtÃ©,SaÃ´ne-et-Loire,82,,
 GC4HA32,"The Legend of Zelda - ""Mine der Goronen""",N 51Â° 04.024,E 012Â° 27.828,Germany,Sachsen,Leipzig (Lkr),88,,
 GC4HBY0,"Die 9er HÃ¶hle am ""Loasteig""",N 47Â° 36.392,E 014Â° 12.271,Austria,Steiermark,Bezirk Liezen,9,,
 GC4HK0Y,Jaskinia Twardowskiego,N 50Â° 02.336,E 019Â° 54.149,Poland,MaÅ‚opolskie,KrakÃ³w (MaÅ‚opolskie),50,,
 GC4HVBX,STDM #7 La mine Saint Lorentz,N 48Â° 13.408,E 007Â° 09.653,France,Grand-Est,Haut-Rhin,194,,
 GC4HVCD,STDM #11 La mine Saint Michel,N 48Â° 13.071,E 007Â° 09.292,France,Grand-Est,Haut-Rhin,193,,
 GC4HVCR,STDM #12 La mine Saint Louis EisenthÃ¼r,N 48Â° 13.071,E 007Â° 09.441,France,Grand-Est,Haut-Rhin,183,,
 GC4HVD3,STDM #13 La mine de fer carburÃ©,N 48Â° 13.102,E 007Â° 09.575,France,Grand-Est,Haut-Rhin,188,,
 GC4HXRR,LA CAVE DE NANKUA,N 46Â° 52.228,E 005Â° 47.283,France,Bourgogne-Franche-ComtÃ©,Jura,28,,
 GC4J919,La Cave de Vaux,N 47Â° 12.788,E 001Â° 26.631,France,Centre-Val-de-Loire,Indre,85,,
 GC4JA6Y,KiebitzhÃ¶he,N 51Â° 11.222,E 011Â° 12.333,Germany,ThÃ¼ringen,SÃ¶mmerda (Lkr),59,,
 GC4JH35,Gratlspitz 1 - The cave,N 47Â° 25.103,E 011Â° 57.230,Austria,Tirol,Kufstein,54,,
 GC4JN1M,"Kleine ""Partisanen-HÃ¶hle""",N 48Â° 15.988,E 015Â° 00.017,Austria,NiederÃ¶sterreich,Bezirk Melk,44,,
 GC4JV4C,Ice cave,N 48Â° 10.329,E 099Â° 49.565,Mongolia, , ,14,,
 GC4JV4T,Yellow Dog's Hell cave,N 48Â° 10.341,E 099Â° 49.816,Mongolia, , ,25,,
 GC4JWYV, Jaskinia OstrÄ™Å¼nicka,N 50Â° 40.492,E 019Â° 24.033,Poland,ÅšlÄ…skie,CzÄ™stochowski (ÅšlÄ…skie),70,,
 GC4K7BK,ZRR8 - Stephen's Spring Cave,N 49Â° 57.595,E 007Â° 01.341,Germany,Rheinland-Pfalz,Bernkastel-Wittlich (Lkr),438,,
 GC4KV9W,Quasimodos Cave,N 51Â° 43.673,E 009Â° 52.861,Germany,Niedersachsen,Northeim (Lkr),81,,
 GC4KVFP,La cave Gallo Romaine de Taverny,N 49Â° 01.374,E 002Â° 12.589,France,Ãle-de-France,Val-d'Oise,115,,
 GC4KXQJ,Legolandschaft#1- Die Mine,N 46Â° 36.418,E 014Â° 22.504,Austria,KÃ¤rnten,Klagenfurt-Land,247,,
 GC4M02R,Kopalnia oleju skalnego w BÃ³brce,N 49Â° 36.988,E 021Â° 42.683,Poland,Podkarpackie,KroÅ›nieÅ„ski (Podkarpackie),169,,
 GC4MEXC,"Zabytkowa Kopalnia WÄ™gla Kamiennego ""Guido""",N 50Â° 17.358,E 018Â° 47.564,Poland,ÅšlÄ…skie,Zabrze (ÅšlÄ…skie),413,,
 GC4MYJK,Grotte aux sardines,N 47Â° 16.115,E 007Â° 20.764,Switzerland,Bern,Moutier (2),27,,
 GC4NB6X,Hochrindl 3 Die HÃ¶hle (Baumwurzel),N 46Â° 51.788,E 013Â° 57.074,Austria,KÃ¤rnten,Feldkirchen,178,,
 GC4NCMH,LuÄka jama / LuÄe cave,N 45Â° 55.075,E 014Â° 43.534,Slovenia,Osrednjeslovenska,Grosuplje,61,,
 GC4NCMH,LuÄka jama / LuÄe cave,N 45Â° 55.075,E 014Â° 43.534,Slovenia,Osrednjeslovenska,Grosuplje,61,,
 GC4NQHV,Velika jama nad RaÅ¡ico,N 46Â° 08.318,E 014Â° 30.579,Slovenia,Osrednjeslovenska,Ljubljana,50,,
 GC4NRFH,Am Schwanteich,N 51Â° 11.450,E 011Â° 14.668,Germany,ThÃ¼ringen,SÃ¶mmerda (Lkr),216,,
 GC4NV3K,"Mausbendlloch, Cave",N 47Â° 30.280,E 013Â° 52.115,Austria,Steiermark,Bezirk Liezen,17,,
 GC4P5E0,La Mine du Fays,N 49Â° 32.985,E 005Â° 45.307,Belgium,Luxembourg,Aubange,37,,
 GC4PF38,The Jewish Cave,N 49Â° 01.411,E 019Â° 38.343,Slovakia,Å½ilinskÃ½ kraj,LiptovskÃ½ MikulÃ¡Å¡,101,,
 GC4PQ9E,"Cave, Hatiny",N 48Â° 39.137,E 021Â° 00.078,Slovakia,KoÅ¡ickÃ½ kraj,KoÅ¡ice - okolie,74,,
 GC4PV4R,La grotte,N 49Â° 45.732,E 005Â° 23.624,Belgium,Luxembourg,Chiny,122,,
 GC4Q60Y,SKKT Azymut - Jaskinia Stalagmitowa,N 51Â° 05.835,E 018Â° 47.465,Poland,ÅÃ³dzkie,PajÄ™czaÅ„ski (ÅÃ³dzkie),58,,
 GC4QG5E,Jaskinia Komonieckiego / ABB,N 49Â° 45.509,E 019Â° 24.616,Poland,ÅšlÄ…skie,Å¼ywiecki (ÅšlÄ…skie),61,,
 GC4QKCC,Bergwerk,N 46Â° 35.590,E 013Â° 42.560,Austria,KÃ¤rnten,Villach-Land,636,,
 GC4QTHM,SKKT Azymut - jaskinia Niespodzianka,N 51Â° 05.700,E 018Â° 47.311,Poland,ÅÃ³dzkie,PajÄ™czaÅ„ski (ÅÃ³dzkie),40,,
 GC4QWET,GROTTE UZEL CAVE,N 43Â° 28.425,E 006Â° 53.667,France,Provence-Alpes-CÃ´te d'Azur,Var,48,,
 GC4QZYN,Die HÃ¶hle des Lindwurms,N 47Â° 39.541,E 013Â° 37.315,Austria,OberÃ¶sterreich,Gmunden,55,,
 GC4R27W,Minove pole /mine field,N 48Â° 53.277,E 017Â° 08.492,Czechia,JihomoravskÃ½ kraj,HodonÃ­n,16,,
 GC4RC4C,Baragova pot #3 - Velika jama,N 45Â° 53.987,E 015Â° 00.398,Slovenia,Jugovzhodna Slovenija,Trebnje,39,,
 GC4RM3H,La Cave,N 47Â° 24.018,E 007Â° 18.840,Switzerland,Jura,Movelier (26),74,,
 GC4T6Y1,SKKT Azymut - Jaskinia na Dupce,N 50Â° 41.943,E 019Â° 21.773,Poland,ÅšlÄ…skie,CzÄ™stochowski (ÅšlÄ…skie),27,,
 GC4TEY8,Couches : terrain minÃ©,N 46Â° 51.331,E 004Â° 33.251,France,Bourgogne-Franche-ComtÃ©,SaÃ´ne-et-Loire,13,,
 GC4TMNP,Å kratova jama / Dwarf cave,N 45Â° 51.996,E 015Â° 16.672,Slovenia,Jugovzhodna Slovenija,Å marjeÅ¡ke Toplice,102,,
 GC4TMNP,Å kratova jama / Dwarf cave,N 45Â° 51.996,E 015Â° 16.672,Slovenia,Jugovzhodna Slovenija,Å marjeÅ¡ke Toplice,102,,
 GC4VBM9,"Frankie, der HÃ¶hlenbÃ¤r - Frankie, the cave-bear",N 47Â° 33.320,E 013Â° 41.400,Austria,OberÃ¶sterreich,Gmunden,57,,
 GC4VF3N,Der Piepmatz,N 50Â° 51.849,E 006Â° 08.714,Germany,Nordrhein-Westfalen,StÃ¤dteregion Aachen,845,,
 GC4VJ4Z,Za marianskou bridlicou 1 - Sifrova jama,N 48Â° 15.004,E 017Â° 04.426,Slovakia,BratislavskÃ½ kraj,Malacky,461,,
 GC4W1C8,Zirkels Cave,N 46Â° 51.282,E 007Â° 16.724,Switzerland,Fribourg,Schmitten (FR) (10),86,,
 GC4WCFH,DÃ©nezÃ© - La Cave aux Sculptures,N 47Â° 14.810,W 000Â° 16.598,France,Pays de la Loire,Maine-et-Loire,119,,
 GC4WKHA,La cave d'Espinassous,N 44Â° 05.827,E 003Â° 23.797,France,Occitanie,Gard,1,,
 GC4WVPR,Kopalnia Soli,N 49Â° 58.911,E 020Â° 03.167,Poland,MaÅ‚opolskie,Wielicki (MaÅ‚opolskie),37,,
 GC4WVRW,La Grotta del Romito,N 44Â° 01.350,E 011Â° 37.457,Italy,Toscana,Firenze,6,,
 GC4WZCM,HK Jaskinia Macieja,N 50Â° 07.024,E 019Â° 26.551,Poland,MaÅ‚opolskie,Chrzanowski (MaÅ‚opolskie),108,,
 GC4X0MZ,Jaskinia pod BrzezinkÄ…,N 50Â° 44.635,E 016Â° 14.644,Poland,DolnoÅ›lÄ…skie,WaÅ‚brzych (DolnoÅ›lÄ…skie),35,,
 GC4X261,Mramorova jeskyne Lazurka / Marble cave Lazurka,N 49Â° 54.865,E 012Â° 46.765,Czechia,PlzeÅˆskÃ½ kraj,Tachov,252,,
 GC4X5BV,La Grotte,N 49Â° 42.797,E 005Â° 49.418,Belgium,Luxembourg,Arlon,108,,
 GC4X5P7,Marie va Ã  la cave,N 45Â° 49.817,E 004Â° 48.505,France,Auvergne-RhÃ´ne-Alpes,MÃ©tropole de Lyon,57,,
 GC4X68M,Jaskinia Kryspinowska,N 50Â° 02.505,E 019Â° 47.971,Poland,MaÅ‚opolskie,Krakowski (MaÅ‚opolskie),123,,
 GC4XHZG,CNB4 Mine d'Or,N 46Â° 09.166,W 000Â° 12.693,France,Nouvelle-Aquitaine,Deux-SÃ¨vres,121,,
 GC4XQ19,Sentiero storico #4 la grotta,N 45Â° 49.379,E 009Â° 18.957,Italy,Lombardia,Lecco,106,,
 GC4Y16Y,La grotte de l'Ã©toile - Star cave,N 49Â° 55.363,E 004Â° 31.210,France,Grand-Est,Ardennes,323,,
 GC4Y3NP,Sur le Chemin de la Navarre - 06 La Cave,N 43Â° 11.732,E 006Â° 06.203,France,Provence-Alpes-CÃ´te d'Azur,Var,40,,
 GC4Y3ZM,PoczÄ…tek koÅ„ca - Zlikwidowana kopalnia KGHM'u,N 51Â° 28.041,E 016Â° 06.178,Poland,DolnoÅ›lÄ…skie,LubiÅ„ski (DolnoÅ›lÄ…skie),79,,
 GC4Y98M,Direction Grotte,N 50Â° 29.321,E 004Â° 40.243,Belgium,Namur,Jemeppe-sur-Sambre,147,,
 GC4YKXF,Wagonik - Kopalnia Barytu ,N 50Â° 45.421,E 016Â° 12.441,Poland,DolnoÅ›lÄ…skie,WaÅ‚brzyski (DolnoÅ›lÄ…skie),111,,
 GC4ZHWJ,Mine de Wolfram (tungstene) de Montbelleux      ,N 48Â° 17.491,W 001Â° 10.394,France,Bretagne,Ille-et-Vilaine,56,,
 GC4ZJBA,OCHOZSKA JESKYNE - Ochozska Cave ,N 49Â° 14.675,E 016Â° 44.990,Czechia,JihomoravskÃ½ kraj,Brno-venkov,622,,
 GC4ZRVH,KOPALNIA,N 51Â° 06.180,E 015Â° 15.983,Poland,DolnoÅ›lÄ…skie,LubaÅ„ski (DolnoÅ›lÄ…skie),106,,
 GC50KCJ,LA CAVE,N 47Â° 22.149,W 002Â° 11.809,France,Pays de la Loire,Loire-Atlantique,38,,
 GC50NEV,La Mine Bleue,N 47Â° 42.786,W 000Â° 57.404,France,Pays de la Loire,Maine-et-Loire,53,,
 GC518J3,Blockhaus de la mine de Montbelleux,N 48Â° 17.399,W 001Â° 10.491,France,Bretagne,Ille-et-Vilaine,54,,
 GC5191Y,Le train de la mine,N 46Â° 39.989,E 004Â° 17.872,France,Bourgogne-Franche-ComtÃ©,SaÃ´ne-et-Loire,56,,
 GC51R88,La mine secrÃ¨te,N 43Â° 19.815,E 005Â° 30.990,France,Provence-Alpes-CÃ´te d'Azur,Bouches-du-RhÃ´ne,34,,
 GC5229D,Plage de la Mine d Or - Penestin,N 47Â° 28.428,W 002Â° 29.301,France,Bretagne,Morbihan,116,,
 GC52DEZ,Jaskinia Twardowskiego,N 50Â° 02.336,E 019Â° 54.149,Poland,MaÅ‚opolskie,KrakÃ³w (MaÅ‚opolskie),247,,
 GC52DGX,Jama pri svetih treh kraljih,N 46Â° 00.687,E 014Â° 10.385,Slovenia,Osrednjeslovenska,Logatec,53,,
 GC52WN3,CE3# La cave aux loups,N 47Â° 20.673,E 004Â° 50.998,France,Bourgogne-Franche-ComtÃ©,CÃ´te-d'Or,23,,
 GC53933,Grotta di Salim,N 45Â° 58.373,E 010Â° 57.248,Italy,Trentino-Alto Adige,Trento,53,,
 GC53D6H,Grotte de Houmont,N 49Â° 59.342,E 005Â° 35.284,Belgium,Luxembourg,Sainte-Ode,252,,
 GC53PPW,Grotte de Thibessart,N 49Â° 46.891,E 005Â° 33.157,Belgium,Luxembourg,LÃ©glise,243,,
 GC53Q2Q,"[Spyrou] Le Bois Bellin 1, la grotte",N 50Â° 30.211,E 004Â° 37.700,Belgium,Namur,Jemeppe-sur-Sambre,146,,
 GC53WK7,Cave Ste GeneviÃ¨ve,N 48Â° 26.996,E 002Â° 46.212,France,Ãle-de-France,Seine-et-Marne,145,,
 GC53XQG,Mrzla jama,N 45Â° 43.861,E 014Â° 28.579,Slovenia,Littoralâ€“Inner Carniola Region,LoÅ¡ka Dolina,86,,
 GC5432C,La Mine dâ€™Uranium de La Gabrielle-Le Poitou,N 46Â° 59.702,W 000Â° 56.099,France,Pays de la Loire,VendÃ©e,34,,
 GC54CCW,ALOTRA Cave (La Grotte ALOTRA),N 43Â° 13.220,E 005Â° 27.170,France,Provence-Alpes-CÃ´te d'Azur,Bouches-du-RhÃ´ne,22,,
 GC54G4D,DupliÅ¡ka jama / Duplica pit,N 46Â° 12.224,E 014Â° 35.403,Slovenia,Osrednjeslovenska,Kamnik,83,,
 GC54KKZ,Luc-sur-orbieu4#La cave,N 43Â° 10.636,E 002Â° 46.923,France,Occitanie,Aude,92,,
 GC54QQ9,Grotte et chemin de croix,N 49Â° 54.532,E 005Â° 33.895,Belgium,Luxembourg,Vaux-sur-SÃ»re,86,,
 GC551AE,Grotta Strengidor,N 46Â° 02.006,E 011Â° 00.859,Italy,Trentino-Alto Adige,Trento,13,,
 GC551C5,Cave Wood im Totholz,N 52Â° 44.715,E 013Â° 17.576,Germany,Brandenburg,Oberhavel (Lkr),169,,
 GC553R3,Auf Koch MineÂ´s Spuren #1,N 51Â° 39.026,E 011Â° 49.583,Germany,Sachsen-Anhalt,Saalekreis,218,,
 GC5543B,Auf Koch MineÂ´s Spuren #2,N 51Â° 38.862,E 011Â° 49.694,Germany,Sachsen-Anhalt,Saalekreis,175,,
 GC554BG,Auf Koch MineÂ´s Spuren #3,N 51Â° 38.860,E 011Â° 49.482,Germany,Sachsen-Anhalt,Saalekreis,181,,
 GC554G4,MigavÄkova jama,N 45Â° 59.442,E 014Â° 01.232,Slovenia,GoriÅ¡ka,Idrija,54,,
 GC554KY,Auf Koch MineÂ´s Spuren #4,N 51Â° 38.882,E 011Â° 49.326,Germany,Sachsen-Anhalt,Saalekreis,194,,
 GC554NJ,Auf Koch MineÂ´s Spuren #5,N 51Â° 38.942,E 011Â° 49.439,Germany,Sachsen-Anhalt,Saalekreis,185,,
 GC5550V,Koch Mine's Mystery,N 51Â° 38.352,E 011Â° 48.545,Germany,Sachsen-Anhalt,Saalekreis,120,,
 GC55DGY,The Bat Cave,N 50Â° 51.466,E 005Â° 49.672,Netherlands,Limburg,Valkenburg aan de Geul,189,,
 GC55HCT,Alexander HÃ¶hle/ Grotta di Alexander,N 45Â° 46.818,E 013Â° 36.826,Italy,Friuli-Venezia Giulia,Provincia di Trieste,55,,
 GC55KD0,Alphabet HÃ©raultais : C comme... Cave,N 43Â° 42.328,E 003Â° 54.039,France,Occitanie,HÃ©rault,94,,
 GC55RBA,PLM SommiÃ¨res-NÃ®mes # Feu la cave,N 43Â° 46.413,E 004Â° 09.615,France,Occitanie,Gard,100,,
 GC562XQ,Kamiennik - jaskinia,N 49Â° 47.950,E 020Â° 02.075,Poland,MaÅ‚opolskie,MyÅ›lenicki (MaÅ‚opolskie),38,,
 GC5657A,Grotte de la Grande Cave,N 47Â° 00.934,E 006Â° 37.142,France,Bourgogne-Franche-ComtÃ©,Doubs,84,,
 GC567YR,Kopalnia uranu,N 51Â° 00.195,E 015Â° 28.915,Poland,DolnoÅ›lÄ…skie,LwÃ³wecki (DolnoÅ›lÄ…skie),31,,
 GC56A8F,La Grand Cave #1,N 47Â° 01.215,E 006Â° 36.799,France,Bourgogne-Franche-ComtÃ©,Doubs,79,,
 GC56ABF,La Grand Cave #2,N 47Â° 01.105,E 006Â° 36.965,France,Bourgogne-Franche-ComtÃ©,Doubs,94,,
 GC56ACC,La Grand Cave #3,N 47Â° 01.065,E 006Â° 37.104,France,Bourgogne-Franche-ComtÃ©,Doubs,71,,
 GC56AD4,La Grand Cave #4,N 47Â° 00.821,E 006Â° 37.095,France,Bourgogne-Franche-ComtÃ©,Doubs,96,,
 GC56ADA,Grotte Notre Dame de Lourdes - Solwaster,N 50Â° 31.260,E 005Â° 57.953,Belgium,LiÃ¨ge,Jalhay,605,,
 GC56ADG,La Grand Cave #5,N 47Â° 00.469,E 006Â° 36.862,France,Bourgogne-Franche-ComtÃ©,Doubs,109,,
 GC56AE8,La Grand Cave #6,N 47Â° 00.673,E 006Â° 36.746,France,Bourgogne-Franche-ComtÃ©,Doubs,96,,
 GC56AEQ,La Grand Cave #7,N 47Â° 00.832,E 006Â° 36.680,France,Bourgogne-Franche-ComtÃ©,Doubs,87,,
 GC56AF9,La Grand Cave #8,N 47Â° 01.019,E 006Â° 36.613,France,Bourgogne-Franche-ComtÃ©,Doubs,93,,
 GC56AFG,La Grand Cave #9,N 47Â° 01.086,E 006Â° 36.515,France,Bourgogne-Franche-ComtÃ©,Doubs,77,,
 GC56AGV,La Grand Cave #Bonus,N 47Â° 01.080,E 006Â° 36.557,France,Bourgogne-Franche-ComtÃ©,Doubs,50,,
 GC56V0E,SPYCHERWEIDLI GROTTE,N 46Â° 39.277,E 007Â° 16.959,Switzerland,Fribourg,Val-de-Charmey (10),43,,
 GC56WVX,Cave mans home,N 46Â° 12.732,E 106Â° 01.680,Mongolia, , ,17,,
 GC5701,Sipings first,N 43Â° 08.939,E 124Â° 29.664,China,Jilin, ,2,,
 GC571N9,Cave shelter ,N 46Â° 25.048,E 014Â° 05.083,Slovenia,Upper Carniola Statistical Region,Jesenice,48,,
 GC5721P,Ballade du Bourg - GÃ®te Bista Eder La vieille Cave,N 44Â° 13.301,E 003Â° 08.334,France,Occitanie,Aveyron,31,,
 GC573JA,Udin Borst by night - The Cave,N 46Â° 17.958,E 014Â° 17.837,Slovenia,Upper Carniola Statistical Region,Naklo,45,,
 GC574Z9,Cesky Raj - Yogi & Boo-Boo Cave,N 50Â° 30.247,E 015Â° 12.415,Czechia,LibereckÃ½ kraj,Semily,534,,
 GC57F1E,The Cave,N 48Â° 06.234,E 011Â° 26.495,Germany,Bayern,MÃ¼nchen (Lkr),500,,
 GC57F5E,Jama,N 49Â° 03.455,E 020Â° 17.541,Slovakia,PreÅ¡ovskÃ½ kraj,Poprad,237,,
 GC57F67,Cave of the Cyclopes,N 38Â° 05.704,E 012Â° 48.123,Italy,Sicilia,Trapani,9,,
 GC57K2H,Grotta di Nettuno,N 40Â° 33.900,E 008Â° 09.600,Italy,Sardegna,Sassari,390,,
 GC57M2P,Schlossberg-HÃ¶hle,N 47Â° 27.811,E 010Â° 41.693,Austria,Tirol,Reutte (AuÃŸerfern),36,,
 GC57T3X,Karbelova Jama / The Karbelova Cave,N 46Â° 37.710,E 015Â° 03.816,Slovenia,KoroÅ¡ka,Dravograd,11,,
 GC57T3X,Karbelova Jama / The Karbelova Cave,N 46Â° 37.710,E 015Â° 03.816,Slovenia,KoroÅ¡ka,Dravograd,11,,
 GC58339,La grotta dell'Uzzo,N 38Â° 06.605,E 012Â° 47.220,Italy,Sicilia,Trapani,125,,
 GC58ET6,Banskou krajinou 5 - Jama c.5,N 48Â° 44.383,E 018Â° 41.133,Slovakia,TrenÄiansky kraj,Prievidza,131,,
 GC58JP7,Banskou krajinou 7 - Jama c.3,N 48Â° 44.721,E 018Â° 40.001,Slovakia,TrenÄiansky kraj,Prievidza,85,,
 GC58Q8K,Jama Pekel / Pekel Cave,N 46Â° 17.403,E 015Â° 07.982,Slovenia,Savinja Statistical Region,Å½alec,117,,
 GC58Q8K,Jama Pekel / Pekel Cave,N 46Â° 17.403,E 015Â° 07.982,Slovenia,Savinja Statistical Region,Å½alec,117,,
 GC58RJ7,[LHAV]#4 - PCMC - Cave Notre-Dame,N 43Â° 35.571,E 003Â° 54.383,France,Occitanie,HÃ©rault,153,,
 GC58ZQ2,GROTTA,N 42Â° 20.517,E 013Â° 49.770,Italy,Abruzzo,Pescara,2,,
 GC597VA,Huy - Chemin de la cave,N 50Â° 30.675,E 005Â° 13.645,Belgium,LiÃ¨ge,Huy,58,,
 GC59BNX,Trou de mine !,N 42Â° 41.203,E 002Â° 19.880,France,Occitanie,PyrÃ©nÃ©es-Orientales,3,,
 GC59FW0,#6 Bauxite - La mine,N 43Â° 44.171,E 004Â° 46.677,France,Provence-Alpes-CÃ´te d'Azur,Bouches-du-RhÃ´ne,140,,
 GC59KF8,Grotta della Madonna,N 45Â° 38.187,E 011Â° 15.655,Italy,Veneto,Vicenza,5,,
 GC59TR3,La cave aux nains,N 49Â° 10.311,E 004Â° 27.989,France,Grand-Est,Marne,74,,
 GC5A03B,Gute Frage,N 50Â° 46.551,E 007Â° 55.736,Germany,Rheinland-Pfalz,Altenkirchen (Lkr),79,,
 GC5A390,La grotta del Rio Buio,N 44Â° 01.188,E 010Â° 46.251,Italy,Toscana,Pistoia,33,,
 GC5A516,T16  Alla grotta,N 46Â° 16.289,E 010Â° 57.475,Italy,Trentino-Alto Adige,Trento,49,,
 GC5A5DV,Grotta della Sinaiola,N 44Â° 02.111,E 011Â° 28.439,Italy,Toscana,Firenze,5,,
 GC5A7XA,Gute Antwort...,N 50Â° 46.619,E 007Â° 55.946,Germany,Rheinland-Pfalz,Altenkirchen (Lkr),69,,
 GC5A7Y3,Einen Steinwurf entfernt!,N 50Â° 49.761,E 007Â° 55.785,Germany,Rheinland-Pfalz,Altenkirchen (Lkr),155,,
 GC5A7YW,"Ich sehe was, was du (noch) nicht siehst....",N 50Â° 49.632,E 007Â° 56.274,Germany,Rheinland-Pfalz,Altenkirchen (Lkr),121,,
 GC5A9WA,Mine Ã  Grisou,N 43Â° 40.336,E 003Â° 00.396,France,Occitanie,HÃ©rault,36,,
 GC5ABZG,BartholomÃ¤berg Historisches Bergwerk,N 47Â° 05.896,E 009Â° 55.015,Austria,Vorarlberg,Bludenz,213,,
 GC5AMDN,Kopalnia w Borowie,N 50Â° 58.910,E 016Â° 15.256,Poland,DolnoÅ›lÄ…skie,Å›widnicki (DolnoÅ›lÄ…skie),10,,
 GC5AMER,Kopalnia w Granicznej,N 50Â° 58.645,E 016Â° 20.698,Poland,DolnoÅ›lÄ…skie,Å›widnicki (DolnoÅ›lÄ…skie),101,,
 GC5B1X8,Der Hohle Baum,N 47Â° 49.769,E 016Â° 38.054,Austria,Burgenland,Bezirk Eisenstadt-Umgebung,166,,
 GC5B62G,Mazets peints # la cabane brune de SÃ©rignan (cave),N 43Â° 16.940,E 003Â° 18.378,France,Occitanie,HÃ©rault,423,,
 GC5B6H6,Karner HÃ¶hle,N 47Â° 58.404,E 015Â° 03.512,Austria,NiederÃ¶sterreich,Bezirk Scheibbs,23,,
 GC5BEXQ,La grotta di BenikulÃ  o Bagno Asciutto,N 36Â° 46.592,E 011Â° 59.102,Italy,Sicilia,Trapani,14,,
 GC5BPQK,Shybian 07 La Mine,N 46Â° 29.568,E 002Â° 59.695,France,Auvergne-RhÃ´ne-Alpes,Allier,47,,
 GC5BR83,Climbing to Underground ,N 42Â° 05.660,E 128Â° 04.220,China,Jilin, ,0,,
 GC5BY3H,Kopalnia Glaznoty,N 53Â° 32.131,E 019Â° 52.861,Poland,WarmiÅ„sko-Mazurskie,OstrÃ³dzki (WarmiÅ„sko-Mazurskie),20,,
 GC5C3KR,"Cave, Krasnohorska Dlha Luka",N 48Â° 37.077,E 020Â° 35.242,Slovakia,KoÅ¡ickÃ½ kraj,RoÅ¾Åˆava,264,,
 GC5C4PK,Kopalnia Folwark / SA,N 50Â° 36.853,E 017Â° 54.066,Poland,Opolskie,Opolski (Opolskie),18,,
 GC5CG0Y,Jama Ledenica,N 46Â° 22.567,E 014Â° 54.209,Slovenia,Savinja Statistical Region,Mozirje,67,,
 GC5CYHY,Kopalnia Barytu StanisÅ‚awÃ³w (SICHÃ“W),N 51Â° 05.801,E 016Â° 03.206,Poland,DolnoÅ›lÄ…skie,Jaworski (DolnoÅ›lÄ…skie),70,,
 GC5CYXH,"Grotta ""La Tampa"" - Monte Maddalena",N 45Â° 31.785,E 010Â° 17.142,Italy,Lombardia,Brescia,19,,
 GC5D9YM,GROTTA DEL DRAGO,N 43Â° 52.612,E 011Â° 07.985,Italy,Toscana,Prato,24,,
 GC5DH2P,Zabytkowa Kopalnia Srebra,N 50Â° 25.530,E 018Â° 50.956,Poland,ÅšlÄ…skie,TarnogÃ³rski (ÅšlÄ…skie),103,,
 GC5DYW2,Trullo Della Grotta,N 40Â° 38.498,E 017Â° 14.366,Italy,Puglia,Taranto,26,,
 GC5ED60,The Cave,N 49Â° 36.958,E 007Â° 34.472,Germany,Rheinland-Pfalz,Kusel (Lkr),42,,
 GC5EMCF,La Grotta della Vipera,N 39Â° 13.619,E 009Â° 06.000,Italy,Sardegna,Cagliari,33,,
 GC5EQBN,Jama MaÄkovica / MaÄkovica cave,N 45Â° 51.530,E 014Â° 16.241,Slovenia,Osrednjeslovenska,Logatec,83,,
 GC5EQBN,Jama MaÄkovica / MaÄkovica cave,N 45Â° 51.530,E 014Â° 16.241,Slovenia,Osrednjeslovenska,Logatec,83,,
 GC5F6CG,Vauvert A : La cave coopÃ©rative,N 43Â° 41.497,E 004Â° 16.224,France,Occitanie,Gard,197,,
 GC5F8P3,Jama Malikovec,N 45Â° 38.340,E 015Â° 11.139,Slovenia,Jugovzhodna Slovenija,SemiÄ,25,,
 GC5FDGW,la Grotte de Tiru,N 49Â° 50.438,E 004Â° 53.091,Belgium,Namur,Vresse-sur-Semois,41,,
 GC5FZ8Y,Grotte de Lourdes,N 50Â° 43.692,E 005Â° 53.015,Belgium,Limburg,Voeren,334,,
 GC5G1AJ,La Grotte de l'AbÃ®me,N 50Â° 28.599,E 005Â° 33.981,Belgium,LiÃ¨ge,Comblain-au-Pont,183,,
 GC5G607,La grotte secrÃ¨te ,N 50Â° 08.108,E 004Â° 32.888,Belgium,Namur,Philippeville,21,,
 GC5GC15,Jaskinia BiÅ›nik  (Przystanek turystyczny-B),N 50Â° 25.583,E 019Â° 39.930,Poland,MaÅ‚opolskie,Olkuski (MaÅ‚opolskie),58,,
 GC5GC2Q,INO - Stara kopalnia soli,N 52Â° 47.000,E 018Â° 15.410,Poland,Kujawsko-Pomorskie,InowrocÅ‚awski (Kujawsko-Pomorskie),32,,
 GC5GG5E,Opuszczone kopalnie - Kopalnia Augusta,N 50Â° 41.322,E 016Â° 32.405,Poland,DolnoÅ›lÄ…skie,DzierÅ¼oniowski (DolnoÅ›lÄ…skie),15,,
 GC5HGJY,La Grotta,N 46Â° 13.900,E 013Â° 09.437,Italy,Friuli-Venezia Giulia,Udine,75,,
 GC5HMJ8,Grotta presso il Cimitero - Cave near the Cemetery,N 45Â° 47.064,E 013Â° 35.651,Italy,Friuli-Venezia Giulia,Provincia di Trieste,188,,
 GC5HMJ8,Grotta presso il Cimitero - Cave near the Cemetery,N 45Â° 47.064,E 013Â° 35.651,Italy,Friuli-Venezia Giulia,Provincia di Trieste,188,,
 GC5J2NP,Geoles HÃ¶hle - Steinzeit im Wienerwald,N 48Â° 05.654,E 016Â° 10.907,Austria,NiederÃ¶sterreich,Bezirk MÃ¶dling,102,,
 GC5J3WY,12 CIRCUIT COTIER:vers la mine d or,N 47Â° 28.558,W 002Â° 29.386,France,Bretagne,Morbihan,548,,
 GC5J64N,HÃ¶hle im Herrschaftssteinbruch,N 48Â° 07.767,E 016Â° 59.544,Austria,NiederÃ¶sterreich,Bruck an der Leitha,89,,
 GC5J72V,TDLM  nÂ°11 la mine de quartz,N 45Â° 26.893,E 004Â° 35.201,France,Auvergne-RhÃ´ne-Alpes,Loire,111,,
 GC5JP1G,Sentier botanique de la mine,N 43Â° 37.224,W 001Â° 06.611,France,Nouvelle-Aquitaine,Landes,46,,
 GC5JWGW,Wysoczyzna ElblÄ…ska - kopalnia iÅ‚Ã³w,N 54Â° 17.308,E 019Â° 29.395,Poland,WarmiÅ„sko-Mazurskie,ElblÄ…ski (WarmiÅ„sko-Mazurskie),15,,
 GC5JWQX,Kopalnia Bazaltu Gracze / Basalt Mine Gracze,N 50Â° 41.244,E 017Â° 33.330,Poland,Opolskie,Opolski (Opolskie),20,,
 GC5K0PE,Dul Ferdinand / Ferdinand Mine,N 50Â° 10.694,E 014Â° 08.546,Czechia,StÅ™edoÄeskÃ½ kraj,Kladno,651,,
 GC5K44D,Into the Mine,N 45Â° 50.600,E 009Â° 28.331,Italy,Lombardia,Lecco,29,,
 GC5K5HW,La Machine: musÃ©e de la mine,N 46Â° 53.295,E 003Â° 27.857,France,Bourgogne-Franche-ComtÃ©,NiÃ¨vre,111,,
 GC5KAFK,( M.S.G. ) Grotta di Lourdes   #1 Zimella,N 45Â° 19.927,E 011Â° 22.415,Italy,Veneto,Verona,7,,
 GC5KDW4,Mine de Ramponenche,N 44Â° 20.277,E 003Â° 40.093,France,Occitanie,LozÃ¨re,17,,
 GC5KE59,La cave mystÃ¨re,N 47Â° 18.250,E 001Â° 11.020,France,Centre-Val-de-Loire,Loir-et-Cher,21,,
 GC5KQED,Le cave di gesso di Signols - Panorama,N 45Â° 02.878,E 006Â° 47.724,Italy,Piemonte,Torino,27,,
 GC5KQHG,Le cave di gesso di Signols - Cascata,N 45Â° 02.941,E 006Â° 48.094,Italy,Piemonte,Torino,24,,
 GC5KQJN,Le cave di gesso di Signols - Relax,N 45Â° 03.043,E 006Â° 48.091,Italy,Piemonte,Torino,33,,
 GC5KQKM,Le cave di gesso di Signols - Torrente,N 45Â° 03.182,E 006Â° 48.213,Italy,Piemonte,Torino,33,,
 GC5KQMJ,Le cave di gesso di Signols - Teleferica 1,N 45Â° 03.225,E 006Â° 48.315,Italy,Piemonte,Torino,34,,
 GC5KVQ6,Le cave di gesso di Signols - Teleferica 2,N 45Â° 03.389,E 006Â° 48.312,Italy,Piemonte,Torino,29,,
 GC5KWG4,Le cave di gesso di Signols,N 45Â° 03.172,E 006Â° 48.319,Italy,Piemonte,Torino,21,,
 GC5M7TN,Le cave perdute,N 43Â° 50.131,E 011Â° 13.513,Italy,Toscana,Firenze,31,,
 GC5M8H3,Janosikova jaskyna / Janosik's cave,N 48Â° 54.271,E 018Â° 10.693,Slovakia,TrenÄiansky kraj,TrenÄÃ­n,175,,
 GC5MQ6X,KOPALNIA,N 50Â° 26.033,E 016Â° 44.742,Poland,DolnoÅ›lÄ…skie,KÅ‚odzki (DolnoÅ›lÄ…skie),44,,
 GC5MVXR,De la Ragounite Ã  la Mine #13,N 46Â° 25.105,W 001Â° 37.600,France,Pays de la Loire,VendÃ©e,268,,
 GC5MVYM,De la Ragounite Ã  la Mine #14,N 46Â° 24.880,W 001Â° 37.100,France,Pays de la Loire,VendÃ©e,279,,
 GC5MVZ4,De la Ragounite Ã  la Mine #15,N 46Â° 24.853,W 001Â° 36.971,France,Pays de la Loire,VendÃ©e,233,,
 GC5MVZQ,De la Ragounite Ã  la Mine #16,N 46Â° 24.881,W 001Â° 36.819,France,Pays de la Loire,VendÃ©e,56,,
 GC5NADD,Cave dwellings in Noszvaj,N 47Â° 55.732,E 020Â° 28.930,Hungary,Heves,Egri jÃ¡rÃ¡s,109,,
 GC5NH1E,Le cave perdute 2.0 _ Maiano,N 43Â° 47.814,E 011Â° 18.359,Italy,Toscana,Firenze,27,,
 GC5NJ8M,MÃ©moire de la Mine,N 44Â° 56.083,E 006Â° 35.224,France,Provence-Alpes-CÃ´te d'Azur,Hautes-Alpes,345,,
 GC5NRXT,Ederovska stola (Eder's mine shaft),N 49Â° 28.717,E 016Â° 39.376,Czechia,JihomoravskÃ½ kraj,Blansko,436,,
 GC5NVYT,grotta di Lourdes,N 45Â° 54.790,E 009Â° 10.142,Italy,Lombardia,Como,46,,
 GC5NVZY,grotta Masera,N 45Â° 53.956,E 009Â° 09.373,Italy,Lombardia,Como,21,,
 GC5NW0H,La Mine de Lappiaz,N 46Â° 11.565,E 006Â° 45.948,France,Auvergne-RhÃ´ne-Alpes,Haute-Savoie,22,,
 GC5NZ8P,La grotte des mystÃ¨res,N 50Â° 37.787,E 004Â° 27.239,Belgium,Brabant wallon,Genappe,155,,
 GC5NZCQ,Grotta Tanaccia,N 44Â° 13.610,E 011Â° 45.437,Italy,Emilia-Romagna,Ravenna,16,,
 GC5P3J9,Kopalnia magnezytu Wiry,N 50Â° 50.216,E 016Â° 37.918,Poland,DolnoÅ›lÄ…skie,Å›widnicki (DolnoÅ›lÄ…skie),32,,
 GC5P56J,Cannero Riviera grotta di Lourdes,N 46Â° 01.259,E 008Â° 40.735,Italy,Piemonte,Verbano-Cusio-Ossola,391,,
 GC5P8XG,La cave au vin du nain ,N 45Â° 42.900,E 004Â° 45.400,France,Auvergne-RhÃ´ne-Alpes,RhÃ´ne,17,,
 GC5PB7H,La grotte du sanglier,N 46Â° 12.973,E 007Â° 10.945,Switzerland,Valais,Chamoson (23),20,,
 GC5PG5T,La mine Ã  Plomb 1 - Le pont de la Mine,N 47Â° 23.234,W 002Â° 07.384,France,Pays de la Loire,Loire-Atlantique,67,,
 GC5PG63,La mine Ã  Plomb 2 - DÃ©but du filon,N 47Â° 22.982,W 002Â° 07.353,France,Pays de la Loire,Loire-Atlantique,66,,
 GC5PG6F,La mine Ã  Plomb 3 - Jacques Martin,N 47Â° 23.061,W 002Â° 07.438,France,Pays de la Loire,Loire-Atlantique,52,,
 GC5PG6T,La mine Ã  Plomb 4 - La maison rouge,N 47Â° 23.133,W 002Â° 07.510,France,Pays de la Loire,Loire-Atlantique,59,,
 GC5PGDE,Cave du diable,N 49Â° 13.569,E 002Â° 58.658,France,Hauts-de-France,Aisne,51,,
 GC5PGRV,Bei Gott,N 51Â° 10.056,E 012Â° 55.212,Germany,Sachsen,Mittelsachsen (Lkr),196,,
 GC5PT09,Kopalnia Agnes | GÃ³rnictwo w Jugowie #3,N 50Â° 36.922,E 016Â° 32.126,Poland,DolnoÅ›lÄ…skie,KÅ‚odzki (DolnoÅ›lÄ…skie),27,,
 GC5PXBX,"Kopalnia Wapienia ""Czatkowice""",N 50Â° 09.697,E 019Â° 38.038,Poland,MaÅ‚opolskie,Krakowski (MaÅ‚opolskie),0,,
 GC5PZ60,( M.S.G. ) Grotta di Lourdes #2 Brognoligo,N 45Â° 27.187,E 011Â° 16.887,Italy,Veneto,Verona,15,,
 GC5PZNX,Kazimierz-Juliusz: Ostatnia czynna kopalnia,N 50Â° 17.515,E 019Â° 14.315,Poland,ÅšlÄ…skie,Sosnowiec (ÅšlÄ…skie),34,,
 GC5Q7BC,( M.S.G. ) Grotta di Lourdes #3 Chiampo,N 45Â° 32.317,E 011Â° 17.179,Italy,Veneto,Vicenza,26,,
 GC5QM4H,La Cave du Roy,N 48Â° 08.850,E 002Â° 47.500,France,Centre-Val-de-Loire,Loiret,30,,
 GC5QZHD,"Rocky Window at the Cave, Jasov",N 48Â° 40.648,E 020Â° 58.617,Slovakia,KoÅ¡ickÃ½ kraj,KoÅ¡ice - okolie,165,,
 GC5QZM1,Grotta di Biddiriscottai,N 40Â° 17.623,E 009Â° 38.777,Italy,Sardegna,Nuoro,194,,
 GC5R48F,Cave Bahnheim,N 49Â° 26.311,E 007Â° 43.437,Germany,Rheinland-Pfalz,Kaiserslautern,90,,
 GC5R48K,Cave Kindsbach,N 49Â° 24.931,E 007Â° 37.048,Germany,Rheinland-Pfalz,Kaiserslautern (Lkr),34,,
 GC5R4BA,2 - La balade des Nichoirs - La cave,N 47Â° 55.207,E 004Â° 34.352,France,Bourgogne-Franche-ComtÃ©,CÃ´te-d'Or,21,,
 GC5R9D6,Kopalnia Planeta - ZagÅ‚Ä™bie PrzemysÅ‚u,N 50Â° 18.528,E 019Â° 03.767,Poland,ÅšlÄ…skie,BÄ™dziÅ„ski (ÅšlÄ…skie),113,,
 GC5RDAT,Honey cave,N 49Â° 49.273,E 024Â° 05.391,Ukraine,Lviv,Ğ›ÑŒĞ²Ñ–Ğ²ÑÑŒĞºĞ° Ğ¼Ñ–ÑÑŒĞºĞ° Ñ€Ğ°Ğ´Ğ°,25,,
 GC5RFFG,La mine oubliÃ©e,N 45Â° 17.753,E 005Â° 52.167,France,Auvergne-RhÃ´ne-Alpes,IsÃ¨re,39,,
 GC5RHQR,Grube San Fernando,N 50Â° 45.767,E 007Â° 57.707,Germany,Rheinland-Pfalz,Altenkirchen (Lkr),40,,
 GC5RKVY,Jaskinia RacÅ‚awicka ,N 50Â° 11.426,E 019Â° 39.854,Poland,MaÅ‚opolskie,Krakowski (MaÅ‚opolskie),28,,
 GC5RQ99,Dolina Kluczwody - Pod jaskiniÄ…,N 50Â° 09.267,E 019Â° 49.157,Poland,MaÅ‚opolskie,Krakowski (MaÅ‚opolskie),117,,
 GC5T1HK,Bewegung tut gut!,N 50Â° 44.922,E 007Â° 58.463,Germany,Rheinland-Pfalz,Altenkirchen (Lkr),31,,
 GC5T9B3,Alphabet du 68. M comme Mine de Potasse,N 47Â° 43.056,E 007Â° 28.359,France,Grand-Est,Haut-Rhin,584,,
 GC5TA8J,Jaskinia NiedÅºwiedzia,N 49Â° 29.383,E 020Â° 47.417,Poland,MaÅ‚opolskie,NowosÄ…decki (MaÅ‚opolskie),14,,
 GC5TMXW,Bewegung tut gut! 1.0,N 50Â° 45.195,E 007Â° 57.961,Germany,Rheinland-Pfalz,Altenkirchen (Lkr),51,,
 GC5TMYN,Bewegung tut gut! 2.0,N 50Â° 46.397,E 007Â° 56.122,Germany,Rheinland-Pfalz,Altenkirchen (Lkr),42,,
 GC5TQ3H,Santuario Madonna di Loreto - Grotta,N 46Â° 02.704,E 011Â° 08.954,Italy,Trentino-Alto Adige,Trento,18,,
 GC5TRG8,Jaskinia Wymyta,N 50Â° 56.885,E 015Â° 54.385,Poland,DolnoÅ›lÄ…skie,ZÅ‚otoryjski (DolnoÅ›lÄ…skie),48,,
 GC5TRJM,Jaskinia Nad Potokiem,N 50Â° 56.414,E 015Â° 54.057,Poland,DolnoÅ›lÄ…skie,ZÅ‚otoryjski (DolnoÅ›lÄ…skie),25,,
 GC5TTGD,PST km 13 - Gramozna jama,N 46Â° 04.522,E 014Â° 31.622,Slovenia,Osrednjeslovenska,Ljubljana,119,,
 GC5TV3Y,Jaskinia WaloÅ„ska,N 50Â° 57.314,E 015Â° 52.003,Poland,DolnoÅ›lÄ…skie,ZÅ‚otoryjski (DolnoÅ›lÄ…skie),5,,
 GC5TX72,Grotta di Cocceio (#Astrocache),N 40Â° 50.408,E 014Â° 04.266,Italy,Campania,Napoli,14,,
 GC5V4KC,Grotta L. Donini,N 40Â° 10.013,E 009Â° 29.384,Italy,Sardegna,Ogliastra,9,,
 GC5VNET,Ã–tscher Tropfstein HÃ¶hle,N 47Â° 54.568,E 015Â° 11.383,Austria,NiederÃ¶sterreich,Bezirk Scheibbs,32,,
 GC5W10F,THE ORCALYNS'S CAVE,N 43Â° 44.269,E 006Â° 07.496,France,Provence-Alpes-CÃ´te d'Azur,Var,27,,
 GC5W6GQ,Bosmoreau-les -Mines : Le musÃ©e de la mine,N 46Â° 00.101,E 001Â° 45.459,France,Nouvelle-Aquitaine,Creuse,41,,
 GC5W6VD,La grotte de Jouxtens,N 46Â° 33.121,E 006Â° 36.007,Switzerland,Vaud,Jouxtens-MÃ©zery (22),164,,
 GC5WAEP,Le chariot de la mine ,N 49Â° 33.527,E 005Â° 42.326,Belgium,Luxembourg,Musson,79,,
 GC5WFGH,#07 - Le chemin de la mine - La ferme,N 48Â° 59.508,W 000Â° 18.640,France,Normandie,Calvados,62,,
 GC5WFGN,#08 - Le chemin de la mine - La barriÃ¨re,N 48Â° 59.450,W 000Â° 18.843,France,Normandie,Calvados,59,,
 GC5WFGX,#09 - Le chemin de la mine - Vers le guÃ©,N 48Â° 59.311,W 000Â° 19.062,France,Normandie,Calvados,42,,
 GC5WFH3,#10 - Le chemin de la mine - Sept troncs ,N 48Â° 59.131,W 000Â° 19.255,France,Normandie,Calvados,60,,
 GC5WFH8,#11 - Le chemin de la mine - la barriÃ¨re,N 48Â° 59.129,W 000Â° 19.524,France,Normandie,Calvados,56,,
 GC5WFHH,#12 - Le chemin de la mine - en drive-in,N 48Â° 59.139,W 000Â° 19.862,France,Normandie,Calvados,57,,
 GC5WFJ1,#13 - Le chemin de la mine - La butte,N 48Â° 59.203,W 000Â° 20.131,France,Normandie,Calvados,50,,
 GC5WFJP,#15 - Le chemin de la mine - La montÃ©e ,N 48Â° 59.470,W 000Â° 20.241,France,Normandie,Calvados,44,,
 GC5WFJX,#16 - Le chemin de la mine - L'arbre,N 48Â° 59.582,W 000Â° 20.171,France,Normandie,Calvados,47,,
 GC5WG1V,#17 - Le chemin de la mine - multi-troncs,N 48Â° 59.712,W 000Â° 20.227,France,Normandie,Calvados,43,,
 GC5WG20,#18 - Le chemin de la mine - de l'autre cotÃ©,N 48Â° 59.842,W 000Â° 20.255,France,Normandie,Calvados,32,,
 GC5WG2H,#19 - Le chemin de la mine - l'entrÃ©e du champ,N 48Â° 59.945,W 000Â° 20.279,France,Normandie,Calvados,40,,
 GC5WG2R,#20 - Le chemin de la mine - Le champ,N 49Â° 00.076,W 000Â° 20.275,France,Normandie,Calvados,44,,
 GC5WG4R,#22 - Le chemin de la mine - Le tronc,N 49Â° 00.441,W 000Â° 20.106,France,Normandie,Calvados,44,,
 GC5WG4Z,#23 - Le chemin de la mine - vers le mesnil,N 49Â° 00.521,W 000Â° 19.968,France,Normandie,Calvados,45,,
 GC5WG56,#24 - Le chemin de la mine - Le mesnil-Touffray,N 49Â° 00.624,W 000Â° 19.750,France,Normandie,Calvados,37,,
 GC5WG5C,#25 - Le chemin de la mine - Au fil de l'eau,N 49Â° 00.451,W 000Â° 19.608,France,Normandie,Calvados,43,,
 GC5WG88,#26 - Le chemin de la mine - La citÃ© du Livet,N 49Â° 00.418,W 000Â° 19.358,France,Normandie,Calvados,46,,
 GC5WG8P,#27 - Le chemin de la mine - L'entrÃ©e du bois,N 49Â° 00.307,W 000Â° 19.332,France,Normandie,Calvados,37,,
 GC5WG98,#28 - Le chemin de la mine - Le bois,N 49Â° 00.206,W 000Â° 19.402,France,Normandie,Calvados,42,,
 GC5WG9F,#29 - Le chemin de la mine - La souche,N 49Â° 00.106,W 000Â° 19.507,France,Normandie,Calvados,35,,
 GC5WG9N,#30 - Le chemin de la mine - La descente,N 49Â° 00.058,W 000Â° 19.336,France,Normandie,Calvados,36,,
 GC5WH5R,#31 - Le chemin de la mine - Pour le fun... ou pas,N 49Â° 00.018,W 000Â° 19.209,France,Normandie,Calvados,35,,
 GC5WH63,#32 - Le chemin de la mine - Vers St-Germain,N 48Â° 59.944,W 000Â° 19.080,France,Normandie,Calvados,45,,
 GC5WH66, La letterbox de la mine,N 49Â° 00.271,W 000Â° 18.992,France,Normandie,Calvados,56,,
 GC5WH6B,#35 - Le chemin de la mine - La fin du calvaire,N 48Â° 59.857,W 000Â° 18.260,France,Normandie,Calvados,64,,
 GC5WKDK,Suba-lyuk barlang,N 47Â° 57.656,E 020Â° 31.828,Hungary,Borsod-AbaÃºj-ZemplÃ©n,MezÅ‘kÃ¶vesdi jÃ¡rÃ¡s,7,,
 GC5WMD0,Grotta della Sibilla Monte Circeo,N 41Â° 14.320,E 013Â° 03.649,Italy,Lazio,Latina,6,,
 GC5WPMC,"Kopalnia zÅ‚ota ""Aurelia""",N 51Â° 07.823,E 015Â° 55.261,Poland,DolnoÅ›lÄ…skie,ZÅ‚otoryjski (DolnoÅ›lÄ…skie),94,,
 GC5WPRY,#34 - Le chemin de la mine - vers le final,N 48Â° 59.886,W 000Â° 18.753,France,Normandie,Calvados,41,,
 GC5WQE0,Cave Kotten,N 49Â° 26.629,E 007Â° 45.672,Germany,Rheinland-Pfalz,Kaiserslautern,24,,
 GC5WT5N,CASCINA LE CAVE,N 44Â° 01.148,E 011Â° 03.991,Italy,Toscana,Prato,10,,
 GC5WVTD,Cave Ã  vin Ã  La Cresse - Style Elfe,N 44Â° 10.680,E 003Â° 08.194,France,Occitanie,Aveyron,56,,
 GC5WVTT,Cave Ã  vin Ã  Contre-pinet,N 44Â° 11.485,E 003Â° 08.572,France,Occitanie,Aveyron,23,,
 GC5WX6Q,Medvedji brlog / BÃ¤renhÃ¶hle / Bear cave.,N 45Â° 45.263,E 014Â° 32.141,Slovenia,Littoralâ€“Inner Carniola Region,Bloke,24,,
 GC5WXMV,6-La cave du Cairou-Les balcons de St-Martin,N 44Â° 56.390,E 004Â° 21.162,France,Auvergne-RhÃ´ne-Alpes,ArdÃ¨che,9,,
 GC5WZ4Q,Le musÃ©e de la mine,N 48Â° 59.932,W 000Â° 19.299,France,Normandie,Calvados,45,,
 GC5X3G0,"Tailfer, la grotte Alexandre et ses alentours",N 50Â° 23.393,E 004Â° 52.866,Belgium,Namur,Profondeville,19,,
 GC5X7HW,Le MusÃ©e de la Mine de Villars,N 45Â° 27.847,E 004Â° 21.310,France,Auvergne-RhÃ´ne-Alpes,Loire,90,,
 GC5XEXK,Ancienne Mine de Vaucron,N 43Â° 22.640,E 006Â° 30.614,France,Provence-Alpes-CÃ´te d'Azur,Var,23,,
 GC5XT47,Die HÃ¶hle,N 47Â° 25.644,E 015Â° 16.242,Austria,Steiermark,Bruck-MÃ¼rzzuschlag,13,,
 GC5Y10X,Wieliczka to nie tylko Kopalnia Soli,N 49Â° 59.051,E 020Â° 03.698,Poland,MaÅ‚opolskie,Wielicki (MaÅ‚opolskie),96,,
 GC5Y4AR,Echarcon #03 - La mare de la cave au renard,N 48Â° 34.275,E 002Â° 24.734,France,Ãle-de-France,Essonne,63,,
 GC5Y4CC,Echarcon #04 - Le muret de la cave au renard,N 48Â° 34.292,E 002Â° 24.935,France,Ãle-de-France,Essonne,58,,
 GC5Y7AC,Magazyn â€“ jaskinia z â€jajemâ€,N 50Â° 44.680,E 019Â° 17.359,Poland,ÅšlÄ…skie,CzÄ™stochowski (ÅšlÄ…skie),101,,
 GC5Y7BG,Jaskinia w Kielnikach,N 50Â° 44.739,E 019Â° 17.277,Poland,ÅšlÄ…skie,CzÄ™stochowski (ÅšlÄ…skie),108,,
 GC5Y7BZ,Jaskinia na... Dupce,N 50Â° 41.950,E 019Â° 21.783,Poland,ÅšlÄ…skie,CzÄ™stochowski (ÅšlÄ…skie),54,,
 GC5Y7DA,Dawna kopalnia w Szklarach - Old mine in Szklary,N 50Â° 38.746,E 016Â° 49.668,Poland,DolnoÅ›lÄ…skie,ZÄ…bkowicki (DolnoÅ›lÄ…skie),18,,
 GC5Y7Y4,Jaskinia w Zielonej GÃ³rze,N 50Â° 46.653,E 019Â° 13.996,Poland,ÅšlÄ…skie,CzÄ™stochowski (ÅšlÄ…skie),79,,
 GC5YCEM,Ancienne mine,N 50Â° 23.640,E 003Â° 40.340,France,Hauts-de-France,Nord,47,,
 GC5YGBE,Kopalnia Andaluzja,N 50Â° 21.567,E 018Â° 59.120,Poland,ÅšlÄ…skie,Piekary ÅšlÄ…skie (ÅšlÄ…skie),8,,
 GC5YWXT,Oenotourisme finale cave coopÃ©rative,N 44Â° 04.099,E 004Â° 13.689,France,Occitanie,Gard,21,,
 GC5YZNH,Le Parc de la Mine #1,N 46Â° 17.029,E 002Â° 44.507,France,Auvergne-RhÃ´ne-Alpes,Allier,44,,
 GC5YZP4,Le Parc de la Mine #2,N 46Â° 17.100,E 002Â° 44.622,France,Auvergne-RhÃ´ne-Alpes,Allier,32,,
 GC5YZPD,Le Parc de la Mine #4,N 46Â° 17.165,E 002Â° 44.997,France,Auvergne-RhÃ´ne-Alpes,Allier,47,,
 GC5ZCNZ,Cave- tour UeÃŸbachtal,N 50Â° 04.280,E 007Â° 02.276,Germany,Rheinland-Pfalz,Cochem-Zell (Lkr),24,,
 GC5ZJ79,VDS6 Mine humide,N 45Â° 35.341,E 006Â° 44.243,France,Auvergne-RhÃ´ne-Alpes,Savoie,40,,
 GC5ZJ8V,VDS7 Mine d'info,N 45Â° 35.502,E 006Â° 44.189,France,Auvergne-RhÃ´ne-Alpes,Savoie,66,,
 GC5ZM39,5# Retour en enfance - T'as bonne mine !,N 49Â° 33.840,E 003Â° 18.252,France,Hauts-de-France,Aisne,132,,
 GC5ZPXT,Chemin de la mine,N 46Â° 56.448,E 004Â° 18.523,France,Bourgogne-Franche-ComtÃ©,SaÃ´ne-et-Loire,8,,
 GC5ZXZ2,Du bois Ã  la mine,N 50Â° 22.415,E 004Â° 27.348,Belgium,Hainaut,Charleroi,13,,
 GC5ZYJ5,Nasconditi! (nella grotta),N 45Â° 49.608,E 011Â° 23.936,Italy,Veneto,Vicenza,18,,
 GC60FCQ,Le Pont de la Mine,N 48Â° 17.713,E 007Â° 01.327,France,Grand-Est,Vosges,38,,
 GC60MNV,Ãœber dem Bergwerk,N 47Â° 40.210,E 015Â° 34.542,Austria,Steiermark,Bruck-MÃ¼rzzuschlag,93,,
 GC60P18,Jaskinia ZÅ‚otniaÅ„ska,N 49Â° 29.556,E 020Â° 45.594,Poland,MaÅ‚opolskie,NowosÄ…decki (MaÅ‚opolskie),5,,
 GC60R9W,#19 circuit sel - Einville : la mine de sel,N 48Â° 39.297,E 006Â° 28.835,France,Grand-Est,Meurthe-et-Moselle,75,,
 GC60VPD,Grotta Mangiapane,N 38Â° 05.581,E 012Â° 40.232,Italy,Sicilia,Trapani,153,,
 GC60VPX,Grotta del Crocifisso,N 38Â° 06.743,E 012Â° 39.904,Italy,Sicilia,Trapani,128,,
 GC60VRE,Grotta dell'Uzzo,N 38Â° 06.604,E 012Â° 47.188,Italy,Sicilia,Trapani,163,,
 GC60W3Y,Lachy et sa mine,N 48Â° 45.903,E 003Â° 42.529,France,Grand-Est,Marne,69,,
 GC60WCC,Falco's HÃ¶hle,N 48Â° 02.443,E 015Â° 25.074,Austria,NiederÃ¶sterreich,Bezirk St. PÃ¶lten,25,,
 GC60XQ9,Grotta del Romito,N 37Â° 51.600,E 013Â° 22.159,Italy,Sicilia,Palermo,14,,
 GC613R9,Kopalnia i ginÄ…ca wieÅ›,N 50Â° 59.477,E 016Â° 27.583,Poland,DolnoÅ›lÄ…skie,Å›widnicki (DolnoÅ›lÄ…skie),27,,
 GC613RB,Zwischen der A10 und A114 #01,N 52Â° 37.750,E 013Â° 27.657,Germany,Berlin,Berlin,285,,
 GC61F8V,Grotte Epervier,N 50Â° 23.747,E 005Â° 31.673,Belgium,Luxembourg,Durbuy,97,,
 GC61HKN,CA#1 - Le mÃ©morial de la mine,N 47Â° 41.983,E 006Â° 38.820,France,Bourgogne-Franche-ComtÃ©,Haute-SaÃ´ne,114,,
 GC61VB6,Jama na Hribu,N 45Â° 41.254,E 013Â° 55.254,Slovenia,Obalno-kraÅ¡ka,SeÅ¾ana,22,,
 GC61YTJ,Mini grotte en pÃ©rovette,N 50Â° 10.883,E 005Â° 34.418,Belgium,Luxembourg,La Roche-en-Ardenne,270,,
 GC61ZNP,Grotta di Attila,N 46Â° 34.516,E 013Â° 11.026,Italy,Friuli-Venezia Giulia,Udine,18,,
 GC620MW,Le pont de la Mine - Huelgoat,N 48Â° 21.430,W 003Â° 43.378,France,Bretagne,FinistÃ¨re,18,,
 GC6239Y,Grotta,N 46Â° 20.076,E 011Â° 07.225,Italy,Trentino-Alto Adige,Trento,3,,
 GC6250W,Le trÃ©sor des farfadets de la mine ,N 49Â° 29.883,E 005Â° 52.278,France,Grand-Est,Meurthe-et-Moselle,81,,
 GC625YH,"JASKINIA JASNA W STRZEGOWEJ (Jama, BiaÅ‚a)",N 50Â° 24.923,E 019Â° 41.515,Poland,MaÅ‚opolskie,Olkuski (MaÅ‚opolskie),13,,
 GC6267K,la chapelle -grotte ,N 49Â° 50.111,E 005Â° 18.996,Belgium,Luxembourg,Bertrix,82,,
 GC628JW,Mine,N 48Â° 45.912,E 006Â° 17.203,France,Grand-Est,Meurthe-et-Moselle,70,,
 GC62AQR,CPMR#32 - MusÃ©e de la mine,N 47Â° 41.820,E 006Â° 40.122,France,Bourgogne-Franche-ComtÃ©,Haute-SaÃ´ne,91,,
 GC62B4F,La Grotta di Venere,N 43Â° 44.096,E 010Â° 32.372,Italy,Toscana,Pisa,45,,
 GC62HGH,Meet the German Cachers at VadlÃ¡ny barlang,N 46Â° 46.590,E 017Â° 17.788,Hungary,Zala,Keszthelyi jÃ¡rÃ¡s,4,,
 GC62MAE,Die HÃ¶hle am Gartnerkofel Westgrad,N 46Â° 34.400,E 013Â° 17.933,Austria,KÃ¤rnten,Hermagor,18,,
 GC62TXA,Opuszczone kopalnie - Kopalnia Silberloch,N 50Â° 41.845,E 016Â° 27.896,Poland,DolnoÅ›lÄ…skie,WaÅ‚brzyski (DolnoÅ›lÄ…skie),109,,
 GC62X71,la Grotta dell'Orrido,N 45Â° 09.034,E 007Â° 10.335,Italy,Piemonte,Torino,17,,
 GC6347V,Grotta di Byron â€“ Porto Venere,N 44Â° 02.945,E 009Â° 49.975,Italy,Liguria,La Spezia,251,,
 GC63KGN,Mine de cuivre de La Bresse,N 48Â° 03.324,E 006Â° 56.870,France,Grand-Est,Vosges,230,,
 GC63Q9Z,#5 Lâ€™Ã‰vadÃ© du Huberbusch : Terrain MinÃ©,N 49Â° 17.530,E 006Â° 25.391,France,Grand-Est,Moselle,333,,
 GC63RW9,Zwischen der A10 und A114 #02: Das Hotel,N 52Â° 37.797,E 013Â° 27.499,Germany,Berlin,Berlin,372,,
 GC63ZAJ,Mine 1#10 -Attaque Imminente-#2,N 49Â° 12.328,E 005Â° 25.840,France,Grand-Est,Meuse,249,,
 GC63ZBV,Mine 2#10 -Attaque Imminente-#2,N 49Â° 12.351,E 005Â° 26.072,France,Grand-Est,Meuse,263,,
 GC63ZC3,Mine 3#10 -Attaque Imminente-#2,N 49Â° 12.408,E 005Â° 26.376,France,Grand-Est,Meuse,207,,
 GC63ZCA,[FDV] #1 - La Cave aux TB,N 47Â° 15.861,E 002Â° 06.725,France,Centre-Val-de-Loire,Cher,32,,
 GC63ZCC,Mine 4#10 -Attaque Imminente-#2,N 49Â° 12.235,E 005Â° 26.254,France,Grand-Est,Meuse,240,,
 GC63ZCW,Mine 5#10 -Attaque Imminente-#2,N 49Â° 12.014,E 005Â° 26.224,France,Grand-Est,Meuse,245,,
 GC63ZDB,Mine 6#10 -Attaque Imminente- #2,N 49Â° 11.839,E 005Â° 26.024,France,Grand-Est,Meuse,243,,
 GC63ZE2,Mine 8#10 -Attaque Imminente- #2,N 49Â° 12.027,E 005Â° 25.723,France,Grand-Est,Meuse,210,,
 GC63ZED,Mine 9#10 -Attaque Imminente- #2,N 49Â° 12.155,E 005Â° 25.600,France,Grand-Est,Meuse,276,,
 GC63ZF7,Mine Finale#10 -Attaque Imminente- #2,N 49Â° 12.132,E 005Â° 26.002,France,Grand-Est,Meuse,141,,
 GC6413W,Mine 7#10 -Attaque Imminente- #2,N 49Â° 11.861,E 005Â° 25.856,France,Grand-Est,Meuse,409,,
 GC643Z4,Grotte ND de Lourdes (Thoricourt),N 50Â° 36.753,E 003Â° 57.430,Belgium,Hainaut,Silly,125,,
 GC64BRQ,Jaskinia Raj,N 50Â° 49.517,E 020Â° 29.945,Poland,ÅšwiÄ™tokrzyskie,Kielecki (ÅšwiÄ™tokrzyskie),104,,
 GC64E19,Tsenkher cave,N 47Â° 20.938,E 091Â° 57.357,Mongolia, , ,6,,
 GC64FF8,La grotte du Scex,N 46Â° 23.867,E 006Â° 55.992,Switzerland,Vaud,Villeneuve (VD) (22),138,,
 GC64FHJ,La cave aux renards,N 50Â° 34.662,E 003Â° 55.576,Belgium,Hainaut,Lens,161,,
 GC64FJ3,Zwischen der A10 und A114 #03: Der Baum,N 52Â° 37.714,E 013Â° 27.169,Germany,Berlin,Berlin,525,,
 GC64FZ6,Zwischen der A10 und A114 #04: Der Stein,N 52Â° 37.581,E 013Â° 26.783,Germany,Berlin,Berlin,470,,
 GC64J6V,Stradchanskaya cave,N 49Â° 53.861,E 023Â° 45.348,Ukraine,Lviv,Ğ¯Ğ²Ğ¾Ñ€Ñ–Ğ²ÑÑŒĞºĞ¸Ğ¹ Ñ€Ğ°Ğ¹Ğ¾Ğ½,17,,
 GC64JHQ,I PONTI ROMANI #15- CAVE ROMANE,N 44Â° 12.530,E 008Â° 22.120,Italy,Liguria,Savona,103,,
 GC64X09,La chapelle/grotte d'Offagne,N 49Â° 53.410,E 005Â° 10.593,Belgium,Luxembourg,Paliseul,148,,
 GC64YBM,Ricixxx-Monte venere:Grotta Aliena,N 42Â° 20.525,E 012Â° 10.867,Italy,Lazio,Viterbo,19,,
 GC655V8,Jaskinia Bajka,N 53Â° 13.133,E 018Â° 10.750,Poland,Kujawsko-Pomorskie,Bydgoski (Kujawsko-Pomorskie),31,,
 GC6586H,L11/Jama Lunja-Cave Lunja,N 45Â° 49.108,E 015Â° 05.982,Slovenia,Jugovzhodna Slovenija,Novo mesto,94,,
 GC6586H,L11/Jama Lunja-Cave Lunja,N 45Â° 49.108,E 015Â° 05.982,Slovenia,Jugovzhodna Slovenija,Novo mesto,94,,
 GC65B2C,La mine Saint Joseph,N 48Â° 13.430,E 007Â° 03.044,France,Grand-Est,Vosges,122,,
 GC65ER1,La grotte de Boisy,N 46Â° 31.994,E 006Â° 36.912,Switzerland,Vaud,Lausanne (22),122,,
 GC65GTN,Zwischen der A10 und A114 #05: Der Graben,N 52Â° 37.816,E 013Â° 26.898,Germany,Berlin,Berlin,510,,
 GC65K5Z,Zwischen der A10 und A114 #06: Das Windrad,N 52Â° 37.754,E 013Â° 26.636,Germany,Berlin,Berlin,505,,
 GC65KNB,Zwischen der A10 und A114 #07: Der LP,N 52Â° 37.598,E 013Â° 26.455,Germany,Berlin,Berlin,329,,
 GC65X6Q,Jeskyne Byci skala/Byci skala Cave,N 49Â° 18.440,E 016Â° 41.614,Czechia,JihomoravskÃ½ kraj,Blansko,402,,
 GC65XC9,GO WRO: Kopalnia,N 51Â° 10.259,E 017Â° 14.307,Poland,DolnoÅ›lÄ…skie,WrocÅ‚awski (DolnoÅ›lÄ…skie),103,,
 GC665DB,Bosmoreau-les- Mines : La Mine,N 46Â° 00.238,E 001Â° 45.074,France,Nouvelle-Aquitaine,Creuse,46,,
 GC6674E,Certuv dul / Devils  mine,N 50Â° 44.617,E 015Â° 38.879,Czechia,KrÃ¡lovÃ©hradeckÃ½ kraj,Trutnov,162,,
 GC66E88,"Le cave di Romano ""Le Cornate"" - Romano's cave ",N 43Â° 09.498,E 010Â° 56.872,Italy,Toscana,Grosseto,24,,
 GC67A21,Bolognano - Grotta Scura,N 42Â° 13.749,E 013Â° 57.761,Italy,Abruzzo,Pescara,20,,
 GC67BNW,"OdpoÄÃ­vadlo - ""Jama"" - Moldava nad Bodvou",N 48Â° 37.078,E 020Â° 59.098,Slovakia,KoÅ¡ickÃ½ kraj,KoÅ¡ice - okolie,3,,
 GC67G94,Grotta dei Banditi,N 43Â° 29.140,E 010Â° 23.247,Italy,Toscana,Livorno,13,,
 GC67KWK,Une cave en plein air # SÃ©rie Rond-point,N 47Â° 00.976,E 004Â° 50.218,France,Bourgogne-Franche-ComtÃ©,CÃ´te-d'Or,188,,
 GC67VBR,GROTTA FORRA LUCIA,N 43Â° 55.020,E 011Â° 08.412,Italy,Toscana,Prato,7,,
 GC67X40,La forÃªt de Fausses Reposes #16: la cave,N 48Â° 48.723,E 002Â° 09.461,France,Ãle-de-France,Yvelines,94,,
 GC680QK,AVL: Grotta di Pietrapiana,N 40Â° 41.849,E 014Â° 39.830,Italy,Campania,Salerno,4,,
 GC6819R,AVL: Grotta dell'Apparizione dell'Avvocata,N 40Â° 39.181,E 014Â° 40.114,Italy,Campania,Salerno,3,,
 GC687DT,Altes Bergwerk,N 47Â° 51.579,E 015Â° 34.812,Austria,NiederÃ¶sterreich,Bezirk Lilienfeld,6,,
 GC689AK,Jaskinia w PÄ™kniÄ™tej Kopie,N 49Â° 29.230,E 020Â° 47.630,Poland,MaÅ‚opolskie,NowosÄ…decki (MaÅ‚opolskie),26,,
 GC689QZ,Ajdovska jama,N 45Â° 56.966,E 015Â° 25.538,Slovenia,Lower Sava Statistical Region,KrÅ¡ko,24,,
 GC68AJG,5. Les Eaux Vives - La Mine AbandonnÃ©e,N 43Â° 16.350,E 005Â° 29.174,France,Provence-Alpes-CÃ´te d'Azur,Bouches-du-RhÃ´ne,61,,
 GC68H5M,Cave and the Koppel ,N 53Â° 47.036,E 011Â° 33.937,Germany,Mecklenburg-Vorpommern,Nordwestmecklenburg (Lkr),62,,
 GC68H6C,( M.S.G. ) Grotta dell'Arena,N 45Â° 39.988,E 011Â° 05.616,Italy,Veneto,Verona,5,,
 GC68QP0,Pont de la cave au loup,N 48Â° 59.683,E 001Â° 39.849,France,Ãle-de-France,Yvelines,8,,
 GC68W2Q,ğŸ‘»ğŸ‘»ğŸ‘»LA MINE DÃ‰SAFFECTÃ‰E ğŸ‘»ğŸ‘»ğŸ‘»,N 44Â° 59.696,E 006Â° 07.126,France,Auvergne-RhÃ´ne-Alpes,IsÃ¨re,62,,
 GC6907J,Jaskinia w Åšladkowie,N 50Â° 34.918,E 020Â° 42.642,Poland,ÅšwiÄ™tokrzyskie,Kielecki (ÅšwiÄ™tokrzyskie),28,,
 GC690JX,LA CAVE DE BILBO.,N 48Â° 41.500,E 006Â° 06.500,France,Grand-Est,Meurthe-et-Moselle,11,,
 GC69E48,Cave mÃ©diÃ©vale,N 49Â° 08.725,E 001Â° 09.258,France,Normandie,Eure,6,,
 GC69G54,Green Mine,N 50Â° 49.234,E 004Â° 26.508,Belgium,Brussels,Auderghem - Oudergem,129,,
 GC69M4Y,Cave di Macigno,N 43Â° 28.048,E 010Â° 20.961,Italy,Toscana,Livorno,12,,
 GC69QCZ,Le TrÃ©sor de la Mine Dâ€™Or,N 47Â° 28.264,W 002Â° 29.293,France,Bretagne,Morbihan,42,,
 GC69REQ,La mine du Colombier du Roi,N 45Â° 46.058,E 003Â° 13.703,France,Auvergne-RhÃ´ne-Alpes,Puy-de-DÃ´me,64,,
 GC69T03,Batmans Cave,N 46Â° 58.428,E 008Â° 22.039,Switzerland,Nidwalden,Stans (7),95,,
 GC69VMV,StrachociÅ„ska kopalnia,N 49Â° 37.396,E 022Â° 04.826,Poland,Podkarpackie,Sanocki (Podkarpackie),19,,
 GC6A0ZB,La Mine  de Brassac- les - Mines,N 45Â° 25.607,E 003Â° 18.107,France,Auvergne-RhÃ´ne-Alpes,Puy-de-DÃ´me,32,,
 GC6A2P4,La grotta sul Rocciamelone,N 45Â° 09.072,E 007Â° 06.574,Italy,Piemonte,Torino,3,,
 GC6A7QJ,Cave Kindsbach II,N 49Â° 24.935,E 007Â° 37.105,Germany,Rheinland-Pfalz,Kaiserslautern (Lkr),43,,
 GC6AR52,Grotte Sainte-Marie,N 50Â° 06.478,E 005Â° 08.389,Belgium,Namur,Rochefort,204,,
 GC6BDQP,La grotte 2,N 46Â° 27.180,E 006Â° 56.732,Switzerland,Vaud,Montreux (22),122,,
 GC6BJTY,La Villa Mine,N 47Â° 14.847,W 002Â° 15.790,France,Pays de la Loire,Loire-Atlantique,104,,
 GC6BPR2,ÅšwiÄ™ta Grota/Saint Cave/Die heilige Grotte,N 53Â° 50.548,E 022Â° 58.850,Poland,Podlaskie,Augustowski (Podlaskie),193,,
 GC6C6DY,La  cave vivante du  champignon  !,N 47Â° 07.069,W 000Â° 12.305,France,Pays de la Loire,Maine-et-Loire,26,,
 GC6CM7Y,Maifelder LÃ¼ckenfÃ¼ller 11 â€“ bear cave,N 50Â° 17.306,E 007Â° 20.595,Germany,Rheinland-Pfalz,Mayen-Koblenz (Lkr),138,,
 GC6CNZR,De la cave au grenier,N 47Â° 44.705,E 007Â° 19.609,France,Grand-Est,Haut-Rhin,29,,
 GC6D5C6,The Mine!,N 51Â° 00.245,E 004Â° 10.285,Belgium,Oost-Vlaanderen,Buggenhout,100,,
 GC6DAGP,Jaskinia ÅšwiÄ™tego Szczepana,N 49Â° 29.299,E 020Â° 47.515,Poland,MaÅ‚opolskie,NowosÄ…decki (MaÅ‚opolskie),18,,
 GC6DMTD,La cave aux moines,N 47Â° 19.125,W 000Â° 10.737,France,Pays de la Loire,Maine-et-Loire,128,,
 GC6DY8G,Mine de plomb - La Roche-en-Ardenne,N 50Â° 11.154,E 005Â° 34.777,Belgium,Luxembourg,La Roche-en-Ardenne,224,,
 GC6E46N,WÄ™gajty #1~Kopalnia Kruszywa ,N 53Â° 48.966,E 020Â° 17.573,Poland,WarmiÅ„sko-Mazurskie,OlsztyÅ„ski (WarmiÅ„sko-Mazurskie),19,,
 GC6EAVR,Le cave di Cardona,N 45Â° 03.651,E 008Â° 11.273,Italy,Piemonte,Alessandria,16,,
 GC6EE1Z,Avventura in grotta,N 45Â° 27.520,E 009Â° 07.050,Italy,Lombardia,Milano,0,,
 GC6EEE3,Jeskyne pokladu / Cave of treasure,N 49Â° 56.230,E 017Â° 03.764,Czechia,OlomouckÃ½ kraj,Å umperk,73,,
 GC6EHJP,Puliamo il Parco delle Cave (CITO),N 45Â° 27.683,E 009Â° 06.085,Italy,Lombardia,Milano,25,,
 GC6EJHP,ST 3 Die kleine HÃ¶hle in der HÃ¶he,N 48Â° 32.230,E 015Â° 40.494,Austria,NiederÃ¶sterreich,Bezirk Krems,473,,
 GC6EJTH,ST 20 Der Hohle,N 48Â° 33.305,E 015Â° 37.740,Austria,NiederÃ¶sterreich,Bezirk Krems,388,,
 GC6EPKW,OlgahÃ¶hle (Olga's Cave),N 48Â° 24.815,E 009Â° 15.655,Germany,Baden-WÃ¼rttemberg,Reutlingen (Lkr),106,,
 GC6F2JC,Nad kopalniÄ… hula wiatr.,N 51Â° 53.756,E 019Â° 27.882,Poland,ÅÃ³dzkie,Zgierski (ÅÃ³dzkie),7,,
 GC6F5GW,[iG] Parco delle Cave,N 45Â° 27.663,E 009Â° 06.089,Italy,Lombardia,Milano,43,,
 GC6F76H,Otworowa kopalnia soli ÅÄ™Å¼kowice,N 49Â° 58.037,E 020Â° 18.889,Poland,MaÅ‚opolskie,Wielicki (MaÅ‚opolskie),38,,
 GC6FEH8,GÃ³ra - Kopalnia Soli,N 52Â° 44.720,E 018Â° 21.525,Poland,Kujawsko-Pomorskie,InowrocÅ‚awski (Kujawsko-Pomorskie),5,,
 GC6FQ72,Lourdes Grotte in Leuggern,N 47Â° 34.769,E 008Â° 12.336,Switzerland,Aargau,Leuggern (19),166,,
 GC6FQTC,Die HÃ¶hle der WurzelmÃ¤nnchen,N 48Â° 19.555,E 014Â° 16.789,Austria,OberÃ¶sterreich,Linz,95,,
 GC6FW42,Bonne Mine,N 43Â° 33.160,E 006Â° 27.892,France,Provence-Alpes-CÃ´te d'Azur,Var,23,,
 GC6FWC2,DRAGONS CAVE  by DÃ¼nenjunge ,N 52Â° 30.442,E 013Â° 11.200,Germany,Berlin,Berlin,552,,
 GC6FZH5,My favorite artists - Nick Cave,N 51Â° 22.271,E 006Â° 11.044,Netherlands,Limburg,Venlo,199,,
 GC6FZPD,Lourdes Grotte,N 47Â° 27.193,E 009Â° 02.032,Switzerland,Thurgau,Wilen (TG) (20),136,,
 GC6G84K,La bouillotte   interdite aux rats de cave ,N 48Â° 16.633,W 002Â° 19.755,France,Bretagne,CÃ´tes-d'Armor,41,,
 GC6G8KV,KoppenbrÃ¼ller-HÃ¶hle,N 47Â° 34.100,E 013Â° 43.200,Austria,OberÃ¶sterreich,Gmunden,119,,
 GC6GCAH,Cave St. Martin,N 49Â° 18.210,E 008Â° 04.960,Germany,Rheinland-Pfalz,SÃ¼dliche WeinstraÃŸe (Lkr),40,,
 GC6GTA0,Kopalnia w Amelinie,N 51Â° 25.618,E 022Â° 22.092,Poland,Lubelskie,Lubartowski (Lubelskie),18,,
 GC6H30H,"ChladniÄka , alebo jama na Ä¾ad.",N 48Â° 51.078,E 020Â° 56.207,Slovakia,KoÅ¡ickÃ½ kraj,Gelnica,83,,
 GC6HAY6,GROTTA 88,N 43Â° 04.490,E 013Â° 12.632,Italy,Marche,Macerata,5,,
 GC6HM5R,Cave di Avesa,N 45Â° 28.595,E 010Â° 59.104,Italy,Veneto,Verona,9,,
 GC6HMFT,Odkrywkowa Kopalnia Kredy 1,N 51Â° 07.970,E 023Â° 31.245,Poland,Lubelskie,CheÅ‚m (Lubelskie),46,,
 GC6HVVJ,La mine d or du mont garrot !!,N 48Â° 33.410,W 001Â° 58.495,France,Bretagne,Ille-et-Vilaine,71,,
 GC6HZ2Q,La grotta,N 45Â° 48.963,E 008Â° 22.291,Italy,Piemonte,Verbano-Cusio-Ossola,39,,
 GC6HZAQ,ancienne mine,N 43Â° 30.625,E 006Â° 54.220,France,Provence-Alpes-CÃ´te d'Azur,Alpes-Maritimes,29,,
 GC6J26B,Nachts in der Friedrich-HÃ¶hle,N 47Â° 00.240,E 015Â° 55.939,Austria,Steiermark,SÃ¼doststeiermark,15,,
 GC6J46R,M+C La grotta sul  fiume,N 45Â° 55.533,E 008Â° 26.012,Italy,Piemonte,Verbano-Cusio-Ossola,23,,
 GC6J555,Am Weg zur Grotte,N 47Â° 13.731,E 008Â° 56.038,Switzerland,St. Gallen,Schmerikon (17),132,,
 GC6JFFV,De la cave au grenier,N 47Â° 53.975,W 002Â° 22.188,France,Bretagne,Morbihan,16,,
 GC6JNEE,STROMBOLI - Grotta di Eolo,N 38Â° 48.594,E 015Â° 13.799,Italy,Sicilia,Messina,8,,
 GC6JRGK,Guosongzhen riverbridge,N 41Â° 36.561,E 126Â° 14.770,China,Jilin, ,8,,
 GC6K0RE,Acqua salsa di Pillo - Grotta alla vacca -,N 43Â° 31.602,E 010Â° 58.227,Italy,Toscana,Firenze,39,,
 GC6K7N7,La Grotte ,N 46Â° 40.210,E 006Â° 29.998,Switzerland,Vaud,Pompaples (22),74,,
 GC6K80M,La grotte ,N 50Â° 17.577,E 005Â° 54.582,Belgium,Luxembourg,Vielsalm,407,,
 GC6KPE5,I Templari - Rat Cave,N 44Â° 25.752,E 008Â° 16.174,Italy,Liguria,Savona,13,,
 GC6KVJQ,Safe in the Cave,N 47Â° 26.970,E 013Â° 53.779,Austria,Steiermark,Bezirk Liezen,68,,
 GC6KYZ6,Cave di Magnesite,N 45Â° 07.307,E 007Â° 28.559,Italy,Piemonte,Torino,6,,
 GC6M23X,Le CavÃ©,N 48Â° 26.415,E 005Â° 08.395,France,Grand-Est,Haute-Marne,48,,
 GC6M3BG,La TrÃ©mie Basse de la Mine du Freyssinet,N 44Â° 57.572,E 006Â° 32.479,France,Provence-Alpes-CÃ´te d'Azur,Hautes-Alpes,63,,
 GC6M5PK,La Mine du Freyssinet,N 44Â° 57.983,E 006Â° 32.783,France,Provence-Alpes-CÃ´te d'Azur,Hautes-Alpes,16,,
 GC6M8Y8,Dwarf's Cave,N 46Â° 33.283,E 014Â° 16.572,Austria,KÃ¤rnten,Klagenfurt-Land,101,,
 GC6ME29,CITO Ã  la Mine d'Abbaretz,N 47Â° 33.498,W 001Â° 32.500,France,Pays de la Loire,Loire-Atlantique,29,,
 GC6MPCE,les runes du voyageur - Grotte et cascade,N 46Â° 26.613,E 006Â° 56.175,Switzerland,Vaud,Montreux (22),28,,
 GC6MW1B,ĞŸĞµÑ‡ĞµÑ€Ğ½Ğ¸Ğ¹ Ğ¼Ğ¾Ğ½Ğ°ÑÑ‚Ğ¸Ñ€ Ğ Ğ¾Ğ·Ğ³Ñ–Ñ€Ñ‡Ğµ/Cave monastery Rozgirch,N 49Â° 06.848,E 023Â° 42.068,Ukraine,Lviv,Ğ¡Ñ‚Ñ€Ğ¸Ğ¹ÑÑŒĞºĞ¸Ğ¹ Ñ€Ğ°Ğ¹Ğ¾Ğ½,9,,
 GC6N064,grotte de l'ours,N 47Â° 00.234,E 006Â° 43.772,Switzerland,NeuchÃ¢tel,Les Ponts-de-Martel (24),148,,
 GC6N10T,UFO Zone - Ancienne mine de Vescagne,N 43Â° 46.744,E 007Â° 04.879,France,Provence-Alpes-CÃ´te d'Azur,Alpes-Maritimes,17,,
 GC6N3F7,ĞŸĞµÑ‡ĞµÑ€Ğ½Ğ¸Ğ¹ Ğ¼Ğ¾Ğ½Ğ°ÑÑ‚Ğ¸Ñ€ Ğ‘Ğ°ĞºĞ¾Ñ‚Ğ°/ Bakota Cave Monastery ,N 48Â° 35.209,E 026Â° 59.951,Ukraine,Khmelnytskyi,ĞšĞ°Ğ¼â€™ÑĞ½ĞµÑ†ÑŒ-ĞŸĞ¾Ğ´Ñ–Ğ»ÑŒÑÑŒĞºĞ¸Ğ¹ Ñ€Ğ°Ğ¹Ğ¾Ğ½,2,,
 GC6NBCT,"KOPALNIA GLINY ""BOLKO"" #1",N 51Â° 12.131,E 015Â° 25.918,Poland,DolnoÅ›lÄ…skie,BolesÅ‚awiecki (DolnoÅ›lÄ…skie),28,,
 GC6NCR9,La grotte ,N 46Â° 48.167,E 007Â° 10.630,Switzerland,Fribourg,Fribourg - Freiburg (10),111,,
 GC6NVXK,Kopalnia rud oÅ‚owiu i srebra w Bystrzycy GÃ³rnej,N 50Â° 46.566,E 016Â° 26.674,Poland,DolnoÅ›lÄ…skie,Å›widnicki (DolnoÅ›lÄ…skie),57,,
 GC6NWC6,Trickl und Dachserfallwanderung-Die HÃ¶hle,N 47Â° 33.160,E 013Â° 20.000,Austria,Salzburg,Hallein,35,,
 GC6P31A,[iG] Parco delle Cave [BONUS],N 45Â° 27.956,E 009Â° 05.841,Italy,Lombardia,Milano,23,,
 GC6P8F6,Zwischen der A10 und A114 #01 Reloaded,N 52Â° 37.780,E 013Â° 27.676,Germany,Berlin,Berlin,450,,
 GC6P8WP,Cave Trippstadt,N 49Â° 21.939,E 007Â° 46.643,Germany,Rheinland-Pfalz,Kaiserslautern (Lkr),39,,
 GC6PAH1,Mine d'Or Salsigne,N 43Â° 18.980,E 002Â° 22.786,France,Occitanie,Aude,37,,
 GC6PBDA,La Grotte de Grolley,N 46Â° 50.122,E 007Â° 03.710,Switzerland,Fribourg,Grolley (10),130,,
 GC6PCVF,Ripuliamo il Parco delle Cave (CITO),N 45Â° 27.685,E 009Â° 06.090,Italy,Lombardia,Milano,18,,
 GC6PH9G,La Mine BalayÃ©,N 43Â° 41.367,E 003Â° 09.896,France,Occitanie,HÃ©rault,27,,
 GC6PP00,[JST] Grotta della Madonna di Lourdes,N 44Â° 17.422,E 007Â° 46.446,Italy,Piemonte,Cuneo,23,,
 GC6PXF9,Le Parc de la Mine #3,N 46Â° 17.126,E 002Â° 44.799,France,Auvergne-RhÃ´ne-Alpes,Allier,22,,
 GC6PZ5K,Meurtre chez les templiers #06bis Mini grotte,N 50Â° 21.588,E 004Â° 27.857,Belgium,Hainaut,Gerpinnes,103,,
 GC6Q2JR,Au dessus de la mine,N 48Â° 03.431,E 006Â° 56.989,France,Grand-Est,Vosges,136,,
 GC6Q3G2,[ASX] La Gola del Furlo #8 - La Grotta del Grano,N 43Â° 38.784,E 012Â° 43.356,Italy,Marche,Pesaro e Urbino,141,,
 GC6Q3KY,Centrum Nauki i Sztuki Stara Kopalnia,N 50Â° 46.382,E 016Â° 15.635,Poland,DolnoÅ›lÄ…skie,WaÅ‚brzych (DolnoÅ›lÄ…skie),107,,
 GC6Q3XW,[TdW] N.1 Andenne - La Grotte Scladina,N 50Â° 29.739,E 005Â° 02.516,Belgium,Namur,Andenne,43,,
 GC6Q7YZ,BilderrÃ¤tsel Schwarzensee 4 - Die HÃ¶hle,N 47Â° 45.240,E 013Â° 29.530,Austria,OberÃ¶sterreich,Gmunden,95,,
 GC6QE2B,LES HAMEAUX D ESTIVE : la mine d'or et arsenic !#5,N 45Â° 34.945,E 006Â° 25.020,France,Auvergne-RhÃ´ne-Alpes,Savoie,17,,
 GC6QJW3,KOPALNIA !!!,N 50Â° 27.643,E 020Â° 36.046,Poland,ÅšwiÄ™tokrzyskie,PiÅ„czowski (ÅšwiÄ™tokrzyskie),18,,
 GC6QNCZ,Cave de Saint-Mont,N 43Â° 39.050,W 000Â° 09.218,France,Occitanie,Gers,33,,
 GC6QZMK,La grotte Notre-Dame de Lourdes ,N 50Â° 37.628,E 003Â° 19.182,Belgium,Hainaut,Tournai,82,,
 GC6R6CK,"Cave in a Ravens Rock, Stratena",N 48Â° 53.446,E 020Â° 20.660,Slovakia,KoÅ¡ickÃ½ kraj,RoÅ¾Åˆava,77,,
 GC6R936,#3 Tirs de mine - Circuit de la carriÃ¨re du Revoi,N 48Â° 40.471,E 005Â° 44.508,France,Grand-Est,Meuse,31,,
 GC6RDDD,CITO Event Parchetto Via delle Cave di Pietralata,N 41Â° 54.644,E 012Â° 32.338,Italy,Lazio,Roma,12,,
 GC6RFPM,Green Mine 3,N 50Â° 49.167,E 004Â° 30.167,Belgium,Vlaams-Brabant,Tervuren,1,,
 GC6RXEX,Jaskinia Szachownica,N 51Â° 03.213,E 018Â° 48.457,Poland,ÅšlÄ…skie,KÅ‚obucki (ÅšlÄ…skie),3,,
 GC6T06N,Nachts in der HÃ¶hle,N 46Â° 33.167,E 013Â° 52.400,Austria,KÃ¤rnten,Villach-Land,19,,
 GC6T0C5,Love Cave 2016,N 49Â° 30.180,E 011Â° 27.865,Germany,Bayern,NÃ¼rnberger Land (Lkr),95,,
 GC6T3Q4,HC JAMA,N 48Â° 07.349,E 017Â° 06.299,Slovakia,BratislavskÃ½ kraj,Bratislava V,4,,
 GC6T43C,Grotta dei Pipistrelli / Fledermaus HÃ¶hle,N 37Â° 08.502,E 015Â° 01.811,Italy,Sicilia,Siracusa,71,,
 GC6T8GZ,Oasi Cave di Noale,N 45Â° 33.151,E 012Â° 04.680,Italy,Veneto,Venezia,9,,
 GC6T9JJ,Kopalnia Soli KÅ‚odawa,N 52Â° 14.284,E 018Â° 55.320,Poland,Wielkopolskie,Kolski (Wielkopolskie),36,,
 GC6TE4X,"Parco delle Cave, CITO 2016 #2",N 45Â° 28.191,E 009Â° 05.787,Italy,Lombardia,Milano,18,,
 GC6TP40,Nad KopalniÄ… Melafiru w Rybnicy LeÅ›nej,N 50Â° 41.413,E 016Â° 15.938,Poland,DolnoÅ›lÄ…skie,WaÅ‚brzyski (DolnoÅ›lÄ…skie),28,,
 GC6TTND,MUSEE de la MINE et de la MINERALOGIE ,N 45Â° 47.583,E 004Â° 36.601,France,Auvergne-RhÃ´ne-Alpes,RhÃ´ne,107,,
 GC6V05M,Moraine du collet de la mine ,N 48Â° 03.470,E 006Â° 56.585,France,Grand-Est,Vosges,95,,
 GC6V15X,ENTRÃ‰E DE MINE FRANCHEPRÃ‰,N 49Â° 14.982,E 006Â° 02.206,France,Grand-Est,Moselle,87,,
 GC6V1BR,Jaskinia CheÅ‚mska,N 50Â° 28.648,E 018Â° 08.931,Poland,Opolskie,Strzelecki (Opolskie),36,,
 GC6V8TN,Jaskinia Salamander,N 49Â° 45.415,E 020Â° 51.594,Poland,MaÅ‚opolskie,Tarnowski (MaÅ‚opolskie),5,,
 GC6VAC6,Hobbit HÃ¶hle,N 47Â° 29.471,E 010Â° 43.512,Austria,Tirol,Reutte (AuÃŸerfern),282,,
 GC6VBB4,Mine St Paul,N 49Â° 14.902,E 006Â° 03.700,France,Grand-Est,Moselle,13,,
 GC6VPVA,54 - Collepardo - Grotta di Lourdes,N 41Â° 45.788,E 013Â° 22.120,Italy,Lazio,Frosinone,6,,
 GC6W7ZN,WokÃ³Å‚ Nielepic 14 - Jaskinia,N 50Â° 05.983,E 019Â° 41.825,Poland,MaÅ‚opolskie,Krakowski (MaÅ‚opolskie),80,,
 GC6WDJ0,Certova jaskyna / Devil's cave,N 48Â° 43.955,E 019Â° 51.599,Slovakia,BanskobystrickÃ½ kraj,RimavskÃ¡ Sobota,62,,
 GC6WEB5,Stara Kopalnia,N 50Â° 47.282,E 016Â° 06.201,Poland,DolnoÅ›lÄ…skie,WaÅ‚brzyski (DolnoÅ›lÄ…skie),41,,
 GC6WGDB,Kopalnia Thorez,N 50Â° 46.253,E 016Â° 15.650,Poland,DolnoÅ›lÄ…skie,WaÅ‚brzych (DolnoÅ›lÄ…skie),146,,
 GC6WJM8,Kopalnia DÅ‚ugosz ,N 49Â° 43.519,E 021Â° 14.892,Poland,MaÅ‚opolskie,Gorlicki (MaÅ‚opolskie),46,,
 GC6X2WN,Pavlakova jama / Pavlak's cave,N 46Â° 22.369,E 015Â° 22.474,Slovenia,Savinja Statistical Region,ZreÄe,34,,
 GC6X2WN,Pavlakova jama / Pavlak's cave,N 46Â° 22.369,E 015Â° 22.474,Slovenia,Savinja Statistical Region,ZreÄe,34,,
 GC6X9H2,#01 Sentier de la Mine Perpezac le Blanc,N 45Â° 13.297,E 001Â° 19.420,France,Nouvelle-Aquitaine,CorrÃ¨ze,91,,
 GC6X9HT,#02 Sentier de la Mine Perpezac le Blanc,N 45Â° 13.374,E 001Â° 19.233,France,Nouvelle-Aquitaine,CorrÃ¨ze,82,,
 GC6X9J6,#03 Sentier de la Mine Perpezac le Blanc,N 45Â° 13.355,E 001Â° 19.094,France,Nouvelle-Aquitaine,CorrÃ¨ze,75,,
 GC6X9K5,#04 Sentier de la Mine Perpezac le Blanc,N 45Â° 13.376,E 001Â° 18.967,France,Nouvelle-Aquitaine,CorrÃ¨ze,66,,
 GC6X9K8,#05 Sentier de la Mine Perpezac le Blanc,N 45Â° 13.494,E 001Â° 18.971,France,Nouvelle-Aquitaine,CorrÃ¨ze,73,,
 GC6X9KJ,#06 Sentier de la Mine Perpezac le Blanc,N 45Â° 13.554,E 001Â° 19.179,France,Nouvelle-Aquitaine,CorrÃ¨ze,83,,
 GC6X9KV,#07 Sentier de la Mine Perpezac le Blanc,N 45Â° 13.508,E 001Â° 19.289,France,Nouvelle-Aquitaine,CorrÃ¨ze,69,,
 GC6X9M2,#08 Sentier de la Mine Perpezac le Blanc,N 45Â° 13.441,E 001Â° 19.443,France,Nouvelle-Aquitaine,CorrÃ¨ze,41,,
 GC6X9MG,#08 Sentier de la Mine Perpezac le Blanc,N 45Â° 13.442,E 001Â° 19.588,France,Nouvelle-Aquitaine,CorrÃ¨ze,66,,
 GC6X9MW,#09 Sentier de la Mine Perpezac le Blanc,N 45Â° 13.403,E 001Â° 19.775,France,Nouvelle-Aquitaine,CorrÃ¨ze,69,,
 GC6XBXR,LA GROTTA,N 45Â° 29.100,E 009Â° 07.700,Italy,Lombardia,Milano,14,,
 GC6XWEH,L'arco delle Cave,N 45Â° 27.917,E 009Â° 05.727,Italy,Lombardia,Milano,14,,
 GC6XY4W,Die Mine,N 46Â° 50.516,E 015Â° 00.345,Austria,KÃ¤rnten,Wolfsberg,67,,
 GC6XYRT,La grotta di Babbo Natale ,N 45Â° 52.793,E 008Â° 25.170,Italy,Piemonte,Verbano-Cusio-Ossola,19,,
 GC6XZY3,Jaskinia GoblinÃ³w,N 50Â° 25.021,E 019Â° 33.666,Poland,ÅšlÄ…skie,ZawierciaÅ„ski (ÅšlÄ…skie),17,,
 GC6Y65N,Buczyna#8/Kopalnia czarnoziemu,N 52Â° 40.433,E 016Â° 59.040,Poland,Wielkopolskie,Obornicki (Wielkopolskie),14,,
 GC6YFTY,Dans la mine des mines,N 45Â° 02.053,E 006Â° 29.773,France,Provence-Alpes-CÃ´te d'Azur,Hautes-Alpes,7,,
 GC6YNRM,Najmniejsza jaskinia Polski,N 53Â° 06.291,E 022Â° 47.279,Poland,Podlaskie,Wysokomazowiecki (Podlaskie),33,,
 GC6YY4A,[LKC] Grotta Morgan,N 45Â° 51.215,E 011Â° 23.389,Italy,Veneto,Vicenza,4,,
 GC6YZH0,"[LEDLB]#16 ""La mine de fer""",N 47Â° 40.927,E 006Â° 55.979,France,Bourgogne-Franche-ComtÃ©,Territoire-de-Belfort,78,,
 GC6ZMP9,[2/40 luberon] La mine de ChÃ¢teau-Briant,N 43Â° 50.973,E 005Â° 45.094,France,Provence-Alpes-CÃ´te d'Azur,Alpes-de-Haute-Provence,25,,
 GC702JY,Grotta Sperticaia,N 43Â° 30.074,E 010Â° 22.284,Italy,Toscana,Livorno,12,,
 GC705QB,La Grotta della Madonnina - Fai della Paganella,N 46Â° 10.343,E 011Â° 04.591,Italy,Trentino-Alto Adige,Trento,24,,
 GC7083A,[13/40 luberon] Mine de souffre de Biabaux,N 43Â° 53.348,E 005Â° 44.965,France,Provence-Alpes-CÃ´te d'Azur,Alpes-de-Haute-Provence,12,,
 GC70P6N,SzemlÅ‘-hegyi Cave,N 47Â° 31.700,E 019Â° 01.550,Hungary,Budapest,Budapest,115,,
 GC70PFP,Opuszczona kopalnia w Siekierczynie,N 51Â° 07.406,E 015Â° 12.256,Poland,DolnoÅ›lÄ…skie,LubaÅ„ski (DolnoÅ›lÄ…skie),24,,
 GC70QFH,Le Bois CavÃ©,N 48Â° 37.309,W 002Â° 28.099,France,Bretagne,CÃ´tes-d'Armor,171,,
 GC70QJM,La Mine D'Harchies,N 50Â° 28.545,E 003Â° 41.269,Belgium,Hainaut,Bernissart,50,,
 GC70R4C,"Cave, Moldava nad Bodvou",N 48Â° 36.817,E 020Â° 59.482,Slovakia,KoÅ¡ickÃ½ kraj,KoÅ¡ice - okolie,97,,
 GC70RTV,LES RAGOTS -CAVE DE SAIN-BEL,N 45Â° 49.086,E 004Â° 36.170,France,Auvergne-RhÃ´ne-Alpes,RhÃ´ne,80,,
 GC70Z76,CsodabogyÃ³s-barlang,N 46Â° 47.535,E 017Â° 22.203,Hungary,VeszprÃ©m,Tapolcai jÃ¡rÃ¡s,60,,
 GC717YJ,La Grotte au Tronc,N 47Â° 17.886,E 007Â° 27.304,Switzerland,Bern,CrÃ©mines (2),25,,
 GC7192H,129 - Cave - Santuario Madonna fiore del campo,N 41Â° 49.148,E 012Â° 56.682,Italy,Lazio,Roma,5,,
 GC71NDY,La Grotta di San Giovanni d'Antro,N 46Â° 09.059,E 013Â° 28.388,Italy,Friuli-Venezia Giulia,Udine,13,,
 GC71R9R,Hagener Geocaching Stammtisch - Cave 66 [1],N 51Â° 21.200,E 007Â° 28.730,Germany,Nordrhein-Westfalen,Hagen,19,,
 GC71XYN,ANCIENNE MINE PAULINE,N 49Â° 12.820,E 006Â° 00.558,France,Grand-Est,Moselle,39,,
 GC72CN2,Au pied du clergeon #4: La cave,N 45Â° 50.572,E 005Â° 53.476,France,Auvergne-RhÃ´ne-Alpes,Haute-Savoie,60,,
 GC72D9Q,Kleine HÃ¶hle,N 46Â° 47.690,E 012Â° 43.983,Austria,Tirol,Lienz,32,,
 GC72FE9,Nachts in der Friedrich-HÃ¶hle 2 - Geburtstagsparty,N 47Â° 00.240,E 015Â° 55.939,Austria,Steiermark,SÃ¼doststeiermark,22,,
 GC72R48,1.Ricixxx-Geotrail Genazzano-Rocca di Cave,N 41Â° 50.447,E 012Â° 58.370,Italy,Lazio,Roma,4,,
 GC72R4K,2.Ricixxx-Geotrail Genazzano-Rocca di Cave,N 41Â° 50.858,E 012Â° 58.151,Italy,Lazio,Roma,4,,
 GC72R4W,3.Ricixxx-Geotrail Genazzano-Rocca di Cave,N 41Â° 51.214,E 012Â° 57.949,Italy,Lazio,Roma,4,,
 GC72R64,8.Ricixxx-Geotrail Genazzano-Rocca di Cave,N 41Â° 50.296,E 012Â° 57.502,Italy,Lazio,Roma,2,,
 GC72RNQ,Grotta dei Falconi,N 40Â° 33.053,E 015Â° 16.945,Italy,Campania,Salerno,2,,
 GC72TY5,KamniÅ¡ka jama,N 46Â° 20.378,E 014Â° 36.816,Slovenia,Osrednjeslovenska,Kamnik,9,,
 GC734YW,La grotta della Penna Buia,N 43Â° 57.916,E 010Â° 20.738,Italy,Toscana,Lucca,11,,
 GC735EP,# 09 PSS TERRAIN MINE,N 47Â° 18.014,E 005Â° 25.961,France,Bourgogne-Franche-ComtÃ©,CÃ´te-d'Or,58,,
 GC7363P,La cave au puit,N 47Â° 16.762,E 004Â° 09.340,France,Bourgogne-Franche-ComtÃ©,CÃ´te-d'Or,20,,
 GC73H21,Gacki - Jaskinia,N 50Â° 27.246,E 020Â° 35.157,Poland,ÅšwiÄ™tokrzyskie,PiÅ„czowski (ÅšwiÄ™tokrzyskie),24,,
 GC73HMM,Sorgente della grotta,N 41Â° 59.567,E 012Â° 34.668,Italy,Lazio,Roma,12,,
 GC73KY4,[30/40 luberon] La Mine,N 43Â° 54.125,E 005Â° 33.535,France,Provence-Alpes-CÃ´te d'Azur,Vaucluse,60,,
 GC73T0Z,Zdobnice zelezny dul / Zdobnice iron mine,N 50Â° 15.878,E 016Â° 25.437,Czechia,KrÃ¡lovÃ©hradeckÃ½ kraj,Rychnov nad KnÄ›Å¾nou,102,,
 GC73VED,La Grotta Azzurra,N 46Â° 01.804,E 012Â° 04.993,Italy,Veneto,Belluno,22,,
 GC73VGV,La grotte de Steinlein,N 50Â° 28.807,E 005Â° 35.159,Belgium,LiÃ¨ge,Comblain-au-Pont,38,,
 GC74029,Kopalnia Marie - Agnes,N 50Â° 46.600,E 016Â° 26.765,Poland,DolnoÅ›lÄ…skie,Å›widnicki (DolnoÅ›lÄ…skie),39,,
 GC7409W,KamniÅ¡ka Bela #11: Proti jami/Towards the cave,N 46Â° 20.161,E 014Â° 37.128,Slovenia,Osrednjeslovenska,Kamnik,46,,
 GC74223,KamniÅ¡ka Bela #12: KamniÅ¡ka jama/KamniÅ¡ka Cave,N 46Â° 20.342,E 014Â° 36.743,Slovenia,Osrednjeslovenska,Kamnik,28,,
 GC74223,KamniÅ¡ka Bela #12: KamniÅ¡ka jama/KamniÅ¡ka Cave,N 46Â° 20.342,E 014Â° 36.743,Slovenia,Osrednjeslovenska,Kamnik,28,,
 GC745PY,cÃ´te de la mine,N 45Â° 47.736,E 003Â° 14.699,France,Auvergne-RhÃ´ne-Alpes,Puy-de-DÃ´me,43,,
 GC74B8W,Jaskinia w StoÅ‚owie,N 49Â° 44.461,E 018Â° 58.465,Poland,ÅšlÄ…skie,CieszyÅ„ski (ÅšlÄ…skie),30,,
 GC74N4R,Jaskinia ci to czy nie? | Is it a cave or not?,N 54Â° 42.803,E 018Â° 17.092,Poland,Pomorskie,Pucki (Pomorskie),42,,
 GC74N4R,Jaskinia ci to czy nie? | Is it a cave or not?,N 54Â° 42.803,E 018Â° 17.092,Poland,Pomorskie,Pucki (Pomorskie),42,,
 GC74QNY,ROCHE CAVE,N 46Â° 32.520,E 005Â° 50.619,France,Bourgogne-Franche-ComtÃ©,Jura,16,,
 GC7505P,Jaskinia w Straszykowej GÃ³rze,N 50Â° 24.772,E 019Â° 36.339,Poland,ÅšlÄ…skie,ZawierciaÅ„ski (ÅšlÄ…skie),10,,
 GC75065,Jaskinia z Kominem,N 50Â° 25.235,E 019Â° 36.516,Poland,ÅšlÄ…skie,ZawierciaÅ„ski (ÅšlÄ…skie),10,,
 GC750CQ,Jaskinia w Zamczysku,N 50Â° 25.268,E 019Â° 36.849,Poland,ÅšlÄ…skie,ZawierciaÅ„ski (ÅšlÄ…skie),9,,
 GC759V2,BakovÃ¡ Jama,N 48Â° 35.165,E 019Â° 09.182,Slovakia,BanskobystrickÃ½ kraj,Zvolen,84,,
 GC759WM,174 - Coreno Ausonio - La grotta delle fate,N 41Â° 19.611,E 013Â° 46.020,Italy,Lazio,Frosinone,6,,
 GC75CAV,"Le chemin de fer Ã  ficelle, Les RÃ©aux : la mine",N 46Â° 19.521,E 002Â° 38.274,France,Auvergne-RhÃ´ne-Alpes,Allier,23,,
 GC75CYQ,La grotte de Grosmont.,N 50Â° 36.377,E 003Â° 39.344,Belgium,Hainaut,Leuze-en-Hainaut,66,,
 GC75EAY,Suszec Kopalnia,N 50Â° 02.362,E 018Â° 46.471,Poland,ÅšlÄ…skie,PszczyÅ„ski (ÅšlÄ…skie),31,,
 GC75JKQ,Cave Alte,N 45Â° 56.081,E 010Â° 54.400,Italy,Trentino-Alto Adige,Trento,45,,
 GC75NA3,175 - Cave - Fonte Santo Stefano,N 41Â° 49.206,E 012Â° 56.259,Italy,Lazio,Roma,10,,
 GC768DQ,La Grotta di Cupido,N 43Â° 51.400,E 011Â° 18.166,Italy,Toscana,Firenze,19,,
 GC76BC0,Atomic Land - Mine de Kervrec'h,N 47Â° 59.474,W 003Â° 27.593,France,Bretagne,Morbihan,14,,
 GC76D40,Dans la cave...,N 50Â° 43.288,E 002Â° 55.391,Belgium,Hainaut,Comines-Warneton,9,,
 GC76PG5,Jama Honice,N 45Â° 51.552,E 013Â° 53.895,Slovenia,GoriÅ¡ka,AjdovÅ¡Äina,35,,
 GC77A2N,"Sztolnia ""Jaskinia Daisy""",N 50Â° 49.025,E 016Â° 19.805,Poland,DolnoÅ›lÄ…skie,WaÅ‚brzych (DolnoÅ›lÄ…skie),35,,
 GC77B5M,CAVE #01 Les Armes (night cache),N 43Â° 56.533,E 003Â° 45.240,France,Occitanie,HÃ©rault,25,,
 GC77CV4,CAVE #02 DÃ©but Chasse (night cache),N 43Â° 56.602,E 003Â° 45.189,France,Occitanie,HÃ©rault,25,,
 GC77CWX,CAVE #03 Guet Apens (night cache),N 43Â° 56.603,E 003Â° 45.281,France,Occitanie,HÃ©rault,25,,
 GC77CXM,CAVE #04 Escarmouche (night cache),N 43Â° 56.665,E 003Â° 45.143,France,Occitanie,HÃ©rault,25,,
 GC77CYZ,CAVE #05 L'Arbre (night cache),N 43Â° 56.665,E 003Â° 45.317,France,Occitanie,HÃ©rault,22,,
 GC77D00,CAVE #06 Tranquille (night cache),N 43Â° 56.605,E 003Â° 45.415,France,Occitanie,HÃ©rault,25,,
 GC77D1N,CAVE #07 Le Carnage (night cache),N 43Â° 56.666,E 003Â° 45.375,France,Occitanie,HÃ©rault,25,,
 GC77D66,CAVE #08 Prep Final (night cache),N 43Â° 56.668,E 003Â° 45.551,France,Occitanie,HÃ©rault,25,,
 GC77D6X,CAVE #09 DÃ©pose Armes (night cache),N 43Â° 56.606,E 003Â° 45.510,France,Occitanie,HÃ©rault,17,,
 GC77D7J,CAVE #10 Bonus (night cache),N 43Â° 56.535,E 003Â° 45.463,France,Occitanie,HÃ©rault,17,,
 GC77KK7,Cave Trippstadt II,N 49Â° 21.939,E 007Â° 46.643,Germany,Rheinland-Pfalz,Kaiserslautern (Lkr),29,,
 GC77X0P,The Cave,N 44Â° 23.884,E 008Â° 56.324,Italy,Liguria,Genova,49,,
 GC782VD,Cave CoopÃ©rative - Castouveillan.,N 43Â° 17.521,E 002Â° 58.220,France,Occitanie,Aude,2,,
 GC784EP,La grotte des Nutons,N 50Â° 33.309,E 005Â° 35.399,Belgium,LiÃ¨ge,Esneux,32,,
 GC78AHG,Grotte du renard,N 50Â° 24.172,E 005Â° 36.511,Belgium,LiÃ¨ge,FerriÃ¨res,32,,
 GC78ANN,Elektrarenska jaskyna / Elektrarenska cave  ,N 49Â° 13.825,E 020Â° 19.103,Slovakia,PreÅ¡ovskÃ½ kraj,Poprad,246,,
 GC78FR4,les ruines de la mine,N 44Â° 44.930,E 004Â° 40.011,France,Auvergne-RhÃ´ne-Alpes,ArdÃ¨che,5,,
 GC78HMA,Zwiedzamy Rude ÅšlÄ…skÄ…-Kopalnia w Halembie,N 50Â° 14.371,E 018Â° 51.528,Poland,ÅšlÄ…skie,Ruda ÅšlÄ…ska (ÅšlÄ…skie),13,,
 GC78JN9,La cave des fous,N 49Â° 01.210,E 001Â° 06.594,France,Normandie,Eure,72,,
 GC78JT2,Barlang Baradla / JaskyÅˆa Baradla,N 48Â° 28.347,E 020Â° 32.306,Hungary,Borsod-AbaÃºj-ZemplÃ©n,Putnoki jÃ¡rÃ¡s,85,,
 GC78PJ1,Kopalnia Magnezytu Wiry - Wymiennik xWG,N 50Â° 49.985,E 016Â° 37.876,Poland,DolnoÅ›lÄ…skie,Å›widnicki (DolnoÅ›lÄ…skie),111,,
 GC790YD,Jaskyna Mrtvych Netopierov / Dead Bats Cave,N 48Â° 55.506,E 019Â° 38.335,Slovakia,BanskobystrickÃ½ kraj,Brezno,78,,
 GC791MG,Grotte du Nou Bleu / rÃ©surgence du Trou Bleu,N 50Â° 29.947,E 005Â° 35.877,Belgium,LiÃ¨ge,Sprimont,37,,
 GC793XQ,Remete-barlang,N 47Â° 33.619,E 018Â° 55.751,Hungary,Pest megye,Budakeszi jÃ¡rÃ¡s,32,,
 GC799J4,Zwiedzamy RudÄ™ ÅšlÄ…ska-Kopalnia Halemba Brama,N 50Â° 14.783,E 018Â° 51.554,Poland,ÅšlÄ…skie,Ruda ÅšlÄ…ska (ÅšlÄ…skie),78,,
 GC79FM1,OTSN # Le MusÃ©e de la Mine,N 48Â° 59.999,W 000Â° 19.163,France,Normandie,Calvados,13,,
 GC79HWV,La cave de ThÃ©odule Ribot ,N 48Â° 50.285,E 000Â° 54.685,France,Normandie,Eure,18,,
 GC79XY1,Predjama Castle and Cave,N 45Â° 48.935,E 014Â° 07.638,Slovenia,Littoralâ€“Inner Carniola Region,Postojna,284,,
 GC7A51B,La mine de Bel-Air 1,N 46Â° 56.562,W 000Â° 50.437,France,Nouvelle-Aquitaine,Deux-SÃ¨vres,0,,
 GC7A520,La mine de Bel-Air 2,N 46Â° 56.695,W 000Â° 50.457,France,Nouvelle-Aquitaine,Deux-SÃ¨vres,42,,
 GC7A54Z,La mine de Bel-Air 1,N 46Â° 56.962,W 000Â° 50.437,France,Nouvelle-Aquitaine,Deux-SÃ¨vres,43,,
 GC7ACFZ,Kopalnia Wiedzy o Cynku,N 50Â° 16.689,E 019Â° 28.237,Poland,MaÅ‚opolskie,Olkuski (MaÅ‚opolskie),53,,
 GC7ACZA,#12 Suszec - Kopalnia,N 50Â° 02.733,E 018Â° 46.495,Poland,ÅšlÄ…skie,PszczyÅ„ski (ÅšlÄ…skie),46,,
 GC7ADEH,Die HÃ¶hle,N 46Â° 34.993,E 013Â° 12.028,Austria,KÃ¤rnten,Hermagor,40,,
 GC7AKW8,La Cave Aux Renards NÂ° 34,N 47Â° 49.495,E 000Â° 53.442,France,Centre-Val-de-Loire,Loir-et-Cher,42,,
 GC7AKX5,La Cave Margaux NÂ°36,N 47Â° 49.272,E 000Â° 53.749,France,Centre-Val-de-Loire,Loir-et-Cher,42,,
 GC7AVN7,Grotta di Attila - reloaded,N 46Â° 34.516,E 013Â° 11.026,Italy,Friuli-Venezia Giulia,Udine,19,,
 GC7AVX0,Le gardien de la grotte,N 46Â° 56.288,E 006Â° 28.360,Switzerland,NeuchÃ¢tel,Les VerriÃ¨res (24),33,,
 GC7B0XQ,German Shepherd Runde #4 - Mine,N 47Â° 05.040,E 016Â° 09.784,Austria,Burgenland,GÃ¼ssing,342,,
 GC7B2J7,Circuit de la Mine 1,N 46Â° 15.633,E 004Â° 17.397,France,Bourgogne-Franche-ComtÃ©,SaÃ´ne-et-Loire,76,,
 GC7B2JT,Circuit de la Mine 2,N 46Â° 15.723,E 004Â° 17.257,France,Bourgogne-Franche-ComtÃ©,SaÃ´ne-et-Loire,67,,
 GC7B2KB,Circuit de la Mine 3,N 46Â° 15.848,E 004Â° 17.090,France,Bourgogne-Franche-ComtÃ©,SaÃ´ne-et-Loire,63,,
 GC7B2MF,Circuit de la Mine 4,N 46Â° 15.869,E 004Â° 16.966,France,Bourgogne-Franche-ComtÃ©,SaÃ´ne-et-Loire,53,,
 GC7B2N7,Circuit de la Mine 5,N 46Â° 15.986,E 004Â° 16.994,France,Bourgogne-Franche-ComtÃ©,SaÃ´ne-et-Loire,63,,
 GC7B2NF,Circuit de la Mine 6,N 46Â° 16.120,E 004Â° 17.032,France,Bourgogne-Franche-ComtÃ©,SaÃ´ne-et-Loire,63,,
 GC7B2NP,Circuit de la Mine 7,N 46Â° 16.236,E 004Â° 16.980,France,Bourgogne-Franche-ComtÃ©,SaÃ´ne-et-Loire,49,,
 GC7B2NZ,Circuit de la Mine 8,N 46Â° 16.449,E 004Â° 16.804,France,Bourgogne-Franche-ComtÃ©,SaÃ´ne-et-Loire,27,,
 GC7B2P5,Circuit de la Mine 9,N 46Â° 16.833,E 004Â° 17.200,France,Bourgogne-Franche-ComtÃ©,SaÃ´ne-et-Loire,51,,
 GC7B2PA,Circuit de la Mine 10,N 46Â° 16.723,E 004Â° 17.266,France,Bourgogne-Franche-ComtÃ©,SaÃ´ne-et-Loire,51,,
 GC7B2PH,Circuit de la Mine 11,N 46Â° 16.651,E 004Â° 17.357,France,Bourgogne-Franche-ComtÃ©,SaÃ´ne-et-Loire,48,,
 GC7B2PP,Circuit de la Mine 12,N 46Â° 16.641,E 004Â° 17.516,France,Bourgogne-Franche-ComtÃ©,SaÃ´ne-et-Loire,37,,
 GC7B2Q2,Circuit de la Mine 13,N 46Â° 16.737,E 004Â° 17.588,France,Bourgogne-Franche-ComtÃ©,SaÃ´ne-et-Loire,39,,
 GC7B2QJ,Circuit de la Mine 14,N 46Â° 16.815,E 004Â° 17.708,France,Bourgogne-Franche-ComtÃ©,SaÃ´ne-et-Loire,40,,
 GC7B3BK,Circuit de la Mine 15,N 46Â° 16.774,E 004Â° 17.837,France,Bourgogne-Franche-ComtÃ©,SaÃ´ne-et-Loire,20,,
 GC7B3BZ,Circuit de la Mine 16,N 46Â° 16.664,E 004Â° 17.873,France,Bourgogne-Franche-ComtÃ©,SaÃ´ne-et-Loire,32,,
 GC7B3C9,Circuit de la Mine 17,N 46Â° 16.520,E 004Â° 17.850,France,Bourgogne-Franche-ComtÃ©,SaÃ´ne-et-Loire,13,,
 GC7B3CG,Circuit de la Mine 18,N 46Â° 16.403,E 004Â° 17.403,France,Bourgogne-Franche-ComtÃ©,SaÃ´ne-et-Loire,51,,
 GC7B3CV,Circuit de la Mine 19,N 46Â° 16.299,E 004Â° 17.318,France,Bourgogne-Franche-ComtÃ©,SaÃ´ne-et-Loire,50,,
 GC7B3D4,Circuit de la Mine 20,N 46Â° 16.231,E 004Â° 17.209,France,Bourgogne-Franche-ComtÃ©,SaÃ´ne-et-Loire,45,,
 GC7B3DC,Circuit de la Mine 21,N 46Â° 16.051,E 004Â° 17.186,France,Bourgogne-Franche-ComtÃ©,SaÃ´ne-et-Loire,30,,
 GC7B3DJ,Circuit de la Mine 22,N 46Â° 15.921,E 004Â° 17.342,France,Bourgogne-Franche-ComtÃ©,SaÃ´ne-et-Loire,28,,
 GC7B3DN,Circuit de la Mine 23,N 46Â° 15.822,E 004Â° 17.409,France,Bourgogne-Franche-ComtÃ©,SaÃ´ne-et-Loire,55,,
 GC7B4PG,La mine des Sarrasins,N 45Â° 09.625,E 006Â° 36.069,France,Auvergne-RhÃ´ne-Alpes,Savoie,3,,
 GC7B6NE,Grotta Zinzulusa,N 40Â° 00.656,E 018Â° 25.920,Italy,Puglia,Lecce,56,,
 GC7BDR0,La Chapelle Largeau - en direction de la mine,N 46Â° 56.832,W 000Â° 50.420,France,Nouvelle-Aquitaine,Deux-SÃ¨vres,39,,
 GC7BF64,La Mine Haute du Freyssinet,N 44Â° 58.011,E 006Â° 33.034,France,Provence-Alpes-CÃ´te d'Azur,Hautes-Alpes,7,,
 GC7BK60,Jaskinia Cabanowa,N 50Â° 46.080,E 019Â° 16.307,Poland,ÅšlÄ…skie,CzÄ™stochowski (ÅšlÄ…skie),30,,
 GC7BPWW,Zwischen der A10 und A114 #02: GrÃ¼ner Baum,N 52Â° 37.808,E 013Â° 27.348,Germany,Berlin,Berlin,338,,
 GC7C5F5,LA GROTTA SBUCIATA,N 42Â° 05.865,E 013Â° 35.933,Italy,Abruzzo,L'Aquila,8,,
 GC7C95F,Der Schatz in der HÃ¶hle,N 46Â° 51.918,E 014Â° 14.509,Austria,KÃ¤rnten,Bezirk Sankt Veit an der Glan,21,,
 GC7CBZY,La loco de la mine de Rouy,N 42Â° 53.999,E 001Â° 38.912,France,Occitanie,AriÃ¨ge,5,,
 GC7CNRF,LA PICCOLA CAVE DI TISCALI,N 40Â° 14.316,E 009Â° 29.735,Italy,Sardegna,Nuoro,24,,
 GC7CQB9,LeÅ›ny spacer Nr 15 Stara kopalnia,N 50Â° 09.799,E 018Â° 48.130,Poland,ÅšlÄ…skie,MikoÅ‚owski (ÅšlÄ…skie),72,,
 GC7CZNW,mine de la Garret,N 42Â° 43.358,E 002Â° 42.418,France,Occitanie,PyrÃ©nÃ©es-Orientales,8,,
 GC7D0B0,POD KOPALNIÄ„,N 50Â° 51.669,E 015Â° 26.763,Poland,DolnoÅ›lÄ…skie,LwÃ³wecki (DolnoÅ›lÄ…skie),120,,
 GC7D7AD,Kopalnia Melafiru w Rybnicy LeÅ›nej,N 50Â° 41.485,E 016Â° 16.323,Poland,DolnoÅ›lÄ…skie,WaÅ‚brzyski (DolnoÅ›lÄ…skie),45,,
 GC7DMVF,Die HÃ¶hle am Schwarzensee,N 47Â° 36.130,E 014Â° 03.057,Austria,Steiermark,Bezirk Liezen,70,,
 GC7E74N,Wooden Cave,N 53Â° 43.940,E 009Â° 44.813,Germany,Schleswig-Holstein,Pinneberg (Kr),61,,
 GC7EHG5,Kopalnia Maria-Anna / sztolnia i szyby,N 50Â° 55.580,E 015Â° 26.220,Poland,DolnoÅ›lÄ…skie,LwÃ³wecki (DolnoÅ›lÄ…skie),22,,
 GC7EN8C,Kopalnia Osobnica - Åazy DÄ™bowieckie,N 49Â° 41.215,E 021Â° 24.369,Poland,Podkarpackie,Jasielski (Podkarpackie),45,,
 GC7F4GY,Gellert Hill Cave,N 47Â° 29.091,E 019Â° 03.131,Hungary,Budapest,Budapest,592,,
 GC7FBE1,La cave,N 48Â° 58.674,E 003Â° 20.297,France,Hauts-de-France,Aisne,59,,
 GC7FHDC,GeoNatale in grotta!!!,N 43Â° 57.046,E 010Â° 23.343,Italy,Toscana,Lucca,17,,
 GC7G64Y,CAVE DE BAILLY,N 47Â° 43.378,E 003Â° 37.632,France,Bourgogne-Franche-ComtÃ©,Yonne,65,,
 GC7GBX7,Kopalnia WaÅ‚brzych,N 50Â° 45.590,E 016Â° 16.297,Poland,DolnoÅ›lÄ…skie,WaÅ‚brzych (DolnoÅ›lÄ…skie),39,,
 GC7GN91,"Ces lapins, quelle VER(T)mine !",N 45Â° 50.153,E 001Â° 14.084,France,Nouvelle-Aquitaine,Haute-Vienne,11,,
 GC7GV99,Le cave di marmo di Arzo [IT] [D] [E],N 45Â° 52.830,E 008Â° 56.900,Switzerland,Ticino,Mendrisio (21),8,,
 GC7H3GN,L'ancienne mine,N 44Â° 15.107,E 001Â° 59.538,France,Occitanie,Aveyron,4,,
 GC7H8JF,Mine de fer sidÃ©rolithique vers Roppe,N 47Â° 40.749,E 006Â° 55.904,France,Bourgogne-Franche-ComtÃ©,Territoire-de-Belfort,24,,
 GC7H9KX,Die GspÃ¶ttgraben-HÃ¶hle,N 48Â° 15.585,E 016Â° 18.811,Austria,Wien,Wien,275,,
 GC7HAA2,[Cave Cache] Galleria San Carlo,N 45Â° 27.944,E 009Â° 11.794,Italy,Lombardia,Milano,49,,
 GC7HE51,Ricixxx-Via Cave,N 42Â° 31.811,E 011Â° 39.335,Italy,Lazio,Viterbo,3,,
 GC7HWQ6,cave funÃ©raire,N 45Â° 12.309,E 000Â° 26.490,France,Nouvelle-Aquitaine,Dordogne,15,,
 GC7HX5D,Spider Cave,N 50Â° 40.106,E 011Â° 15.557,Germany,ThÃ¼ringen,Saalfeld-Rudolstadt (Lkr),53,,
 GC7J7ZM,GEO-DÄ™bieÅ„sko #15 (1871) [kopalnia Philipp],N 50Â° 09.350,E 018Â° 43.330,Poland,ÅšlÄ…skie,Rybnicki (ÅšlÄ…skie),107,,
 GC7J8Q3,Jaskinia Ludwinowska ,N 50Â° 40.222,E 019Â° 26.740,Poland,ÅšlÄ…skie,Myszkowski (ÅšlÄ…skie),12,,
 GC7JK0J,The Dragon Cave  Kempen Event 2018,N 51Â° 23.015,E 005Â° 17.147,Netherlands,Noord-Brabant,Eersel,157,,
 GC7JXXE,JAMA,N 48Â° 09.729,E 017Â° 08.113,Slovakia,BratislavskÃ½ kraj,Bratislava III,144,,
 GC7JZ52,[ECLP]#34 - La Grotte d'Allain,N 50Â° 35.895,E 003Â° 24.730,Belgium,Hainaut,Tournai,64,,
 GC7K3PR,4e - boucle d'eguzon - La mine Ã  Poitou,N 46Â° 25.981,E 001Â° 35.823,France,Centre-Val-de-Loire,Indre,15,,
 GC7KEBJ,La grotte aux Nains,N 47Â° 22.034,E 007Â° 29.205,Switzerland,Jura,Val Terbi (26),43,,
 GC7KEZM,grotte N-D de lourdes,N 50Â° 04.476,E 005Â° 09.484,Belgium,Luxembourg,Wellin,47,,
 GC7M31P,La carriÃ¨re / The old slate mine,N 45Â° 19.994,E 001Â° 21.430,France,Nouvelle-Aquitaine,CorrÃ¨ze,5,,
 GC7M4Y7,GKW #08 Kopalnia Siemianowice,N 50Â° 18.335,E 019Â° 01.029,Poland,ÅšlÄ…skie,Siemianowice ÅšlÄ…skie (ÅšlÄ…skie),13,,
 GC7M5GV,Little tree cave,N 51Â° 41.147,E 010Â° 04.930,Germany,Niedersachsen,Northeim (Lkr),69,,
 GC7MBGC,Odkrywkowa Kopalnia Kredy 3,N 51Â° 07.858,E 023Â° 31.259,Poland,Lubelskie,CheÅ‚m (Lubelskie),26,,
 GC7MBGV,Odkrywkowa Kopalnia Kredy 2,N 51Â° 08.046,E 023Â° 30.979,Poland,Lubelskie,CheÅ‚m (Lubelskie),33,,
 GC7MDG7,KamniÅ¡ka jama 2018,N 46Â° 20.342,E 014Â° 36.743,Slovenia,Osrednjeslovenska,Kamnik,4,,
 GC7ME5W,Die verschlossene HÃ¶hle,N 46Â° 43.546,E 013Â° 39.521,Austria,KÃ¤rnten,Villach-Land,35,,
 GC7N1Y0,La mine du Travers Banc,N 44Â° 03.447,E 003Â° 00.246,France,Occitanie,Aveyron,13,,
 GC7N7P9,RETRO Games - Cave of Spikes (Neue Koords 7.2.19),N 53Â° 22.474,E 007Â° 36.408,Germany,Niedersachsen,Aurich (Lkr),57,,
 GC7NEV6,[RIK] Grotta San Pier Damiani,N 43Â° 27.560,E 012Â° 43.437,Italy,Marche,Pesaro e Urbino,10,,
 GC7P0PK,CE7# 20 - Cave vicinos,N 47Â° 32.300,E 004Â° 24.823,France,Bourgogne-Franche-ComtÃ©,CÃ´te-d'Or,36,,
 GC7P1VE,Mezzana marine cave,N 44Â° 03.902,E 009Â° 55.202,Italy,Liguria,La Spezia,5,,
 GC7P2H9,#2 VallÃ©e du Laval - Grotte,N 50Â° 00.342,E 005Â° 34.732,Belgium,Luxembourg,Sainte-Ode,49,,
 GC7P3HC,Mine de Pont PÃ©an,N 48Â° 00.792,W 001Â° 42.702,France,Bretagne,Ille-et-Vilaine,68,,
 GC7PGB4,"Kopalnia ""Matylda""",N 51Â° 41.669,E 015Â° 44.379,Poland,Lubuskie,Nowosolski (Lubuskie),25,,
 GC7PPGA,Planetenweg - Die HÃ¶hle am Wasser,N 47Â° 33.191,E 015Â° 46.485,Austria,Steiermark,Weiz,54,,
 GC7PVKA,Grotta di Boriano,N 45Â° 46.222,E 013Â° 43.157,Italy,Friuli-Venezia Giulia,Provincia di Trieste,15,,
 GC7PY4G,#12 Escapade Ã  Escanaffles - Grotte N-D de Lourdes,N 50Â° 44.509,E 003Â° 27.862,Belgium,Hainaut,Celles,104,,
 GC7QAAM,Kopalnia WÄ™gla Kamiennego Nowa Ruda,N 50Â° 35.471,E 016Â° 30.849,Poland,DolnoÅ›lÄ…skie,KÅ‚odzki (DolnoÅ›lÄ…skie),76,,
 GC7QDGP,JAMA MLINSKIH KAMNOV,N 46Â° 12.017,E 015Â° 23.743,Slovenia,Savinja Statistical Region,Å entjur,27,,
 GC7QDJG,Grotta di CÃ nova,N 45Â° 58.719,E 009Â° 20.613,Italy,Lombardia,Lecco,5,,
 GC7QN25,Grotta dei pipistrelli,N 43Â° 19.673,E 010Â° 36.191,Italy,Toscana,Pisa,80,,
 GC7QPX9,[GBE18] 3 - Circuit THEODORE La mine THEODORE ,N 47Â° 49.609,E 007Â° 19.323,France,Grand-Est,Haut-Rhin,78,,
 GC7R8MV,Kopalnia w Chudowie - Szyb VI,N 50Â° 12.382,E 018Â° 46.282,Poland,ÅšlÄ…skie,Gliwicki (ÅšlÄ…skie),37,,
 GC7R9ZE,Grotta dei Banditi,N 44Â° 14.210,E 011Â° 41.558,Italy,Emilia-Romagna,Ravenna,5,,
 GC7RGQ1,La Grotte du GÃ©ogrÃ phe - Malmedy,N 50Â° 25.965,E 006Â° 01.602,Belgium,LiÃ¨ge,Malmedy,45,,
 GC7RK6E,LA MINI CAVE DI SU MANNAU,N 39Â° 24.423,E 008Â° 29.622,Italy,Sardegna,Carbonia-Iglesias,24,,
 GC7RPPZ,Grotta di Val de Varri,N 42Â° 11.399,E 013Â° 08.258,Italy,Lazio,Rieti,3,,
 GC7RPRY,Grotta di Luppa,N 42Â° 07.261,E 013Â° 09.442,Italy,Abruzzo,L'Aquila,7,,
 GC7RQFW,L'inquilino della grotta,N 43Â° 48.679,E 010Â° 27.187,Italy,Toscana,Lucca,19,,
 GC7T9PD,Lake Tisza 01,N 47Â° 38.462,E 020Â° 44.570,Hungary,JÃ¡sz-Nagykun-Szolnok,TiszafÃ¼redi jÃ¡rÃ¡s,8,,
 GC7TA3H,Lake Tisza 02,N 47Â° 39.067,E 020Â° 43.562,Hungary,Heves,FÃ¼zesabonyi jÃ¡rÃ¡s,5,,
 GC7TA4P,Lake Tisza 03,N 47Â° 38.370,E 020Â° 42.960,Hungary,Heves,FÃ¼zesabonyi jÃ¡rÃ¡s,11,,
 GC7TGB5,musÃ©e de la mine,N 50Â° 28.358,E 002Â° 40.176,France,Hauts-de-France,Pas-de-Calais,27,,
 GC7TMJ9,KÅ‘bÃ¡nyÃ¡k a NaszÃ¡lyban - 1. MalomkÅ‘-bÃ¡nya,N 47Â° 49.638,E 019Â° 09.267,Hungary,Pest megye,VÃ¡ci jÃ¡rÃ¡s,7,,
 GC7TMYW,Cave di Molera [GSG18],N 45Â° 48.599,E 008Â° 53.387,Italy,Lombardia,Varese,22,,
 GC7TWK4,Cave of Hot hill,N 46Â° 58.267,E 017Â° 51.960,Hungary,VeszprÃ©m,BalatonfÃ¼redi jÃ¡rÃ¡s,8,,
 GC7TXYX,Jaskinia zbÃ³jÃ³w,N 49Â° 35.403,E 019Â° 24.215,Poland,ÅšlÄ…skie,Å¼ywiecki (ÅšlÄ…skie),3,,
 GC7V4TV,Kopalnia odkrywkowa StanisÅ‚aw,N 50Â° 59.030,E 016Â° 27.923,Poland,DolnoÅ›lÄ…skie,Å›widnicki (DolnoÅ›lÄ…skie),23,,
 GC7V5TZ,Grotte N-D de Lourdes 1892,N 49Â° 51.276,E 005Â° 15.338,Belgium,Luxembourg,Bertrix,77,,
 GC7VFD0,4.La Cave,N 46Â° 31.409,E 001Â° 44.089,France,Centre-Val-de-Loire,Indre,27,,
 GC7VTQX,Mine de rien ...le retour !,N 48Â° 36.578,E 007Â° 49.107,France,Grand-Est,Bas-Rhin,12,,
 GC7W9M8,B/D #1 La mine de l'Elzet,N 44Â° 31.894,E 004Â° 07.753,France,Auvergne-RhÃ´ne-Alpes,ArdÃ¨che,6,,
 GC7WG1W,CAVE#1,N 45Â° 41.926,E 009Â° 40.406,Italy,Lombardia,Bergamo,104,,
 GC7WV0T,Mine's Pic Nic,GrayWolf,Fm,2018-08-27,2018-08-27,Italy,2020-08-25,0.00%,0.00%
 GC7WXAV,Sentierelsa: Grotta dell'Orso,N 43Â° 24.295,E 011Â° 08.143,Italy,Toscana,Siena,6,,
 GC7X1T0,EKOGV Ipoly ErdÅ‘ Remete - barlang,N 47Â° 46.279,E 018Â° 55.209,Hungary,Pest megye,Szobi jÃ¡rÃ¡s,19,,
 GC7X75D,A16 Kopalnia Strachocina ,N 49Â° 37.720,E 022Â° 04.251,Poland,Podkarpackie,Brzozowski (Podkarpackie),17,,
 GC7XHPC,Col de la Mine de Fer (2400m),N 45Â° 11.863,E 005Â° 59.333,France,Auvergne-RhÃ´ne-Alpes,IsÃ¨re,8,,
 GC7XY1X,Cave of Zorgol khairkhan,N 46Â° 54.776,E 105Â° 51.564,Mongolia, , ,2,,
 GC7Y0CE,# 01 - La mine de Belzanes,N 46Â° 05.934,E 001Â° 23.198,France,Nouvelle-Aquitaine,Haute-Vienne,52,,
 GC7Y0D8,# 02 - La mine de Belzanes,N 46Â° 05.839,E 001Â° 23.231,France,Nouvelle-Aquitaine,Haute-Vienne,51,,
 GC7Y1DQ,# 03 - La mine de Belzanes,N 46Â° 05.766,E 001Â° 23.335,France,Nouvelle-Aquitaine,Haute-Vienne,47,,
 GC7Y1EY,# 04 - La mine de Belzanes,N 46Â° 05.699,E 001Â° 23.434,France,Nouvelle-Aquitaine,Haute-Vienne,53,,
 GC7Y1F0,# 06 - La mine de Belzanes,N 46Â° 05.717,E 001Â° 23.631,France,Nouvelle-Aquitaine,Haute-Vienne,39,,
 GC7Y1F4, # 05 - La mine de Belzanes,N 46Â° 05.645,E 001Â° 23.553,France,Nouvelle-Aquitaine,Haute-Vienne,49,,
 GC7Y1FB,# 07 - La mine de Belzanes,N 46Â° 05.817,E 001Â° 23.597,France,Nouvelle-Aquitaine,Haute-Vienne,39,,
 GC7Y1FG,# 08 - La mine de Belzanes,N 46Â° 05.892,E 001Â° 23.667,France,Nouvelle-Aquitaine,Haute-Vienne,45,,
 GC7Y1FP,# 09 - La mine de Belzanes,N 46Â° 05.997,E 001Â° 23.582,France,Nouvelle-Aquitaine,Haute-Vienne,44,,
 GC7Y1FQ,# 10 - La mine de Belzanes,N 46Â° 06.062,E 001Â° 23.499,France,Nouvelle-Aquitaine,Haute-Vienne,44,,
 GC7Y1FY,# 11 - La mine de Belzanes,N 46Â° 05.960,E 001Â° 23.432,France,Nouvelle-Aquitaine,Haute-Vienne,45,,
 GC7Y1G3,# 12 - La mine de Belzanes,N 46Â° 06.076,E 001Â° 23.364,France,Nouvelle-Aquitaine,Haute-Vienne,45,,
 GC7Y1G6,# 13 - La mine de Belzanes,N 46Â° 06.051,E 001Â° 23.238,France,Nouvelle-Aquitaine,Haute-Vienne,50,,
 GC7Y535,# 01 - La mine de l'Ã¢ge,N 46Â° 04.932,E 001Â° 24.165,France,Nouvelle-Aquitaine,Haute-Vienne,46,,
 GC7Y53C,# 02 - La mine de l'Ã¢ge,N 46Â° 04.848,E 001Â° 24.230,France,Nouvelle-Aquitaine,Haute-Vienne,49,,
 GC7Y53V,# 03 - La mine de l'Ã¢ge,N 46Â° 04.755,E 001Â° 24.190,France,Nouvelle-Aquitaine,Haute-Vienne,46,,
 GC7Y549,# 04 - La mine de l'Ã¢ge,N 46Â° 04.752,E 001Â° 24.055,France,Nouvelle-Aquitaine,Haute-Vienne,46,,
 GC7Y54D, # 05 - La mine de l'Ã¢ge,N 46Â° 04.840,E 001Â° 24.060,France,Nouvelle-Aquitaine,Haute-Vienne,46,,
 GC7Y54G,# 06 - La mine de l'Ã¢ge,N 46Â° 04.872,E 001Â° 23.940,France,Nouvelle-Aquitaine,Haute-Vienne,46,,
 GC7Y54P,# 07 - La mine de l'Ã¢ge,N 46Â° 04.966,E 001Â° 23.974,France,Nouvelle-Aquitaine,Haute-Vienne,48,,
 GC7Y54X,"# 08 - La mine de l'Ã¢ge, la loge",N 46Â° 05.009,E 001Â° 23.826,France,Nouvelle-Aquitaine,Haute-Vienne,46,,
 GC7Y7NM,Kopalnia Opiag,N 49Â° 31.634,E 021Â° 55.299,Poland,Podkarpackie,KroÅ›nieÅ„ski (Podkarpackie),3,,
 GC7YGWZ,G07 Kopalnia nafty i gazu w BrzezÃ³wce,N 50Â° 03.688,E 021Â° 33.778,Poland,Podkarpackie,Ropczycko-sÄ™dziszowski (Podkarpackie),20,,
 GC7YJPC,Le musÃ©e de la Mine,N 51Â° 00.741,E 002Â° 17.155,France,Hauts-de-France,Nord,11,,
 GC7YPTR,La mine du Puymorens,N 42Â° 33.092,E 001Â° 46.861,France,Occitanie,PyrÃ©nÃ©es-Orientales,2,,
 GC7YWQC,CITO in grotta!,N 45Â° 56.010,E 009Â° 26.450,Italy,Lombardia,Lecco,5,,
 GC7Z18M,ZsivÃ¡ny barlang,N 47Â° 22.700,E 017Â° 50.075,Hungary,GyÅ‘r-Moson-Sopron,Pannonhalmi jÃ¡rÃ¡s,0,,
 GC7Z5Y8,Kopalnia,N 49Â° 59.864,E 019Â° 35.854,Poland,MaÅ‚opolskie,Wadowicki (MaÅ‚opolskie),43,,
 GC7Z6MJ,Kopalnia w Czatkowicach,N 50Â° 09.418,E 019Â° 38.598,Poland,MaÅ‚opolskie,Krakowski (MaÅ‚opolskie),11,,
 GC7Z72M,Hagener Geocaching Stammtisch - Cave 66 [2],N 51Â° 21.200,E 007Â° 28.730,Germany,Nordrhein-Westfalen,Hagen,11,,
 GC7Z873,Grotta a Male,N 42Â° 25.803,E 013Â° 29.033,Italy,Abruzzo,L'Aquila,3,,
 GC7ZDQJ,Remete barlang,N 47Â° 22.746,E 017Â° 50.107,Hungary,GyÅ‘r-Moson-Sopron,Pannonhalmi jÃ¡rÃ¡s,9,,
 GC7ZRX2,DÃ©couverte de..... Listrac Cave et chÃ¢teau,N 45Â° 04.418,W 000Â° 47.568,France,Nouvelle-Aquitaine,Gironde,10,,
 GC800QP,Edelsteine und Gestein am ehemaligen Bergwerk âš’,N 46Â° 48.150,E 013Â° 42.270,Austria,KÃ¤rnten,Spittal an der Drau,77,,
 GC805BG,Kopalnia Pilce,N 50Â° 30.519,E 016Â° 49.887,Poland,DolnoÅ›lÄ…skie,ZÄ…bkowicki (DolnoÅ›lÄ…skie),11,,
 GC806CK,The hidden cave,N 48Â° 13.233,E 016Â° 07.941,Austria,NiederÃ¶sterreich,Bezirk St. PÃ¶lten,12,,
 GC80D1N,Hagener Geocaching Stammtisch - Cave 66 [3],N 51Â° 21.200,E 007Â° 28.730,Germany,Nordrhein-Westfalen,Hagen,19,,
 GC80DHB,â€Czerwionka w powstaÅ„czym zrywieâ€ - 13/16 KOPALNIA,N 50Â° 10.307,E 018Â° 42.942,Poland,ÅšlÄ…skie,Rybnicki (ÅšlÄ…skie),38,,
 GC80GV7,Sur le chemin de la cave aux loups - 1,N 46Â° 40.611,E 000Â° 58.509,France,Centre-Val-de-Loire,Indre,14,,
 GC80GVB,Sur le chemin de la cave aux loups - 2,N 46Â° 40.704,E 000Â° 58.429,France,Centre-Val-de-Loire,Indre,12,,
 GC80GVJ,Sur le chemin de la cave aux loups - 3,N 46Â° 40.812,E 000Â° 58.411,France,Centre-Val-de-Loire,Indre,20,,
 GC80P2D,Forgotten Cave,N 48Â° 17.773,E 010Â° 59.388,Germany,Bayern,Aichach-Friedberg (Lkr),41,,
 GC80Q6E,La grotte,N 50Â° 22.917,E 005Â° 09.677,Belgium,Namur,Havelange,90,,
 GC80YT8,Sur le chemin de la cave aux loups - 4,N 46Â° 40.893,E 000Â° 58.358,France,Centre-Val-de-Loire,Indre,13,,
 GC80YTH,Sur le chemin de la cave aux loups - 5,N 46Â° 40.988,E 000Â° 58.297,France,Centre-Val-de-Loire,Indre,13,,
 GC80YTQ,Sur le chemin de la cave aux loups - 6,N 46Â° 41.070,E 000Â° 58.219,France,Centre-Val-de-Loire,Indre,12,,
 GC80YTZ,La cave aux loups,N 46Â° 41.108,E 000Â° 58.066,France,Centre-Val-de-Loire,Indre,11,,
 GC820BV,lll-Grotta dei Pagani,N 45Â° 57.262,E 010Â° 03.389,Italy,Lombardia,Bergamo,4,,
 GC825A8,Grotta di Val Asnina ,N 45Â° 47.485,E 009Â° 51.170,Italy,Lombardia,Bergamo,3,,
 GC8272M,Hagener Geocaching Stammtisch - Cave 66 [4],N 51Â° 21.200,E 007Â° 28.730,Germany,Nordrhein-Westfalen,Hagen,12,,
 GC82ATH,å—æ¹–å…¬å›­ - NANHU PARK,N 43Â° 51.680,E 125Â° 18.100,China,Jilin, ,2,,
 GC82V1Q,Der Weg zur Lourdes Grotte,N 47Â° 17.863,E 008Â° 18.489,Switzerland,Aargau,Boswil (19),339,,
 GC837M6,Mine du Broum,N 43Â° 35.375,E 003Â° 22.966,France,Occitanie,HÃ©rault,8,,
 GC83AJY,No (Wo)Man Cave,N 50Â° 55.180,E 003Â° 12.597,Belgium,West-Vlaanderen,Izegem,21,,
 GC83H87,Hagener Geocaching Stammtisch - Cave 66 [5],N 51Â° 21.200,E 007Â° 28.730,Germany,Nordrhein-Westfalen,Hagen,17,,
 GC83MNB,HÃ¶hle,N 47Â° 13.914,E 014Â° 35.898,Austria,Steiermark,Murtal,14,,
 GC83V9P,Creation Celebration @HGS* - Cave 66 [6],N 51Â° 21.200,E 007Â° 28.730,Germany,Nordrhein-Westfalen,Hagen,27,,
 GC83VAA,Jama Poltarica,N 45Â° 53.227,E 014Â° 46.028,Slovenia,Osrednjeslovenska,IvanÄna Gorica,21,,
 GC84FA5,Cave coopÃ©rative de Gallargues le montueux,N 43Â° 42.884,E 004Â° 10.243,France,Occitanie,Gard,23,,
 GC84MTH,Grotte de St-Marie,N 47Â° 28.539,E 007Â° 01.788,Switzerland,Jura,Basse-Allaine (26),56,,
 GC84PX1,Alte Mine,N 49Â° 25.005,E 011Â° 00.981,Germany,Bayern,FÃ¼rth (Lkr),51,,
 GC84RAG,The Mamilch Cave,N 46Â° 29.129,E 007Â° 40.275,Switzerland,Bern,Kandersteg (2),22,,
 GC84TYK,Mine de La Coste,N 43Â° 59.956,E 003Â° 57.102,France,Occitanie,Gard,3,,
 GC84Y61,Hagener Geocaching Stammtisch - Cave 66 [7],N 51Â° 21.200,E 007Â° 28.730,Germany,Nordrhein-Westfalen,Hagen,14,,
 GC84YD6,La Cave de St Hilaire,N 44Â° 05.610,E 004Â° 07.490,France,Occitanie,Gard,15,,
 GC84YM4,Naravni most in jama,N 45Â° 57.544,E 013Â° 43.838,Slovenia,GoriÅ¡ka,Nova Gorica,4,,
 GC853PK,GEO-DÄ™bieÅ„sko #17 [Kopalnia Robert],N 50Â° 09.693,E 018Â° 44.669,Poland,ÅšlÄ…skie,Rybnicki (ÅšlÄ…skie),46,,
 GC855QZ, [CiTo31] Himbe5 - Grotte du Facteur,N 50Â° 24.975,E 005Â° 27.110,Belgium,Luxembourg,Durbuy,46,,
 GC8578Z,Ostravska jeskyne / Cave in Ostrava,N 49Â° 49.735,E 018Â° 18.250,Czechia,MoravskoslezskÃ½ kraj,Ostrava-mÄ›sto,262,,
 GC85FF,Mine in GyenesdiÃ¡s (GyenesdiÃ¡s bÃ¡nya),N 46Â° 46.870,E 017Â° 17.888,Hungary,Zala,Keszthelyi jÃ¡rÃ¡s,624,,
 GC85MN2,Le TERRAIN de MINE..,N 47Â° 03.937,E 005Â° 25.119,France,Bourgogne-Franche-ComtÃ©,Jura,26,,
 GC85MV4,Leiten HÃ¶hle,N 48Â° 45.489,E 016Â° 34.997,Austria,NiederÃ¶sterreich,Bezirk Mistelbach,35,,
 GC85NFF,La chapelle-grotte  ( bis ),N 49Â° 50.114,E 005Â° 18.996,Belgium,Luxembourg,Bertrix,54,,
 GC85T5B,Jaskinia Å»ydowska,N 50Â° 24.114,E 019Â° 04.216,Poland,ÅšlÄ…skie,BÄ™dziÅ„ski (ÅšlÄ…skie),22,,
 GC868DE,TerÃ©z-tÃ¡rÃ³ Ã©s csengÅ‘ bÃ¡nya (AranyÃ¡sÃ³k Ãºtja 5.),N 48Â° 30.171,E 021Â° 23.703,Hungary,Borsod-AbaÃºj-ZemplÃ©n,GÃ¶nci jÃ¡rÃ¡s,25,,
 GC86EA,The cave of Letras,N 48Â° 06.043,E 020Â° 34.817,Hungary,Borsod-AbaÃºj-ZemplÃ©n,Miskolci jÃ¡rÃ¡s,15,,
 GC86EA3,Area Archeologica RocceRÃ¨ # 2 Grotta di Balmascura,N 44Â° 30.828,E 007Â° 18.990,Italy,Piemonte,Cuneo,6,,
 GC86F25,Kopalnia Anna PoÅ‚udnie,N 49Â° 59.773,E 018Â° 24.933,Poland,ÅšlÄ…skie,WodzisÅ‚awski (ÅšlÄ…skie),12,,
 GC86QPF,MÅYNÃ“W 2 - KOPALNIA SZAROGÅAZU,N 50Â° 28.771,E 016Â° 39.651,Poland,DolnoÅ›lÄ…skie,KÅ‚odzki (DolnoÅ›lÄ…skie),11,,
 GC86TAE,HÃ¶hle im Gallin,N 46Â° 40.488,E 014Â° 06.276,Austria,KÃ¤rnten,Feldkirchen,135,,
 GC86YZK,Craneâ€™s Tree Cave,N 49Â° 24.888,E 007Â° 29.817,Germany,Rheinland-Pfalz,Kaiserslautern (Lkr),63,,
 GC879X1,[Needs Unarchived] - Grotta Tanaccia,N 44Â° 13.719,E 011Â° 45.404,Italy,Emilia-Romagna,Ravenna,4,,
 GC87AC7,Le petit train de la mine,N 49Â° 12.421,E 005Â° 56.259,France,Grand-Est,Meurthe-et-Moselle,41,,
 GC87BMC,La cave de St Esteve,N 43Â° 30.377,E 005Â° 55.683,France,Provence-Alpes-CÃ´te d'Azur,Var,0,,
 GC87EB8,La Cave de St EstÃ¨ve,N 43Â° 30.274,E 005Â° 55.683,France,Provence-Alpes-CÃ´te d'Azur,Var,10,,
 GC87FVQ,Grotte Notre Dame de Lourdes,N 49Â° 55.650,E 005Â° 16.758,Belgium,Luxembourg,Libin,55,,
 GC87TMH,Le train de la mine,N 48Â° 06.015,E 000Â° 30.058,France,Pays de la Loire,Sarthe,14,,
 GC882TJ,Hagener Geocaching Stammtisch - Cave 66 [8],N 51Â° 21.200,E 007Â° 28.730,Germany,Nordrhein-Westfalen,Hagen,9,,
 GC882TK,Hagener Geocaching Stammtisch - Cave 66 [9],N 51Â° 21.200,E 007Â° 28.730,Germany,Nordrhein-Westfalen,Hagen,16,,
 GC884EA,Hagener Geocaching Stammtisch - Cave 66 [10],N 51Â° 21.200,E 007Â° 28.730,Germany,Nordrhein-Westfalen,Hagen,15,,
 GC884H3,Mine 6#10 -[RELOADED] Attaque Imminente-#2,N 49Â° 11.830,E 005Â° 26.032,France,Grand-Est,Meuse,83,,
 GC88761,Cave coopÃ©rative des Arcs,N 43Â° 26.854,E 006Â° 28.571,France,Provence-Alpes-CÃ´te d'Azur,Var,4,,
 GC88A43,MINE,N 43Â° 41.562,W 001Â° 07.589,France,Nouvelle-Aquitaine,Landes,13,,
 GC88C1B,Changchun Water Ecological Park I,N 43Â° 50.560,E 125Â° 20.019,China,Jilin, ,2,,
 GC88VFX,Changchun Water Ecological Park II,N 43Â° 50.560,E 125Â° 20.182,China,Jilin, ,0,,
 GC89221,Zabytkowa Kopalnia Ignacy (Virtual Reward 2.0),N 50Â° 03.737,E 018Â° 28.054,Poland,ÅšlÄ…skie,Rybnik (ÅšlÄ…skie),83,,
 GC89HGR,Grotta della Poesia,N 40Â° 17.145,E 018Â° 25.755,Italy,Puglia,Lecce,16,,
 GC8AE7J,la cave coopÃ©rative,N 43Â° 25.528,E 002Â° 56.780,France,Occitanie,HÃ©rault,17,,
 GC8AE8B,Das verwunschene Bergwerk von WeiÃŸbriach,N 46Â° 41.423,E 013Â° 16.242,Austria,KÃ¤rnten,Hermagor,8,,
 GC8AEXN,Jama pod Ragovim logom,N 45Â° 48.283,E 015Â° 10.366,Slovenia,Jugovzhodna Slovenija,Novo mesto,8,,
 GC8BBRR,La Mine de Neufchef,N 49Â° 19.522,E 006Â° 01.761,France,Grand-Est,Moselle,128,,
 GC8BCF2,#19 circuit sel - Einville : la mine de sel,N 48Â° 39.297,E 006Â° 28.835,France,Grand-Est,Meurthe-et-Moselle,26,,
 GC8BF68,Lago Pratignano - Grotta delle Fate,N 44Â° 10.294,E 010Â° 49.200,Italy,Emilia-Romagna,Modena,3,,
 GC8BGQE,La grotte du vieux moulin ,N 49Â° 52.124,E 004Â° 59.602,Belgium,Namur,BiÃ¨vre,28,,
 GC8BV3B,Algrange 1 - La Mine d'Angevillers,N 49Â° 22.105,E 006Â° 03.143,France,Grand-Est,Moselle,44,,
 GC8BVBJ,Grotta dei Tre Livelli,N 37Â° 41.966,E 015Â° 01.990,Italy,Sicilia,Catania,49,,
 GC8C6QP,Saint-Michel Ã  Valmeinier #3 : La route de la mine,N 45Â° 12.424,E 006Â° 28.828,France,Auvergne-RhÃ´ne-Alpes,Savoie,9,,
 GC8C9PX,Grotta misteriosa - Reggia di Caserta,N 41Â° 04.554,E 014Â° 19.296,Italy,Campania,Caserta,23,,
 GC8CM2A,3 - Di Cuma - Sibyl's Cave,N 40Â° 50.808,E 014Â° 03.182,Italy,Campania,Napoli,13,,
 GC8CME8,la mine/surface mine,N 43Â° 24.274,E 002Â° 56.547,France,Occitanie,HÃ©rault,21,,
 GC8CQ35,la Grotta della Sinaiola sul sentiero Medievale,N 44Â° 02.107,E 011Â° 28.438,Italy,Toscana,Firenze,1,,
 GC8CQ5Z,Hagener Geocaching Stammtisch - Cave 66 [11],N 51Â° 21.200,E 007Â° 28.730,Germany,Nordrhein-Westfalen,Hagen,16,,
 GC8CR6N,Kopalnia,N 51Â° 03.889,E 021Â° 05.306,Poland,ÅšwiÄ™tokrzyskie,Starachowicki (ÅšwiÄ™tokrzyskie),9,,
 GC8D0G4,BetyÃ¡r barlang ,N 46Â° 49.452,E 018Â° 03.756,Hungary,Somogy,SiÃ³foki jÃ¡rÃ¡s,5,,
 GC8D8NM,Vipavska jama,N 45Â° 50.770,E 013Â° 57.600,Slovenia,GoriÅ¡ka,Vipava,16,,
 GC8DJZ6,1 La tourniquette des Zinzins: La cave,N 43Â° 54.899,E 004Â° 30.666,France,Occitanie,Gard,4,,
 GC8DKNQ,BIENVENUE .... Ã  la grange! ,N 46Â° 23.053,E 006Â° 48.156,France,Auvergne-RhÃ´ne-Alpes,Haute-Savoie,7,,
 GC8DTTH,La mine de Brouffier,N 45Â° 01.867,E 005Â° 54.047,France,Auvergne-RhÃ´ne-Alpes,IsÃ¨re,10,,
 GC8DVED,la cave coopÃ©rative,N 43Â° 06.710,E 002Â° 50.137,France,Occitanie,Aude,13,,
 GC8DVF9,Hagener Geocaching Stammtisch - Cave 66 [12],N 51Â° 21.200,E 007Â° 28.730,Germany,Nordrhein-Westfalen,Hagen,7,,
 GC8DXVC,du haut des falaises - mine de vienne #2,N 45Â° 30.125,E 004Â° 51.543,France,Auvergne-RhÃ´ne-Alpes,IsÃ¨re,14,,
 GC8DXWM, #mine de Vienne,N 45Â° 30.258,E 004Â° 51.560,France,Auvergne-RhÃ´ne-Alpes,IsÃ¨re,18,,
 GC8E3TC,Cave Idus Martias!,N 47Â° 17.769,E 008Â° 33.724,Switzerland,ZÃ¼rich,Thalwil (1),31,,
 GC8E4A6,Le Pas de la Mine,N 45Â° 01.982,E 005Â° 54.054,France,Auvergne-RhÃ´ne-Alpes,IsÃ¨re,13,,
 GC8E7MB,Kopalnia Kruszywa w Åojewie,N 52Â° 44.785,E 018Â° 17.495,Poland,Kujawsko-Pomorskie,InowrocÅ‚awski (Kujawsko-Pomorskie),4,,
 GC8EB7K,"Taliin agui, cave",N 45Â° 35.413,E 114Â° 30.046,Mongolia, , ,1,,
 GC8EFX8,#3 Les Mines de TrÃ©muson - EntrÃ©e de mine,N 48Â° 31.913,W 002Â° 49.886,France,Bretagne,CÃ´tes-d'Armor,25,,
 GC8EGKJ,Ptite grotte,N 47Â° 09.096,E 007Â° 15.204,Switzerland,Bern,Biel/Bienne (2),12,,
 GC8EH6M,The little Cave Cache,N 46Â° 38.104,E 014Â° 04.660,Austria,KÃ¤rnten,Klagenfurt-Land,126,,
 GC8EQN8,De la mine au rugby,N 50Â° 23.951,E 003Â° 54.007,Belgium,Hainaut,Frameries,20,,
 GC8ERYG,Hard Work in the Mine,N 52Â° 19.553,E 010Â° 12.572,Germany,Niedersachsen,Peine (Lkr),35,,
 GC8F1EP,Grotta Su Marmuri,N 39Â° 48.916,E 009Â° 29.284,Italy,Sardegna,Ogliastra,1,,
 GC8F26F,Remete-barlang Ã¶svÃ©ny,N 47Â° 46.683,E 018Â° 55.481,Hungary,Pest megye,Szobi jÃ¡rÃ¡s,1,,
 GC8F29W,Il David tra le cave,N 44Â° 04.816,E 010Â° 09.525,Italy,Toscana,Massa e Carrara,4,,
 GC8F9K7,KÃ¶gelberg Cave,N 48Â° 24.688,E 015Â° 34.970,Austria,NiederÃ¶sterreich,Bezirk Krems an der Donau (Stadt),67,,
 GC8FFDD,NN-98- Stan wojenny-Kopalnia Wujek,N 54Â° 07.801,E 020Â° 24.392,Poland,WarmiÅ„sko-Mazurskie,Lidzbarski (WarmiÅ„sko-Mazurskie),32,,
 GC8FMRY,Hagener Geocaching Stammtisch - Cave 66 [13],N 51Â° 21.200,E 007Â° 28.730,Germany,Nordrhein-Westfalen,Hagen,8,,
 GC8G34F,Kopalnia sarkopsydu,N 50Â° 44.188,E 016Â° 26.178,Poland,DolnoÅ›lÄ…skie,WaÅ‚brzyski (DolnoÅ›lÄ…skie),4,,
 GC8G97D,Hagener Geocaching Stammtisch - Cave 66 [14],N 51Â° 21.200,E 007Â° 28.730,Germany,Nordrhein-Westfalen,Hagen,12,,
 GC8GB4K,La Grotta Azzurra - Capri,N 40Â° 33.663,E 014Â° 12.350,Italy,Campania,Napoli,10,,
 GC8GBVA,HÃ¶hle,N 48Â° 20.490,E 015Â° 41.538,Austria,NiederÃ¶sterreich,Bezirk St. PÃ¶lten,64,,
 GC8GXWN,Hagener Geocaching Stammtisch - Cave 66 [15],N 51Â° 21.200,E 007Â° 28.730,Germany,Nordrhein-Westfalen,Hagen,9,,
 GC8H6YV,Ancienne mine de NeffiÃ¨s,N 43Â° 32.415,E 003Â° 19.256,France,Occitanie,HÃ©rault,6,,
 GC8H957,Grotta della Neve (ingresso 2),N 37Â° 46.287,E 015Â° 04.311,Italy,Sicilia,Catania,8,,
 GC8HCT4,[KOKO]  - Kopalnia bursztynu,N 54Â° 21.072,E 018Â° 29.609,Poland,Pomorskie,GdaÅ„sk (Pomorskie),35,,
 GC8HCW5,La grotte de HohiÃ¨re,N 50Â° 21.462,E 005Â° 33.966,Belgium,Luxembourg,Durbuy,10,,
 GC8HCXN,Kopalnia WÄ™gla Kamiennego Czechowice-Dz.,N 49Â° 56.295,E 019Â° 00.958,Poland,ÅšlÄ…skie,Bielski (ÅšlÄ…skie),13,,
 GC8HD7N,Grotta di Cocceio,N 40Â° 50.413,E 014Â° 04.249,Italy,Campania,Napoli,14,,
 GC8HHP1,La mine de Fer de L'esquerde #2,N 42Â° 48.355,E 002Â° 31.249,France,Occitanie,PyrÃ©nÃ©es-Orientales,3,,
 GC8J2MP,Le cave di Piero,N 43Â° 25.019,E 010Â° 34.718,Italy,Toscana,Pisa,10,,
 GC8J4J1,Hagener Geocaching Stammtisch - Cave 66 [16],N 51Â° 21.200,E 007Â° 28.730,Germany,Nordrhein-Westfalen,Hagen,15,,
 GC8JD0K,La grotte mine de la Vitarelle,N 44Â° 12.682,E 003Â° 03.860,France,Occitanie,Aveyron,10,,
 GC8JDNK,MusÃ©e de la Mine,N 46Â° 28.953,E 003Â° 07.760,France,Auvergne-RhÃ´ne-Alpes,Allier,22,,
 GC8JPEA,Grotta di Serracozzo 1971,N 37Â° 45.379,E 015Â° 03.237,Italy,Sicilia,Catania,3,,
 GC8K3H2,Hagener Geocaching Stammtisch - Cave 66 [17],N 51Â° 21.200,E 007Â° 28.730,Germany,Nordrhein-Westfalen,Hagen,0,,
 GC8K72Z,[ASX] Grotta di S. Ubaldo,N 43Â° 34.809,E 012Â° 27.536,Italy,Marche,Pesaro e Urbino,6,,
 GC8KBCH,Mine de Dielette,N 49Â° 32.573,W 001Â° 51.978,France,Normandie,Manche,7,,
 GC8KBRJ,La grotte abandonnÃ©e ,N 50Â° 38.254,E 003Â° 17.419,Belgium,Hainaut,Tournai,25,,
 GC8KDBZ,Hagener Geocaching Stammtisch - Cave 66 [18],N 51Â° 21.200,E 007Â° 28.730,Germany,Nordrhein-Westfalen,Hagen,0,,
 GC8KFYR,La mine (2),N 45Â° 33.105,E 004Â° 51.210,France,Auvergne-RhÃ´ne-Alpes,IsÃ¨re,6,,
 GC8KXTE,Grotta Marozza,N 42Â° 03.979,E 012Â° 39.194,Italy,Lazio,Roma,2,,
 GC8MT2C,FledermaushÃ¶hle / bat cave,N 50Â° 34.211,E 009Â° 42.432,Germany,Hessen,Fulda (Lkr),73,,
 GC8N2VF,Kopalnia piasku kwarcowego w Å»abinku - Wydma,N 52Â° 12.169,E 016Â° 52.886,Poland,Wielkopolskie,PoznaÅ„ski (Wielkopolskie),6,,
 GC8NDX7,Filialkirche - Hohle Gasse,N 48Â° 15.528,E 015Â° 37.162,Austria,NiederÃ¶sterreich,Bezirk St. PÃ¶lten,27,,
 GC8NECX,HÃ¶hle im Vituspark,N 46Â° 46.450,E 014Â° 20.937,Austria,KÃ¤rnten,Bezirk Sankt Veit an der Glan,18,,
 GC8NZHC,Elle Ã  bonne mine,N 43Â° 40.700,E 003Â° 08.545,France,Occitanie,HÃ©rault,3,,
 GC8PPNZ,Jaskinia na Dupce,N 50Â° 41.957,E 019Â° 21.753,Poland,ÅšlÄ…skie,CzÄ™stochowski (ÅšlÄ…skie),13,,
 GC8PQBT,Nitrianska HradnÃ¡ JaskyÅˆa / Nitra Castle Cave,N 48Â° 19.122,E 018Â° 05.185,Slovakia,Nitriansky kraj,Nitra,40,,
 GC8PR0Z,Kopalnia uranu w Starym Julianowie,N 50Â° 47.057,E 016Â° 21.610,Poland,DolnoÅ›lÄ…skie,WaÅ‚brzyski (DolnoÅ›lÄ…skie),3,,
 GC8PT2F,"Cave, Hatiny",N 48Â° 39.183,E 021Â° 00.068,Slovakia,KoÅ¡ickÃ½ kraj,KoÅ¡ice - okolie,13,,
 GC8Q48K,[RPP] Kopalnia piasku,N 53Â° 31.507,E 014Â° 57.136,Poland,Zachodniopomorskie,Goleniowski (Zachodniopomorskie),9,,
 GC8Q4H5,La mine,N 43Â° 53.708,E 007Â° 15.491,France,Provence-Alpes-CÃ´te d'Azur,Alpes-Maritimes,7,,
 GC8R0EQ,LurÅ¡ka jama,N 46Â° 05.399,E 015Â° 28.486,Slovenia,Savinja Statistical Region,Kozje,4,,
 GC8R5GF,Beceletova jama,N 45Â° 50.865,E 015Â° 12.285,Slovenia,Jugovzhodna Slovenija,Novo mesto,12,,
 GC8RAD8,Tata(kÅ‘)bÃ¡nya,N 47Â° 34.642,E 018Â° 24.892,Hungary,KomÃ¡rom-Esztergom,TatabÃ¡nyai jÃ¡rÃ¡s,7,,
 GC8RD2R,Taverny # La cave gallo-romaine,N 49Â° 01.371,E 002Â° 12.590,France,Ãle-de-France,Val-d'Oise,31,,
 GC8RJHX,#2 la grotte,N 46Â° 11.347,E 007Â° 27.264,Switzerland,Valais,Saint-Martin (VS) (23),26,,
 GC8RV79,Entre cave et chapelle,N 44Â° 13.837,E 004Â° 55.785,France,Provence-Alpes-CÃ´te d'Azur,Vaucluse,16,,
 GC8T1DR,SchÃ¼rfen im Bergwerk,N 48Â° 09.255,E 014Â° 00.907,Austria,OberÃ¶sterreich,Wels,8,,
 GC8TCCA,La Grotte d'Allain,N 50Â° 35.877,E 003Â° 24.703,Belgium,Hainaut,Tournai,20,,
 GC8TP67,Glija jama,N 46Â° 06.583,E 015Â° 26.360,Slovenia,Savinja Statistical Region,Å entjur,3,,
 GC8V2CE,La Multi-cave de Louhans,N 46Â° 37.751,E 005Â° 13.351,France,Bourgogne-Franche-ComtÃ©,SaÃ´ne-et-Loire,13,,
 GC8V41P,La Fage - Mine abandonnÃ©e,N 43Â° 59.380,E 003Â° 48.343,France,Occitanie,Gard,1,,
 GC8V80X,Grotte Notre-Dame de Lourdes,N 47Â° 15.428,E 007Â° 06.826,Switzerland,Jura,Les Genevez (JU) (26),23,,
 GC8V8EH,Grotte de Corbois,N 50Â° 09.863,E 005Â° 13.948,Belgium,Namur,Rochefort,26,,
 GC8V8FT,Grotte du PrÃ© au Tonneau,N 50Â° 09.368,E 005Â° 14.145,Belgium,Namur,Rochefort,20,,
 GC8VM6H,Grotte am Maggenberg,N 46Â° 48.688,E 007Â° 12.816,Switzerland,Fribourg,Tafers (10),42,,
 GC8VTRV,Grotta mazzamuto (sabu04) ,N 38Â° 01.407,E 013Â° 33.747,Italy,Sicilia,Palermo,2,,
 GC8VVW7,La grotta del Semalo ,N 45Â° 38.574,E 010Â° 55.078,Italy,Veneto,Verona,5,,
 GC8WAF2,Tu byÅ‚a kopalnia...,N 50Â° 16.855,E 019Â° 08.901,Poland,ÅšlÄ…skie,Sosnowiec (ÅšlÄ…skie),25,,
 GC8WR93,EN MONTANT AU TAILLEFER#VUE SUR LE PAS DE LA MINE#,N 45Â° 02.327,E 005Â° 53.735,France,Auvergne-RhÃ´ne-Alpes,IsÃ¨re,10,,
 GC8WZN1,Die HÃ¶hle,N 47Â° 13.809,E 011Â° 53.836,Austria,Tirol,Schwaz,18,,
 GC8X32X,Avoir bonne mine ,N 50Â° 28.452,E 002Â° 28.898,France,Hauts-de-France,Pas-de-Calais,11,,
 GC8X6JY,CMC #1  La CarriÃ¨re de la mine,N 48Â° 38.014,E 006Â° 06.606,France,Grand-Est,Meurthe-et-Moselle,12,,
 GC8X84F,Grotta dei Briganti,N 41Â° 18.186,E 014Â° 32.451,Italy,Campania,Benevento,0,,
 GC8XNYF,Grotta di Pastena,N 41Â° 29.793,E 013Â° 29.440,Italy,Lazio,Frosinone,1,,
 GC8XRCT,Dal parco delle cave a BoscoincittÃ ,N 45Â° 28.739,E 009Â° 05.747,Italy,Lombardia,Milano,6,,
 GC8Y4PW,Kopalnia borowiny / peloid mine ğŸ‡µğŸ‡±ğŸ‡¬ğŸ‡§,N 54Â° 10.676,E 015Â° 37.001,Poland,Zachodniopomorskie,KoÅ‚obrzeski (Zachodniopomorskie),1,,
 GC8Y6FE,Emil RacoviÈ›Äƒ Cave,N 48Â° 17.000,E 026Â° 38.000,Ukraine,Chernivtsi,ĞĞ¾Ğ²Ğ¾ÑĞµĞ»Ğ¸Ñ†ÑŒĞºĞ¸Ğ¹ Ñ€Ğ°Ğ¹Ğ¾Ğ½,0,,
 GC8YHK7,Kleine HÃ¶hle am Rande der StraÃŸe,N 47Â° 41.269,E 015Â° 58.902,Austria,NiederÃ¶sterreich,Bezirk Neunkirchen,15,,
 GC8YQZK,Ovito - La Grotta,N 42Â° 08.292,E 013Â° 08.129,Italy,Abruzzo,L'Aquila,3,,
 GC8Z3CW,Grotta di Campo Braca,N 41Â° 25.044,E 014Â° 20.844,Italy,Campania,Caserta,4,,
 GC8Z6HX,Grotta dell'orso,N 41Â° 24.817,E 014Â° 27.177,Italy,Campania,Caserta,0,,
 GC8Z6MT,Grotta delle Rose,N 41Â° 24.479,E 014Â° 27.290,Italy,Campania,Caserta,0,,
 GC8ZCMH,B 24 Liberator in Valle delle Mine,N 46Â° 28.399,E 010Â° 08.087,Italy,Lombardia,Sondrio,1,,
 GC8ZJVB,Ancienne Mine de l'Epine,N 46Â° 00.763,E 006Â° 38.925,France,Auvergne-RhÃ´ne-Alpes,Haute-Savoie,1,,
 GC8ZMK1,Bonus Adventure Lab Blegny-Mine,N 50Â° 41.171,E 005Â° 43.417,Belgium,LiÃ¨ge,Blegny,7,,
 GC8ZMQ2,La grotta delle Ossa,N 40Â° 01.807,E 015Â° 18.298,Italy,Campania,Salerno,0,,
 GC8ZPW3,La grotta delle Ossa - Earthcache,N 40Â° 01.795,E 015Â° 18.280,Italy,Campania,Salerno,0,,
 GC8ZV32,Kleine HÃ¶hle,N 46Â° 35.873,E 014Â° 35.630,Austria,KÃ¤rnten,VÃ¶lkermarkt,9,,
 GC8ZVND,Steenkoolmijn Winterslag wordt C-mine (BONUS),N 50Â° 58.349,E 005Â° 29.099,Belgium,Limburg,Genk,19,,
 GC8ZVT3,Kopalnia piasku,N 51Â° 24.473,E 022Â° 27.386,Poland,Lubelskie,Lubartowski (Lubelskie),1,,
 GC903G8,Ice cave,N 49Â° 01.025,E 019Â° 35.001,Slovakia,Å½ilinskÃ½ kraj,LiptovskÃ½ MikulÃ¡Å¡,7,,
 GC9067R,Grotta Nera,N 45Â° 37.807,E 013Â° 51.058,Italy,Friuli-Venezia Giulia,Provincia di Trieste,1,,
 GC908Y3,Grotta della Madonna del bosco,N 45Â° 33.247,E 009Â° 34.560,Italy,Lombardia,Bergamo,5,,
 GC90K84,Geocache della grotta dellâ€™eremita ,N 44Â° 25.404,E 009Â° 01.103,Italy,Liguria,Genova,6,,
 GC90P9J,Dolina Kluczwody- Jaskinia,N 50Â° 09.258,E 019Â° 49.222,Poland,MaÅ‚opolskie,Krakowski (MaÅ‚opolskie),1,,
 GCD481,Lava cave,N 48Â° 06.261,E 019Â° 58.308,Hungary,NÃ³grÃ¡d,SalgÃ³tarjÃ¡ni jÃ¡rÃ¡s,42,,
 GCGAWQ,Fohlenhaus (small cave),N 48Â° 31.086,E 010Â° 03.076,Germany,Baden-WÃ¼rttemberg,Alb-Donau-Kreis,380,,
 GCGC98,Cave Lodge,N 49Â° 01.420,E 008Â° 33.730,Germany,Baden-WÃ¼rttemberg,Karlsruhe (Lkr),152,,
 GCGDY3,Cave of Dorneck,N 47Â° 28.791,E 007Â° 37.676,Switzerland,Solothurn,Dornach (11),110,,
 GCGF35,Baradla cave in Aggtelek,N 48Â° 28.550,E 020Â° 30.085,Hungary,Borsod-AbaÃºj-ZemplÃ©n,Putnoki jÃ¡rÃ¡s,413,,
 GCGF39,The cave of VecsembÃ¼kk,N 48Â° 34.012,E 020Â° 43.600,Hungary,Borsod-AbaÃºj-ZemplÃ©n,EdelÃ©nyi jÃ¡rÃ¡s,2,,
 GCGM1G,The Pirates Cave,N 50Â° 09.710,E 007Â° 54.930,Germany,Hessen,Rheingau-Taunus-Kreis,51,,
 GCHF86,Uncle Bear's Cave,N 47Â° 37.957,E 018Â° 58.287,Hungary,Pest megye,Szentendrei jÃ¡rÃ¡s,187,,
 GCHPGZ,Auntie Spring is sad (Cat-cave),N 47Â° 38.613,E 018Â° 56.645,Hungary,Pest megye,Szentendrei jÃ¡rÃ¡s,111,,
 GCHR3A,Grotte de Baron Goffinet,N 49Â° 58.081,E 005Â° 27.712,Belgium,Luxembourg,Libramont-Chevigny,36,,
 GCJ26Z,PÃ¡lvÃ¶lgyi and MÃ¡tyÃ¡shegyi Cave,N 47Â° 32.027,E 019Â° 00.992,Hungary,Budapest,Budapest,174,,
 GCJQ7E,Baarburg-Cave,N 47Â° 12.360,E 008Â° 33.165,Switzerland,Zug,Baar (9),14,,
 GCKQ84,Murphys Cave,N 47Â° 52.158,E 009Â° 00.546,Germany,Baden-WÃ¼rttemberg,Konstanz (Lkr),346,,
 GCKX8D,bat-cave,N 52Â° 23.173,E 006Â° 02.940,Netherlands,Gelderland,Heerde,28,,
 GCKXQF,Surprise for Claudia 4 - vom Berg in die HÃ¶hle,N 48Â° 21.170,E 014Â° 27.634,Austria,OberÃ¶sterreich,Freistadt,101,,
 GCM7WE,BATMANS CAVE,N 47Â° 43.835,E 008Â° 52.315,Germany,Baden-WÃ¼rttemberg,Konstanz (Lkr),59,,
 GCMN1K,KRYOS CAVE,N 48Â° 04.284,E 008Â° 25.057,Germany,Baden-WÃ¼rttemberg,Schwarzwald-Baar-Kreis,41,,
 GCMQPB,Ã–rdÃ¶glyuk / Devil's Hole Cave,N 47Â° 35.438,E 018Â° 54.339,Hungary,Pest megye,PilisvÃ¶rÃ¶svÃ¡ri jÃ¡rÃ¡s,214,,
 GCN53Y,Cave In The Sky,N 48Â° 05.614,E 016Â° 59.100,Austria,Burgenland,Bezirk Neusiedl am See,49,,
 GCN6AA,Cave Lodge Reloaded,N 49Â° 01.080,E 008Â° 34.230,Germany,Baden-WÃ¼rttemberg,Karlsruhe (Lkr),24,,
 GCP08F,La mine perdue,N 50Â° 41.645,E 005Â° 40.625,Belgium,LiÃ¨ge,VisÃ©,71,,
 GCP791,welcome to: Huntman's Cave huge cavern,N 47Â° 16.238,E 015Â° 35.062,Austria,Steiermark,Weiz,206,,
 GCP8B5,Sir Emile et le tresor de la grotte,N 50Â° 21.728,E 004Â° 27.559,Belgium,Hainaut,Gerpinnes,22,,
 GCP9JK,Grotte d'Odxette Matran,N 46Â° 46.866,E 007Â° 06.037,Switzerland,Fribourg,Hauterive (FR) (10),106,,
 GCPB3K,welcome to: Huntman's Cave No. 9,N 47Â° 16.203,E 015Â° 35.011,Austria,Steiermark,Weiz,229,,
 GCPX5R,welcome to: Huntman's Cave g&s Echoloch,N 47Â° 15.968,E 015Â° 34.923,Austria,Steiermark,Weiz,63,,
 GCQ7R4,"Grotta dei  5 Laghi, Monte Nerone",N 43Â° 34.104,E 012Â° 31.033,Italy,Marche,Pesaro e Urbino,21,,
 GCQ9KZ,Fairy cave,N 47Â° 42.583,E 018Â° 49.599,Hungary,KomÃ¡rom-Esztergom,Esztergomi jÃ¡rÃ¡s,77,,
 GCQAKM,Lourdes-Grotte Ramiswil,N 47Â° 21.080,E 007Â° 39.749,Switzerland,Solothurn,MÃ¼mliswil-Ramiswil (11),238,,
 GCQCG6,Cave of TÃ¡borhegy (GCKBrl),N 47Â° 33.008,E 019Â° 00.705,Hungary,Budapest,Budapest,339,,
 GCQXMP,CSI:GERMANY \ 11 \ crazy mine,N 54Â° 04.579,E 010Â° 46.810,Germany,Schleswig-Holstein,Ostholstein (Kr),17,,
 GCRTDY,IMC No. 3 S-DE - Where is the cave gone?,N 51Â° 14.299,E 007Â° 33.404,Germany,Nordrhein-Westfalen,MÃ¤rkischer Kreis,48,,
 GCRTEG,La grotte de Las Manes - Las Manes cave,N 44Â° 00.077,W 000Â° 24.604,France,Nouvelle-Aquitaine,Landes,16,,
 GCRWMY,Mine Schmalgraf,N 50Â° 41.818,E 005Â° 59.157,Belgium,LiÃ¨ge,Lontzen,18,,
 GCRZ1F,La mine de PlombiÃ¨res (Earthcache),N 50Â° 44.280,E 005Â° 57.639,Belgium,LiÃ¨ge,PlombiÃ¨res,295,,
 GCRZH1,Der Schlupflochfelsen im Ailsbachtal,N 49Â° 48.986,E 011Â° 21.860,Germany,Bayern,Bayreuth (Lkr),588,,
 GCV3GW,CCC - Coprophagus' Cave Czernice geocache,N 49Â° 41.742,E 013Â° 24.586,Czechia,PlzeÅˆskÃ½ kraj,PlzeÅˆ-mÄ›sto,159,,
 GCV3ZE,The LÃ³czy Cave,N 46Â° 58.135,E 017Â° 52.450,Hungary,VeszprÃ©m,BalatonfÃ¼redi jÃ¡rÃ¡s,942,,
 GCVQAA,"Ajka-Csingervalley -  ""Macskalik"" cave",N 47Â° 03.698,E 017Â° 38.081,Hungary,VeszprÃ©m,VeszprÃ©mi jÃ¡rÃ¡s,71,,
 GCVTP3,Lourdes-Grotte Laupersdorf,N 47Â° 19.504,E 007Â° 38.964,Switzerland,Solothurn,Laupersdorf (11),184,,
 GCW986,Cave of Csakvar - Tracking the primal horse,N 47Â° 22.638,E 018Â° 26.430,Hungary,FejÃ©r,Bicskei jÃ¡rÃ¡s,290,,
 GCWE9V,BALCARKA / BALCARKA CAVE,N 49Â° 22.564,E 016Â° 45.479,Czechia,JihomoravskÃ½ kraj,Blansko,3619,,
 GCWM3P,Djungle Cave,N 49Â° 02.785,E 008Â° 33.811,Germany,Baden-WÃ¼rttemberg,Karlsruhe (Lkr),19,,
 GCWNAW,Labajowa Cave - Jaskinia Labajowa,N 50Â° 11.446,E 019Â° 46.349,Poland,MaÅ‚opolskie,Krakowski (MaÅ‚opolskie),203,,
 GCWQ18,Lourdes Grotte - Libingen,N 47Â° 19.532,E 009Â° 00.910,Switzerland,St. Gallen,Mosnang (17),73,,
 GCX9PT,Grotte N-D de Lourdes,N 50Â° 33.852,E 003Â° 55.203,Belgium,Hainaut,Lens,23,,
 GCXD62,La grotte Notre-Dame de Lourdes.,N 50Â° 17.580,E 005Â° 54.589,Belgium,Luxembourg,Vielsalm,92,,
 GCXF5X,Squeaks Cave,N 45Â° 21.517,E 000Â° 31.202,France,Nouvelle-Aquitaine,Dordogne,38,,
 GCXGJK,The Komoniecki Cave,N 49Â° 45.517,E 019Â° 24.603,Poland,ÅšlÄ…skie,Å¼ywiecki (ÅšlÄ…skie),8,,
 GCXJ4A,Josephs stone (Aragonit cave),N 49Â° 31.888,E 017Â° 44.695,Czechia,OlomouckÃ½ kraj,PÅ™erov,441,,
 GCXMFC,La grotte aux fÃ©es,N 46Â° 42.138,E 006Â° 20.953,Switzerland,Vaud,Vallorbe (22),200,,
 GCY928,Dripstone Cave at Abaliget (GCABAL),N 46Â° 08.082,E 018Â° 06.977,Hungary,Baranya,PÃ©csi jÃ¡rÃ¡s,221,,
 GCZY5W,GrÃ¼ss Grotte,N 47Â° 18.415,E 007Â° 13.155,Switzerland,Jura,Haute-Sorne (26),96,,
GC1FMW8,Baradla Barlang â€“ Baradla Cave,N 48Â° 27.918,E 020Â° 29.910,Hungary,Borsod-AbaÃºj-ZemplÃ©n,Putnoki jÃ¡rÃ¡s,278,,
GC1X40P,The old mine,N 46Â° 37.782,E 013Â° 41.767,Austria,KÃ¤rnten,Villach-Land,66,,
GC22ECD,The mystery of the Mine,N 49Â° 47.457,E 006Â° 29.958,Luxembourg,Canton Echternach,Rosport,150,,
GC28C0,Schaad's Pirate Cave,N 46Â° 44.073,E 007Â° 20.825,Switzerland,Bern,Guggisberg (2),212,,
GC2GY8H,Marble Cave (Mramornoe),N 44Â° 47.463,E 034Â° 16.954,Ukraine,Autonomous Republic of Crimea,Ğ¡Ñ–Ğ¼Ñ„ĞµÑ€Ğ¾Ğ¿Ğ¾Ğ»ÑŒÑÑŒĞºĞ¸Ğ¹ Ñ€Ğ°Ğ¹Ğ¾Ğ½,32,,
GC5799,Close to the Dryads cave,N 48Â° 25.767,E 002Â° 39.240,France,Ãle-de-France,Seine-et-Marne,361,,
GC58C2,Vernazza Rock Cave,N 44Â° 08.117,E 009Â° 40.891,Italy,Liguria,La Spezia,0,,
GC5ERKX,"MinÃ«""Case Bellotti-Gran Burrone",N 46Â° 05.860,E 011Â° 45.002,Italy,Veneto,Belluno,4,,
GCA1AD,Left Wastleland Cave,N 48Â° 01.579,E 016Â° 14.141,Austria,NiederÃ¶sterreich,Bezirk Baden,6,,
GCH70W,GCSILI-Silica (Szilice) Ice cave,N 48Â° 33.024,E 020Â° 30.279,Slovakia,KoÅ¡ickÃ½ kraj,RoÅ¾Åˆava,569,,
GCHJPZ,War Cave,N 49Â° 31.645,E 006Â° 15.900,Luxembourg,Canton Remich,Mondorf-les-Bains,853,,
GCJH51,Old Mine - GroÃŸholz,N 48Â° 59.481,E 010Â° 48.489,Germany,Bayern,WeiÃŸenburg-Gunzenhausen (Lkr),193,,
GCN8JZ,"Grotta dei Gessi, Valmarecchia #1",N 43Â° 55.553,E 012Â° 20.348,Italy,Emilia-Romagna,Rimini,92,,
GCPKXY,Cave Freak,N 50Â° 30.179,E 005Â° 11.550,Belgium,LiÃ¨ge,Huy,153,,
GCQCZE,Permonik (Mine Dwarf),N 49Â° 49.687,E 013Â° 16.868,Czechia,PlzeÅˆskÃ½ kraj,PlzeÅˆ-sever,128,,
GCWNAW,Labajowa Cave - Jaskinia Labajowa,N 50Â° 11.446,E 019Â° 46.349,Poland,MaÅ‚opolskie,Krakowski (MaÅ‚opolskie),203,,
GCYJAE,Old  Mine,N 45Â° 30.801,E 007Â° 45.498,Italy,Piemonte,Torino,50,,
GCYP8V,Zvoniva jama,N 48Â° 37.073,E 020Â° 25.540,Slovakia,KoÅ¡ickÃ½ kraj,RoÅ¾Åˆava,137,,
GCYZ8W,Himmel-oder-HÃ¶hle,N 48Â° 01.410,E 016Â° 13.940,Austria,NiederÃ¶sterreich,Bezirk Baden,466,,
