GC,title,url,lat,lon,country,province.state,county,numfinds,numpage
GC105ND,CaveWithoutAName,NA,29.8859,-97.3814833333333,UnitedStates,Texas,KendallCounty,124,NA
GC105T5,LilCrag-O-Mine,NA,39.1921833333333,-76.7123,UnitedStates,Maryland,MontgomeryCounty,15,NA
GC106CK,PythianCave,NA,41.5922166666667,-121.4177,UnitedStates,California,SiskiyouCounty,42,NA
GC106P2,CacheByTheCave,NA,37.04595,-93.35925,UnitedStates,Kansas,CherokeeCounty,130,NA
GC10CQG,LittleWindCave,NA,32.9910166666667,-115.886233333333,UnitedStates,California,SanDiegoCounty,21,NA
GC10D8F,HersislikeMine,NA,48.23325,-121.846866666667,UnitedStates,Washington,SnohomishCounty,204,NA
GC10E5J,TheBatCave,NA,33.0904333333333,-95.2804833333333,UnitedStates,Texas,CollinCounty,127,NA
GC10F2V,YourGasIsAsGoodAsMine,NA,48.21465,-121.507916666667,UnitedStates,Washington,IslandCounty,99,NA
GC10FFG,AcidMineDrainage,NA,40.3674666666667,-79.6400166666667,UnitedStates,Pennsylvania,WashingtonCounty,18,NA
GC10FND,"Mine#46HashBrownsBaconEggs",NA,46.9355333333333,-122.09185,UnitedStates,Washington,GraysHarborCounty,45,NA
GC10JTY,"Thisisminethat'syurs.-Myfirstgeocache",NA,38.57075,-93.1283,UnitedStates,Kansas,MiamiCounty,56,NA
GC10NM9,CaveSpringsOne,NA,31.9926833333333,-93.5240333333333,UnitedStates,Texas,PanolaCounty,14,NA
GC10V39,SageCave,NA,37.0570833333333,-118.265116666667,UnitedStates,California,MaderaCounty,29,NA
GC10YQ6,MosquitoCave,NA,41.9498833333333,-90.3589166666667,UnitedStates,Iowa,LinnCounty,114,NA
GC11073,CacheMine,NA,47.4845333333333,-118.102266666667,UnitedStates,Washington,DouglasCounty,20,NA
GC110HE,Cave&Oars,NA,NA,NA,NA,NA,NA,NA,NA
GC119NA,"Paleoman's""Cave""(SoeasyaCavemancandoit!)",NA,42.6350666666667,-77.9491833333333,UnitedStates,NewYork,WyomingCounty,305,NA
GC11A02,THEBEARCAVE,NA,40.3280833333333,-121.835916666667,UnitedStates,California,TehamaCounty,76,NA
GC11A8X,ForestCaveCache,NA,42.2527,-87.7590166666667,UnitedStates,Illinois,McHenryCounty,93,NA
GC11BER,tenniscave,NA,40.5889833333333,-121.583033333333,UnitedStates,California,ShastaCounty,25,NA
GC11C6X,TreeCave,NA,37.6324,-120.227433333333,UnitedStates,California,AlamedaCounty,152,NA
GC11CP2,RockCave,NA,33.8467833333333,-83.0919833333333,UnitedStates,Georgia,PauldingCounty,54,NA
GC11G09,CaveDweller#2,NA,37.2648666666667,-112.8223,UnitedStates,Utah,WashingtonCounty,88,NA
GC11HH5,"Mine#47""FRAMED""",NA,46.9160166666667,-122.082383333333,UnitedStates,Washington,GraysHarborCounty,40,NA
GC11Q3W,Afreundofyoursisafreundofmine,NA,NA,NA,NA,NA,NA,NA,NA
GC11V5D,"Mine#48""TheWorld""",NA,46.97005,-122.177716666667,UnitedStates,Washington,GraysHarborCounty,276,NA
GC11VJ6,TheCave,NA,34.4635166666667,-118.342983333333,UnitedStates,California,SantaBarbaraCounty,95,NA
GC11YJ2,ComanceCave,NA,37.4894833333333,-112.66375,UnitedStates,Utah,WashingtonCounty,9,NA
GC1217D,BigRiverCaveInn,NA,34.1895,-113.623016666667,UnitedStates,California,SanBernardinoCounty,88,NA
GC123FA,AboveIceCave,NA,43.3116833333333,-90.2203833333333,UnitedStates,Iowa,WinneshiekCounty,101,NA
GC12C80,LostFrenchmanMine,NA,45.9678,-121.4045,UnitedStates,Washington,CowlitzCounty,39,NA
GC12F3C,"Mine#49""ScreenSaver""",NA,47.1890166666667,-123.800733333333,UnitedStates,Washington,GraysHarborCounty,488,NA
GC12F46,WhiskeyCaveMathTest,NA,42.7095833333333,-101.017666666667,UnitedStates,Nebraska,DawesCounty,16,NA
GC12FE,MineOverlook,NA,34.226,-117.8705,UnitedStates,California,LosAngelesCounty,14,NA
GC12HG1,LakeOchedaCaveStump,NA,43.5618166666667,-94.3771,UnitedStates,Minnesota,NoblesCounty,5,NA
GC12HP6,Cave-InCache,NA,40.6501,-120.567016666667,UnitedStates,California,ShastaCounty,58,NA
GC12MNK,snake'scave,NA,38.7777333333333,-120.77165,UnitedStates,California,PlacerCounty,62,NA
GC12VE1,Porterville’sCOALMINEHILL,NA,39.0787,-86.1564833333333,UnitedStates,Illinois,CrawfordCounty,80,NA
GC12W18,PaintMineRuins,NA,45.84265,-91.2605833333333,UnitedStates,Wisconsin,BurnettCounty,64,NA
GC12W8A,BraveTheCave,NA,33.7114,-116.830483333333,UnitedStates,California,RiversideCounty,59,NA
GC12Z56,AroundBatman'sCave,NA,44.28655,-86.2291833333333,UnitedStates,Wisconsin,ManitowocCounty,3,NA
GC131H9,BigMama'sCave,NA,NA,NA,NA,NA,NA,NA,NA
GC133TD,BraveTheCave#2,NA,33.7043666666667,-116.828983333333,UnitedStates,California,RiversideCounty,22,NA
GC137AQ,It'sMine,NA,37.2480166666667,-112.62545,UnitedStates,Utah,WashingtonCounty,56,NA
GC13D6J,Mile1:ClayMine-DoOver,NA,44.8144833333333,-90.4786666666667,UnitedStates,Wisconsin,EauClaireCounty,98,NA
GC13FA2,CreeperCave,NA,36.6631166666667,-80.09145,UnitedStates,Virginia,WashingtonCounty,89,NA
GC13RAG,CreekCaveCache,NA,42.2034166666667,-105.4074,UnitedStates,Wyoming,CarbonCounty,22,NA
GC13TZ8,ManleyMine,NA,48.0184833333333,-120.523233333333,UnitedStates,Washington,SnohomishCounty,10,NA
GC13W1R,CaveCritter,NA,36.27255,-81.6533833333333,UnitedStates,Tennessee,WashingtonCounty,40,NA
GC13Y46,CaveBear,NA,34.3391,-115.160033333333,UnitedStates,California,SanBernardinoCounty,78,NA
GC13ZTF,OldAmoliteMine,NA,49.4939666666667,-111.045266666667,Canada,Alberta,DivisionNo.3Claresholm,19,NA
GC1411Q,onthewaytothecave,NA,34.4210666666667,-85.5943833333333,UnitedStates,Alabama,MarshallCounty,71,NA
GC141W4,CaveDweller#3,NA,37.2288333333333,-112.4326,UnitedStates,Utah,WashingtonCounty,143,NA
GC142HJ,HallCityCave,NA,40.4048,-122.988316666667,UnitedStates,California,TrinityCounty,4,NA
GC145P7,FUNK'sMINE,NA,41.0529666666667,-105.827683333333,UnitedStates,Wyoming,AlbanyCounty,63,NA
GC146WF,Pirate'sCave,NA,34.4454,-118.027383333333,UnitedStates,California,SantaBarbaraCounty,19,NA
GC147X3,SilicaMineCache,NA,43.9766,-102.15155,UnitedStates,SouthDakota,PenningtonCounty,160,NA
GC148E,TheDobleDog,NA,34.3037166666667,-115.169566666667,UnitedStates,California,SanBernardinoCounty,62,NA
GC14AE,TheWindCave,NA,34.4830333333333,-119.7614,UnitedStates,California,SantaBarbaraCounty,161,NA
GC14BYN,TheCave,NA,33.7385833333333,-117.605633333333,UnitedStates,California,LosAngelesCounty,50,NA
GC14CGX,"Mine#50""LightitUp""",NA,46.9486166666667,-122.233833333333,UnitedStates,Washington,GraysHarborCounty,141,NA
GC14CH2,"Mine#51""Bugs""JunetillNov.",NA,46.9879,-122.096766666667,UnitedStates,Washington,GraysHarborCounty,78,NA
GC14CH9,"Mine#52""ART?""",NA,46.9800833333333,-122.114483333333,UnitedStates,Washington,GraysHarborCounty,85,NA
GC14CHH,"Mine#54""BendOfTheRiver""",NA,46.9897666666667,-122.18715,UnitedStates,Washington,GraysHarborCounty,129,NA
GC14CRN,Mine#55MinusTheRocks,NA,46.9988333333333,-122.590166666667,UnitedStates,Washington,GraysHarborCounty,154,NA
GC14CRY,"Mine#56""JustAnotherBoatLaunch""",NA,46.9384833333333,-122.684783333333,UnitedStates,Washington,GraysHarborCounty,41,NA
GC14D5F,Mine##57Tulips,NA,47.07165,-123.946566666667,UnitedStates,Washington,GraysHarborCounty,47,NA
GC14DF,Mineandfalls,NA,37.5774333333333,-117.021766666667,UnitedStates,California,MonoCounty,4,NA
GC14F30,CAVESPRINGS,NA,32.9792,-93.5876666666667,UnitedStates,Texas,CassCounty,54,NA
GC14G7D,RussellCaveNationalPark,NA,NA,NA,NA,NA,NA,NA,NA
GC14H89,Mine#58D.P.S.K.L.,NA,46.9789333333333,-122.5213,UnitedStates,Washington,GraysHarborCounty,46,NA
GC14H8H,Mine#59ComingSoon,NA,47.0250666666667,-122.656783333333,UnitedStates,Washington,GraysHarborCounty,192,NA
GC14H8X,Mine#60McTheKnife,NA,47.0433666666667,-122.685516666667,UnitedStates,Washington,GraysHarborCounty,236,NA
GC14JHB,AllMine,NA,NA,NA,NA,NA,NA,NA,NA
GC14JHD,CaveDraw,NA,44.1265833333333,-102.15055,UnitedStates,SouthDakota,PenningtonCounty,33,NA
GC14QXC,"Mine#61""BobsPark""",NA,46.6667166666667,-122.188933333333,UnitedStates,Washington,PacificCounty,313,NA
GC14QXK,"Mine#62""ASuckerForElk""",NA,46.6851,-122.170883333333,UnitedStates,Washington,PacificCounty,323,NA
GC14THK,Mt.PinosCaveDweller,NA,34.8148333333333,-118.87735,UnitedStates,California,KernCounty,77,NA
GC1511N,IceCaveinFishCreekPark,NA,50.9064833333333,-113.976383333333,Canada,Alberta,DivisionNo.6Calgary,353,NA
GC151R5,"Rockpile'sFallsWindowandCave",NA,34.79405,-86.37355,UnitedStates,Alabama,ColbertCounty,122,NA
GC154A,MammothRockMineCache,NA,37.61605,-117.007683333333,UnitedStates,California,MonoCounty,181,NA
GC158A3,LionCave?,NA,37.23925,-121.884083333333,UnitedStates,California,SantaCruzCounty,89,NA
GC1597,CacheatCavePoint,NA,44.9315666666667,-86.8249166666667,UnitedStates,Wisconsin,DoorCounty,277,NA
GC15F3A,ItsAllMine,NA,48.4753,-118.252566666667,UnitedStates,Washington,OkanoganCounty,80,NA
GC15H7R,Mineyourownbusiness,NA,42.7318,-89.5276166666667,UnitedStates,Wisconsin,GrantCounty,232,NA
GC15K8A,"Mine#63""NotaHeavyHome""",NA,46.8869,-123.882883333333,UnitedStates,Washington,GraysHarborCounty,1027,NA
GC15NAV,TheCave,NA,42.2488833333333,-97.3491666666667,UnitedStates,Nebraska,HoltCounty,78,NA
GC16216,"HiHoHiHoIt'sOfftoWorkWeGo-DiamondMine",NA,46.2297833333333,-118.869783333333,UnitedStates,Washington,FranklinCounty,17,NA
GC162YY,OldMineSite,NA,46.9048666666667,-54.5995,Canada,NewfoundlandandLabrador,DivisionNo.1AvalonPeninsula-St.John's,54,NA
GC163Z7,MicoLanternfortheMicroCave,NA,30.5067333333333,-96.2702166666667,UnitedStates,Texas,WilliamsonCounty,47,NA
GC165EQ,RT-CoalhurstMineDisaster,NA,49.7363166666667,-111.071666666667,Canada,Alberta,DivisionNo.2Lethbridge,44,NA
GC16B0Y,PictureRockCave,NA,42.9753833333333,-90.8716666666667,UnitedStates,Wisconsin,GrantCounty,255,NA
GC16E6D,Montreal’sMileMine,NA,46.4315,-89.7687666666667,UnitedStates,Wisconsin,IronCounty,243,NA
GC16FJX,CedarMtnCave,NA,37.5895333333333,-120.3785,UnitedStates,California,AlamedaCounty,39,NA
GC16GH3,BrokenBootGoldMine,NA,44.37085,-102.256683333333,UnitedStates,SouthDakota,LawrenceCounty,74,NA
GC16H30,FrankensteinCave,NA,42.1958,-89.1246833333333,UnitedStates,Iowa,JacksonCounty,86,NA
GC16J29,BoomHollowCave,NA,45.0843333333333,-91.2138333333333,UnitedStates,Minnesota,WashingtonCounty,419,NA
GC16J29,BoomHollowCave,NA,45.0843333333333,-91.2138333333333,UnitedStates,Minnesota,WashingtonCounty,419,NA
GC16P77,ThePaintearthMine,NA,52.4169833333333,-111.812033333333,Canada,Alberta,DivisionNo.7Wainwright,63,NA
GC16Q0C,MakeMineRound,NA,36.7045166666667,-80.0034333333333,UnitedStates,Virginia,WashingtonCounty,52,NA
GC16QT5,#1Mine,NA,49.7001666666667,-111.14965,Canada,Alberta,DivisionNo.2Lethbridge,76,NA
GC16VD4,TheCaveofCaerbannog,NA,37.4378666666667,-120.6788,UnitedStates,California,StanislausCounty,42,NA
GC171X1,BatCaveSummit,NA,33.43115,-114.183933333333,UnitedStates,California,RiversideCounty,58,NA
GC173BB,MugglersCave,NA,48.7169,-121.701466666667,UnitedStates,Washington,WhatcomCounty,156,NA
GC174FD,MINE!!!!!,NA,42.4887666666667,-86.0676,UnitedStates,Illinois,LakeCounty,12,NA
GC176GF,ViewoftheLormanMine,NA,34.0908833333333,-114.286233333333,UnitedStates,California,SanBernardinoCounty,54,NA
GC176N1,TheStarMineSuspensionBridge,NA,51.4195833333333,-111.38425,Canada,Alberta,DivisionNo.5Strathmore,12,NA
GC177GM,FourHillsMine,NA,39.6973333333333,-119.293833333333,UnitedStates,California,PlumasCounty,1,NA
GC178AE,GoldMineRd,NA,32.6741166666667,-84.0886666666667,UnitedStates,Alabama,ElmoreCounty,6,NA
GC17A7D,KiddieCaveCache,NA,40.7733166666667,-90.9020166666667,UnitedStates,Iowa,DesMoinesCounty,104,NA
GC17C5N,BlueHillMine,NA,32.7572333333333,-84.1362833333333,UnitedStates,Alabama,TallapoosaCounty,19,NA
GC17C8,CaveSpringsCache,NA,39.0147666666667,-89.3326666666667,UnitedStates,Illinois,CalhounCounty,121,NA
GC17DX5,IndianCaveCache,NA,34.6363,-85.45165,UnitedStates,Alabama,MadisonCounty,16,NA
GC17FX1,HorseThiefCave,NA,40.9868666666667,-91.6396,UnitedStates,Iowa,WapelloCounty,23,NA
GC17N05,BellIslandMine#2,NA,47.4246,-51.0085666666667,Canada,NewfoundlandandLabrador,DivisionNo.1AvalonPeninsula-St.John's,75,NA
GC17N4K,MakeYourRideShineLikeMine,NA,30.472,-87.0066166666667,UnitedStates,Mississippi,HarrisonCounty,97,NA
GC17NEZ,MortuaryCave,NA,38.1511,-119.522283333333,UnitedStates,California,CalaverasCounty,106,NA
GC17PFE,Makeminetogo.,NA,33.0327333333333,-95.2947,UnitedStates,Texas,CollinCounty,133,NA
GC17QB3,TheLegendofDevil'sCave,NA,41.8176666666667,-87.6767166666667,UnitedStates,Illinois,KaneCounty,28,NA
GC17RTG,DeerofMine,NA,36.85055,-80.1897166666667,UnitedStates,Virginia,WashingtonCounty,25,NA
GC181MK,PepperTreeCave,NA,33.6665666666667,-116.41015,UnitedStates,California,OrangeCounty,14,NA
GC185CG,MakeMineCacheGreenwood,NA,35.1875166666667,-93.7126666666667,UnitedStates,Arkansas,SebastianCounty,60,NA
GC186HP,TheCaveofCaerbannog,NA,53.5,-112.366666666667,Canada,Alberta,DivisionNo.11Edmonton,17,NA
GC1883Y,QuartzCave,NA,38.7354833333333,-119.19895,UnitedStates,California,ElDoradoCounty,46,NA
GC1898X,TheGreenHornet(((GoldMine))),NA,34.3785333333333,-115.5712,UnitedStates,California,SanBernardinoCounty,34,NA
GC18E30,StarbrightMine,NA,35.12335,-115.090266666667,UnitedStates,California,SanBernardinoCounty,43,NA
GC18E8Q,Mine'sEye,NA,33.0713,-113.049166666667,UnitedStates,California,ImperialCounty,123,NA
GC18F31,CrystalCave,NA,44.8361833333333,-91.7510166666667,UnitedStates,Wisconsin,PierceCounty,85,NA
GC18FEN,RockCave,NA,33.2479,-114.005583333333,UnitedStates,California,ImperialCounty,127,NA
GC18QEG,MineYourOwnBusiness,NA,34.48615,-117.6119,UnitedStates,California,LosAngelesCounty,93,NA
GC18RPE,CaveDweller,NA,NA,NA,NA,NA,NA,NA,NA
GC18TA3,Smallcave,NA,33.1405333333333,-114.0482,UnitedStates,California,ImperialCounty,94,NA
GC18TXH,Cavehatesamuggle,NA,33.14465,-96.9414333333333,UnitedStates,Texas,DentonCounty,7,NA
GC18V7J,SunkenCave,NA,34.6432,-87.8593333333333,UnitedStates,Mississippi,TishomingoCounty,315,NA
GC18VQ5,TakeaWalk-TheCave,NA,34.76315,-95.3269166666667,UnitedStates,Oklahoma,PontotocCounty,11,NA
GC18VWV,HawkinsMine,NA,47.3805,-92.8307833333333,UnitedStates,Minnesota,ItascaCounty,144,NA
GC191E7,RockCave,NA,NA,NA,NA,NA,NA,NA,NA
GC19240,MineDon'tStink,NA,NA,NA,NA,NA,NA,NA,NA
GC193RM,"Mine#64""HuffAndPuff""",NA,46.8950333333333,-122.0029,UnitedStates,Washington,GraysHarborCounty,44,NA
GC194VM,MeridianCaveSecretMultiCache,NA,30.1807833333333,-96.0760333333333,UnitedStates,Texas,TravisCounty,56,NA
GC1956N,RedHillsMine,NA,33.3798666666667,-88.7378833333333,UnitedStates,Mississippi,ChoctawCounty,68,NA
GC199BK,"GeoDuck#2:BeMineValentine",NA,28.0559166666667,-96.95885,UnitedStates,Texas,AransasCounty,448,NA
GC19JCA,Drive-ThruMine,NA,35.1944833333333,-115.061516666667,UnitedStates,California,SanBernardinoCounty,22,NA
GC19KW5,SweetChildofMine,NA,NA,NA,NA,NA,NA,NA,NA
GC19MJN,CoolCave,NA,37.0408666666667,-112.646116666667,UnitedStates,Utah,WashingtonCounty,26,NA
GC19PT0,You'reNoCacheOfMine,NA,41.8247833333333,-87.6804833333333,UnitedStates,Illinois,KaneCounty,14,NA
GC19PXB,ThisMineisOK!,NA,34.0478166666667,-114.299133333333,UnitedStates,California,SanBernardinoCounty,43,NA
GC19PXC,MineyourManners,NA,34.0647666666667,-114.2454,UnitedStates,California,SanBernardinoCounty,157,NA
GC19Q7R,H4W-IslanderMine,NA,34.3787833333333,-113.745533333333,UnitedStates,California,SanBernardinoCounty,15,NA
GC19QEN,CaveFrogs,NA,37.0185,-112.146383333333,UnitedStates,Utah,WashingtonCounty,49,NA
GC19QK6,BytheMine,NA,34.0620833333333,-114.2482,UnitedStates,California,SanBernardinoCounty,129,NA
GC19QQX,LindenGroveCave,NA,47.86295,-91.0571333333333,UnitedStates,Minnesota,St.LouisCounty,58,NA
GC19VAD,RoseValleyFalls--InTheCave,NA,34.5273666666667,-118.819116666667,UnitedStates,California,VenturaCounty,53,NA
GC19YRD,CaveRoad,NA,34.7580833333333,-86.2418166666667,UnitedStates,Alabama,LauderdaleCounty,28,NA
GC1A072,LillBluePhantomMine,NA,NA,NA,NA,NA,NA,NA,NA
GC1A12N,Themine,NA,39.2066666666667,-120.955166666667,UnitedStates,California,NevadaCounty,321,NA
GC1A28R,SunsetMineShack,NA,33.9910333333333,-114.303666666667,UnitedStates,California,RiversideCounty,50,NA
GC1A2CB,MineView,NA,NA,NA,NA,NA,NA,NA,NA
GC1A2KX,MissionMine1981,NA,33.9896833333333,-114.309166666667,UnitedStates,California,RiversideCounty,9,NA
GC1A3BX,It'sMINE!!!,NA,NA,NA,NA,NA,NA,NA,NA
GC1A591,BluffCreekCave,NA,31.5345166666667,-96.4505166666667,UnitedStates,Texas,McLennanCounty,69,NA
GC1A6T5,TinMineCanyon,NA,NA,NA,NA,NA,NA,NA,NA
GC1A7PW,HorsethiefCave,NA,42.1359833333333,-89.1567,UnitedStates,Iowa,JacksonCounty,17,NA
GC1A9GP,GwinMineRd.1,NA,38.286,-119.242733333333,UnitedStates,California,CalaverasCounty,41,NA
GC1AAA4,SheltaCave,NA,34.7535666666667,-85.38965,UnitedStates,Alabama,MadisonCounty,253,NA
GC1AB9,FracturedCaveTrail,NA,38.8806,-93.13005,UnitedStates,Kansas,JohnsonCounty,38,NA
GC1AD51,Mine#65Nesting,NA,46.9679,-122.621016666667,UnitedStates,Washington,GraysHarborCounty,86,NA
GC1AD54,Mine#66OttersSwimmingHole,NA,46.9622333333333,-122.321383333333,UnitedStates,Washington,GraysHarborCounty,79,NA
GC1ANPQ,Mine#67Super...............,NA,47.0125333333333,-122.0928,UnitedStates,Washington,GraysHarborCounty,46,NA
GC1APF9,Thislittlelightofmine,NA,51.2696333333333,-113.994083333333,Canada,Alberta,DivisionNo.6Calgary,52,NA
GC1APPD,WelcomeToCaveCity!,NA,35.9334,-90.4510833333333,UnitedStates,Arkansas,IndependenceCounty,118,NA
GC1AVPC,What'smineisyours,NA,37.0425,-112.474616666667,UnitedStates,Utah,WashingtonCounty,120,NA
GC1AXC9,PetersLeapCave,NA,37.3695333333333,-112.721716666667,UnitedStates,Utah,WashingtonCounty,12,NA
GC1AYK1,GrandGulchMinePicnicAdventure,NA,37.0617833333333,-112.414883333333,UnitedStates,Utah,WashingtonCounty,8,NA
GC1B06E,VictoryisMine!-SPANC1,NA,53.4944333333333,-112.7291,Canada,Alberta,DivisionNo.11Edmonton,64,NA
GC1B0D,FracturedCaveTrail#2,NA,38.8806,-93.13005,UnitedStates,Kansas,JohnsonCounty,2,NA
GC1B0EQ,OatHillMineRoadTrailhead,NA,38.5896833333333,-121.422383333333,UnitedStates,California,NapaCounty,391,NA
GC1B344,ThisviewofthedunesisMine,NA,34.9231666666667,-114.427983333333,UnitedStates,California,SanBernardinoCounty,0,NA
GC1B3VG,YoursorMine?,NA,38.5438,-121.017266666667,UnitedStates,California,SonomaCounty,35,NA
GC1B9AG,Yeoldmine,NA,39.0582166666667,-93.3323166666667,UnitedStates,Kansas,WyandotteCounty,31,NA
GC1B9RD,TheReturnofCaveMan!,NA,NA,NA,NA,NA,NA,NA,NA
GC1BKB1,Forestville/MysteryCaveHistoryChallenge,NA,43.64045,-91.7815833333333,UnitedStates,Minnesota,FillmoreCounty,159,NA
GC1BKDJ,HillAnnexMineStateParkHistoryChallenge,NA,47.3276833333333,-92.7200833333333,UnitedStates,Minnesota,ItascaCounty,142,NA
GC1BNRD,SoudanUndergroundMineStateParkHistoryChallenge,NA,47.82395,-91.7591,UnitedStates,Minnesota,St.LouisCounty,174,NA
GC1BPCD,AlohaCave,NA,42.9675833333333,-110.9878,UnitedStates,Wyoming,LincolnCounty,158,NA
GC1BPYY,MastodonMine,NA,33.7344333333333,-114.200116666667,UnitedStates,California,RiversideCounty,180,NA
GC1BQJK,Cook'sCave,NA,40.6849833333333,-88.34465,UnitedStates,Illinois,PeoriaCounty,140,NA
GC1BV1W,Number5mine,NA,47.2073833333333,-119.0291,UnitedStates,Washington,KittitasCounty,22,NA
GC1BXQ4,ColossalCaveAdventure,NA,51.9362666666667,-111.038883333333,Canada,Alberta,DivisionNo.5Strathmore,18,NA
GC1BYEH,ILikeMineMediumRare,NA,33.4959333333333,-116.9454,UnitedStates,California,RiversideCounty,121,NA
GC1CD2T,CaveOfTheClanBear,NA,42.2181333333333,-90.9180833333333,UnitedStates,Iowa,JonesCounty,28,NA
GC1CE61,ChinaMine,NA,41.7125166666667,-122.102616666667,UnitedStates,California,DelNorteCounty,10,NA
GC1CPBV,CloëJean'sMine,NA,36.7520833333333,-120.590683333333,UnitedStates,California,SanBenitoCounty,38,NA
GC1CW8C,BoulderCave'sCache,NA,46.9579666666667,-120.906616666667,UnitedStates,Washington,YakimaCounty,16,NA
GC1D3Q5,StinkBugCave,NA,33.60605,-116.2,UnitedStates,California,OrangeCounty,174,NA
GC1D8V3,JeffDavisMineLookout,NA,34.23665,-115.346416666667,UnitedStates,California,SanBernardinoCounty,23,NA
GC1DB9F,MysteryCave,NA,43.6175666666667,-91.6880333333333,UnitedStates,Minnesota,FillmoreCounty,142,NA
GC1DEQH,"Quealy""NotATronaMine""",NA,41.5429833333333,-108.7683,UnitedStates,Wyoming,SweetwaterCounty,45,NA
GC1DFGR,ZincSaddleMine,NA,41.8345666666667,-122.0914,UnitedStates,California,DelNorteCounty,6,NA
GC1DGKQ,WasAGoodFriendofMine,NA,35.3021333333333,-92.8446166666667,UnitedStates,Arkansas,PopeCounty,110,NA
GC1DM48,Operation:MetalCave,NA,45.6284333333333,-121.328466666667,UnitedStates,Washington,ClarkCounty,94,NA
GC1DMXH,PattersonMine,NA,41.7835666666667,-122.117833333333,UnitedStates,California,DelNorteCounty,6,NA
GC1DMXR,BigDipperMine,NA,41.7902333333333,-122.116466666667,UnitedStates,California,DelNorteCounty,7,NA
GC1DRGM,ExploreCF-UnderwaterCave,NA,44.6995666666667,-90.9685833333333,UnitedStates,Wisconsin,EauClaireCounty,13,NA
GC1DW4G,BerkshireMine,NA,46.3002833333333,-89.3767833333333,UnitedStates,Wisconsin,AshlandCounty,38,NA
GC1DWY3,Wrathof(Cave)Woman:HearmeRoar!,NA,42.6636166666667,-76.1645,UnitedStates,NewYork,LivingstonCounty,26,NA
GC1DX76,RockCaveinCurlyReeds,NA,37.6832333333333,-121.913816666667,UnitedStates,California,AlamedaCounty,92,NA
GC1DX8A,LostDutchman'sMine,NA,44.0556666666667,-102.308866666667,UnitedStates,SouthDakota,PenningtonCounty,23,NA
GC1DYEJ,Noise:,NA,34.0752833333333,-84.9698833333333,UnitedStates,Georgia,PolkCounty,71,NA
GC1DZBH,GoldMineRidge,NA,32.8345,-85.5617,UnitedStates,Alabama,CoosaCounty,80,NA
GC1E1XW,CannonMine,NA,47.3968166666667,-119.675233333333,UnitedStates,Washington,ChelanCounty,98,NA
GC1E73X,NewBlackDiamondMine,NA,47.4621666666667,-121.90805,UnitedStates,Washington,KingCounty,253,NA
GC1EA4N,TiredCoalMine,NA,53.3852833333333,-116.42655,Canada,Alberta,DivisionNo.14Hinton,53,NA
GC1EBGF,WindRiverMine,NA,45.9392333333333,-120.054916666667,UnitedStates,Washington,SkamaniaCounty,4,NA
GC1EBKD,catfishcave,NA,32.9982,-95.1667,UnitedStates,Texas,CollinCounty,30,NA
GC1F1HY,TheLuckyPickMine,NA,NA,NA,NA,NA,NA,NA,NA
GC1F3V2,GuardianoftheCave,NA,30.1966,-96.1518666666667,UnitedStates,Texas,TravisCounty,62,NA
GC1F7DT,IceCaveAdventure,NA,46.57495,-120.7245,UnitedStates,Washington,YakimaCounty,6,NA
GC1F8ZP,YourPALorMine?,NA,31.8439166666667,-101.609516666667,UnitedStates,Texas,EctorCounty,26,NA
GC1F8ZY,ChinaRoadCache/BaldlwinMineArea,NA,34.3065833333333,-115.1716,UnitedStates,California,SanBernardinoCounty,4,NA
GC1FB6B,CaveofthePurplePig,NA,34.3539166666667,-115.1515,UnitedStates,California,SanBernardinoCounty,117,NA
GC1FEAY,GwinMine2,NA,38.29165,-119.248583333333,UnitedStates,California,CalaverasCounty,35,NA
GC1FG24,SugarRiverTrailCave,NA,42.7565166666667,-88.4199333333333,UnitedStates,Wisconsin,GreenCounty,57,NA
GC1FGBM,treasurecave,NA,42.52875,-86.0812,UnitedStates,Wisconsin,KenoshaCounty,42,NA
GC1FMVV,Starr'sCave,NA,40.85195,-90.86225,UnitedStates,Iowa,DesMoinesCounty,166,NA
GC1FNYV,LockMineCutoff,NA,39.7092333333333,-119.40435,UnitedStates,California,PlumasCounty,52,NA
GC1FPMJ,GooseMineTrail,NA,41.7141166666667,-92.37795,UnitedStates,Iowa,PolkCounty,144,NA
GC1FRZQ,"The""IceCave""",NA,43.8352166666667,-89.0748166666667,UnitedStates,Wisconsin,LaCrosseCounty,111,NA
GC1FT0A,Halfwaybetweenhereandthere,NA,39.3358666666667,-75.5113833333333,UnitedStates,Maryland,BaltimoreCounty,101,NA
GC1FYE6,CavePoint,NA,44.9305666666667,-86.8272666666667,UnitedStates,Wisconsin,DoorCounty,440,NA
GC1FZ2B,IndianaBonezandtheForbiddenCaveofCoins,NA,34.09865,-117.07255,UnitedStates,California,VenturaCounty,0,NA
GC1G48P,slantedcave,NA,34.0935166666667,-118.95745,UnitedStates,California,VenturaCounty,10,NA
GC1G7JE,Ole'Mine,NA,NA,NA,NA,NA,NA,NA,NA
GC1G9BW,BoneCaveCache,NA,39.6912,-77.21165,UnitedStates,Maryland,AlleganyCounty,77,NA
GC1G9YZ,DryCreekCave,NA,34.71085,-117.277266666667,UnitedStates,California,LosAngelesCounty,62,NA
GC1GB1C,LostMineorLostUs?,NA,NA,NA,NA,NA,NA,NA,NA
GC1GC3E,BlowingSpringsCave,NA,34.8646833333333,-86.6957333333333,UnitedStates,Alabama,LauderdaleCounty,56,NA
GC1H135,FrazierParkMineSeries-#1WhiteRidgeDeposit,NA,34.8282833333333,-117.048066666667,UnitedStates,California,KernCounty,8,NA
GC1HBZN,GoldMineRoadonGoatMountain,NA,34.2914,-115.627,UnitedStates,California,SanBernardinoCounty,2,NA
GC1HC0Q,MineShaftOne,NA,34.2921166666667,-115.6305,UnitedStates,California,SanBernardinoCounty,9,NA
GC1HC20,SecondGoldMineOverlook,NA,34.2939833333333,-115.633766666667,UnitedStates,California,SanBernardinoCounty,5,NA
GC1HC33,TheGateonGoldMineRoad,NA,34.29465,-115.63475,UnitedStates,California,SanBernardinoCounty,6,NA
GC1HC5A,TopofGoatMountainGoldMineRoad,NA,34.2974833333333,-115.630033333333,UnitedStates,California,SanBernardinoCounty,8,NA
GC1HDGG,makemineacombo,NA,42.5766166666667,-87.5867833333333,UnitedStates,Wisconsin,WalworthCounty,2,NA
GC1HED6,HORSESHOECAVEFORFRIENDS,NA,35.1752333333333,-119.2785,UnitedStates,California,SanLuisObispoCounty,16,NA
GC1HEQ8,OldMineShaft,NA,49.06175,-57.6959333333333,Canada,NewfoundlandandLabrador,DivisionNo.1AvalonPeninsula-St.John's,82,NA
GC1HJ6M,FBZA.P.E.52:WarlockMine,NA,33.0764166666667,-115.4323,UnitedStates,California,SanDiegoCounty,63,NA
GC1HKKH,NoNameMine,NA,NA,NA,NA,NA,NA,NA,NA
GC1HM85,GandyDancer--TheBatCaveDec08COM,NA,45.47655,-91.4672,UnitedStates,Wisconsin,PolkCounty,65,NA
GC1HRCJ,WestCottonwoodMine,NA,31.9153666666667,-105.494616666667,UnitedStates,Texas,ElPasoCounty,0,NA
GC1HT5R,MineOMine,NA,34.6398166666667,-116.826066666667,UnitedStates,California,SanBernardinoCounty,3,NA
GC1HVE4,makemineacombo,NA,42.5766166666667,-87.5867833333333,UnitedStates,Wisconsin,WalworthCounty,11,NA
GC1HXG9,MakeMineHotandSpicy!,NA,36.0706666666667,-94.2018333333333,UnitedStates,Oklahoma,TulsaCounty,72,NA
GC1HXP5,HighwayCave,NA,34.2487166666667,-83.1423,UnitedStates,Georgia,BartowCounty,50,NA
GC1HZN1,BerthaPeakMineCache[Reborn],NA,34.2837833333333,-115.100266666667,UnitedStates,California,SanBernardinoCounty,42,NA
GC1J0YG,GoldMinewithStringsAttached,NA,34.1935,-115.7957,UnitedStates,California,SanBernardinoCounty,11,NA
GC1J0YT,GoldMineProspects,NA,34.1918833333333,-115.80275,UnitedStates,California,SanBernardinoCounty,8,NA
GC1J40D,EmpireMineRoad,NA,37.9590833333333,-120.1955,UnitedStates,California,ContraCostaCounty,70,NA
GC1J9TB,DutchCleanserMine,NA,35.4354333333333,-116.073966666667,UnitedStates,California,KernCounty,64,NA
GC1JF3J,ThisLittleSmileOfMine,NA,34.5736666666667,-116.7603,UnitedStates,California,SanBernardinoCounty,447,NA
GC1JFVW,MineYourOwnBusiness!,NA,NA,NA,NA,NA,NA,NA,NA
GC1JHA4,Mine#68TheHump,NA,47.0906833333333,-123.938416666667,UnitedStates,Washington,GraysHarborCounty,78,NA
GC1JHAB,Mine#69AView?,NA,47.1124833333333,-123.9667,UnitedStates,Washington,GraysHarborCounty,40,NA
GC1JHRQ,CaveandtheWolfBrothers,NA,33.0686,-95.1506,UnitedStates,Texas,DentonCounty,15,NA
GC1JNRF,TheCherokeeMine,NA,NA,NA,NA,NA,NA,NA,NA
GC1JQRR,MojaveGoldMine,NA,35.1428666666667,-116.947033333333,UnitedStates,California,SanBernardinoCounty,9,NA
GC1JRG5,SimiCave,NA,34.2034166666667,-117.212216666667,UnitedStates,California,VenturaCounty,47,NA
GC1JT6Q,ITSALLMINE,NA,40.6736,-121.569683333333,UnitedStates,California,ShastaCounty,11,NA
GC1JXY9,KnotMine!,NA,34.1286,-115.9698,UnitedStates,California,SanBernardinoCounty,257,NA
GC1JYH7,CaveInn,NA,37.0179333333333,-112.65905,UnitedStates,Utah,WashingtonCounty,62,NA
GC1K1KE,CCS-CaveSprings,NA,39.016,-89.3326,UnitedStates,Illinois,CalhounCounty,67,NA
GC1K98D,BearCave,NA,37.4646833333333,-80.62165,UnitedStates,WestVirginia,WyomingCounty,0,NA
GC1KBVM,seacave,NA,33.4610833333333,-116.284333333333,UnitedStates,California,OrangeCounty,23,NA
GC1KD4V,RockHoleDeepCave,NA,38.0697166666667,-121.825533333333,UnitedStates,California,SolanoCounty,31,NA
GC1KG0R,PonderosaWay:FalconMineRoad,NA,38.1401166666667,-119.503066666667,UnitedStates,California,CalaverasCounty,24,NA
GC1KG2A,AlmostMine,NA,34.4795666666667,-117.650716666667,UnitedStates,California,LosAngelesCounty,21,NA
GC1KJ0E,MineallMine,NA,47.3423,-92.7712,UnitedStates,Minnesota,ItascaCounty,9,NA
GC1KJDW,CaveNearArt'sTrail,NA,34.1344833333333,-117.004966666667,UnitedStates,California,VenturaCounty,21,NA
GC1KQZG,There'sacaveinSBK&Qcountry!,NA,32.9180833333333,-95.4927333333333,UnitedStates,Texas,RockwallCounty,95,NA
GC1KTB2,SquirrelCave,NA,45.1735166666667,-91.6773333333333,UnitedStates,Wisconsin,St.CroixCounty,46,NA
GC1KZTV,TurtleCreekCave,NA,32.72295,-96.8926166666667,UnitedStates,Texas,TarrantCounty,126,NA
GC1M3R6,TheWindCaveTrailhead,NA,34.4718166666667,-119.7703,UnitedStates,California,SantaBarbaraCounty,251,NA
GC1M46R,LostDutchman'sMine,NA,NA,NA,NA,NA,NA,NA,NA
GC1M47M,OKMine,NA,34.0474833333333,-114.298633333333,UnitedStates,California,SanBernardinoCounty,47,NA
GC1M47W,RustyGoldMine,NA,33.9997666666667,-114.2872,UnitedStates,California,RiversideCounty,43,NA
GC1M483,Lostin...RustyGoldMine,NA,33.99485,-114.240433333333,UnitedStates,California,RiversideCounty,11,NA
GC1M7VW,MineYourOwnBusiness,NA,34.0453666666667,-114.29845,UnitedStates,California,SanBernardinoCounty,66,NA
GC1MF9C,"TotheBatCaveRobin!",NA,41.6500166666667,-90.4852166666667,UnitedStates,Iowa,JohnsonCounty,73,NA
GC1MFFZ,Angermanagementcar/cavecentral,NA,38.1446833333333,-119.537583333333,UnitedStates,California,CalaverasCounty,30,NA
GC1MFG1,CliffsideCave,NA,38.00045,-121.328833333333,UnitedStates,California,MarinCounty,8,NA
GC1MFJA,CopperCreekMine,NA,41.9226166666667,-123.965233333333,UnitedStates,California,DelNorteCounty,10,NA
GC1MQHH,TheBatCave,NA,34.0753666666667,-114.2436,UnitedStates,California,SanBernardinoCounty,56,NA
GC1MQM4,IsolatedGoldMine,NA,34.05315,-114.258766666667,UnitedStates,California,SanBernardinoCounty,37,NA
GC1MYDR,MakeMineGlazed,NA,41.6245,-86.2638,UnitedStates,Illinois,CookCounty,111,NA
GC1N0H6,NationalMine,NA,40.6905333333333,-121.581366666667,UnitedStates,California,ShastaCounty,56,NA
GC1N0NH,WoodYouBeMine,NA,34.0631666666667,-117.5314,UnitedStates,California,LosAngelesCounty,14,NA
GC1N2DM,BullDogMine,NA,33.4624166666667,-110.4903,UnitedStates,Arizona,PinalCounty,103,NA
GC1N3D4,CAVECLIMB,NA,36.7731333333333,-93.3352833333333,UnitedStates,Oklahoma,OttawaCounty,1,NA
GC1N5TV,Div'sStumpCave,NA,42.5447,-95.5285333333333,UnitedStates,Iowa,WoodburyCounty,34,NA
GC1N96D,TC09#17-CaveCreekaCountrySchoolSeries,NA,30.3091666666667,-97.2723166666667,UnitedStates,Texas,GillespieCounty,50,NA
GC1NFX0,MatterovertheMine,NA,34.0452,-114.293666666667,UnitedStates,California,SanBernardinoCounty,26,NA
GC1NGXN,DaleMine4x4Cache,NA,34.1156333333333,-114.20925,UnitedStates,California,SanBernardinoCounty,41,NA
GC1NMA5,T.182006-HidingintheBatCave,NA,45.6019833333333,-93.8115833333333,UnitedStates,Minnesota,BentonCounty,87,NA
GC1NP0B,QuartzCaveAlongtheOldJulianHighway,NA,33.0560333333333,-115.226083333333,UnitedStates,California,SanDiegoCounty,144,NA
GC1NT5M,ThisLittleLightofMine,NA,31.028,-96.3059,UnitedStates,Texas,BellCounty,129,NA
GC1NYCA,Mine#70RubeGoldberg,NA,46.9726166666667,-122.085966666667,UnitedStates,Washington,GraysHarborCounty,105,NA
GC1NZJM,RedCaveCharm,NA,32.7824333333333,-95.4071833333333,UnitedStates,Texas,DallasCounty,37,NA
GC1P09N,"OnFortiniCrossStreetMine",NA,37.2088166666667,-120.204966666667,UnitedStates,California,SantaClaraCounty,183,NA
GC1P09W,AtthecornerofMineandStile,NA,37.21035,-120.201933333333,UnitedStates,California,SantaClaraCounty,235,NA
GC1P0V7,nationalminetwo,NA,40.6925833333333,-121.57735,UnitedStates,California,ShastaCounty,25,NA
GC1P20V,MINENOTSAFE!,NA,38.0650333333333,-119.625283333333,UnitedStates,California,TuolumneCounty,11,NA
GC1P4MQ,MysteryCaveStateParkWildlifeSafari,NA,43.6414666666667,-91.78505,UnitedStates,Minnesota,FillmoreCounty,374,NA
GC1P4MY,1909CherryMineDisaster,NA,41.4296333333333,-88.78665,UnitedStates,Illinois,BureauCounty,90,NA
GC1P4R3,HillAnnexMineStateParkWildlifeSafari,NA,47.3264166666667,-92.7217166666667,UnitedStates,Minnesota,ItascaCounty,242,NA
GC1P4ZE,SoudanUndergroundMineStateParkWildlifeSafari,NA,47.8197333333333,-91.7569833333333,UnitedStates,Minnesota,St.LouisCounty,308,NA
GC1P71X,CajalcoTinMine(1890-1892),NA,33.8491,-116.519816666667,UnitedStates,California,RiversideCounty,32,NA
GC1P732,FrenchCave,NA,46.9094666666667,-90.0924666666667,UnitedStates,Minnesota,St.LouisCounty,55,NA
GC1P84C,REDCLOUDMINE,NA,NA,NA,NA,NA,NA,NA,NA
GC1P8R0,Makeminescrambled......,NA,45.4185166666667,-121.211183333333,UnitedStates,Oregon,WashingtonCounty,148,NA
GC1PA4K,Minenotyours,NA,35.3121333333333,-116.379183333333,UnitedStates,California,SanBernardinoCounty,33,NA
GC1PAQH,Lilliputian'sMammothCave,NA,33.8738833333333,-85.1390166666667,UnitedStates,Alabama,BlountCounty,306,NA
GC1PGKX,OakCave,NA,37.01875,-120.376166666667,UnitedStates,California,SantaClaraCounty,69,NA
GC1PJVV,Falcons'Cave,NA,37.8273833333333,-120.205766666667,UnitedStates,California,ContraCostaCounty,97,NA
GC1PJZN,TotheBatCave,NA,34.7485,-97.4721666666667,UnitedStates,Oklahoma,ComancheCounty,16,NA
GC1PQC5,IFoundmine....What'syours?,NA,NA,NA,NA,NA,NA,NA,NA
GC1PRGG,ThisLittleLightOfMine,NA,33.1110666666667,-115.210316666667,UnitedStates,California,SanDiegoCounty,19,NA
GC1PWEF,FrazierParkMineSeries-#2LebecDeposit,NA,34.8404333333333,-117.059816666667,UnitedStates,California,KernCounty,5,NA
GC1PWNM,Viper'sCave,NA,38.6940666666667,-93.1714166666667,UnitedStates,Kansas,MiamiCounty,58,NA
GC1PX3R,CedarCave,NA,33.6209166666667,-96.8469666666667,UnitedStates,Texas,CookeCounty,63,NA
GC1PYAH,GilletteMineProspect,NA,34.6780666666667,-117.348316666667,UnitedStates,California,LosAngelesCounty,5,NA
GC1Q02Y,Caveinthecastlewall,NA,34.5084166666667,-115.283583333333,UnitedStates,California,SanBernardinoCounty,0,NA
GC1Q240,YoursorMINE!,NA,33.7690833333333,-115.93465,UnitedStates,California,RiversideCounty,39,NA
GC1Q591,BessemerMineRoad,NA,34.3983333333333,-115.259483333333,UnitedStates,California,SanBernardinoCounty,22,NA
GC1Q65K,TheColossalCaveAdventure,NA,36.5947166666667,-120.068416666667,UnitedStates,California,MontereyCounty,28,NA
GC1QCPA,OhsofarfromDawnMine,NA,NA,NA,NA,NA,NA,NA,NA
GC1QKC9,InACave,NA,33.5839333333333,-114.0507,UnitedStates,California,RiversideCounty,98,NA
GC1R0WK,Nobody'sFaultbutMine,NA,34.5177833333333,-118.781183333333,UnitedStates,California,VenturaCounty,8,NA
GC1R2MD,P'sofMine,NA,34.7995,-91.5781666666667,UnitedStates,Arkansas,PulaskiCounty,21,NA
GC1R3PZ,CaveMan'sFriend,NA,33.8907833333333,-97.4736666666667,UnitedStates,Texas,WichitaCounty,176,NA
GC1R7KR,P.V.ONYXMINECACHE,NA,36.0483,-116.614716666667,UnitedStates,California,InyoCounty,29,NA
GC1R8T4,St.GeorgeMineinSnowCyn.,NA,36.2084666666667,-116.541066666667,UnitedStates,California,InyoCounty,11,NA
GC1RC7M,BeeCaveNano,NA,30.3081,-96.0571333333333,UnitedStates,Texas,TravisCounty,211,NA
GC1RF0B,EngelsMine,NA,40.2043833333333,-119.224866666667,UnitedStates,California,PlumasCounty,23,NA
GC1RF68,Seth'sLostSWAGMine,NA,NA,NA,NA,NA,NA,NA,NA
GC1RGHC,SpruceMountainCave,NA,44.23035,-71.6414,UnitedStates,Vermont,WashingtonCounty,1,NA
GC1RQQZ,Snookie'sCave#1,NA,29.88195,-97.5489333333333,UnitedStates,Texas,ComalCounty,50,NA
GC1RT96,Snookie'sCave#2,NA,29.8821333333333,-97.5508833333333,UnitedStates,Texas,ComalCounty,43,NA
GC1RT99,Snookie'sCave#3,NA,29.8804333333333,-97.54895,UnitedStates,Texas,ComalCounty,48,NA
GC1RW2T,"Mine""oh""Mine",NA,34.0839333333333,-115.996666666667,UnitedStates,California,SanBernardinoCounty,27,NA
GC1RXPC,GreenCave,NA,NA,NA,NA,NA,NA,NA,NA
GC1T27W,ThisCacheisMine,NA,32.7802666666667,-115.995066666667,UnitedStates,California,ImperialCounty,20,NA
GC1T2NP,LumsdenBatCave,NA,37.8484166666667,-119.96995,UnitedStates,California,TuolumneCounty,7,NA
GC1T4CJ,PantherCave,NA,39.6047333333333,-75.35595,UnitedStates,Maryland,BaltimoreCounty,67,NA
GC1T5V6,minicave,NA,34.26355,-116.603183333333,UnitedStates,California,SanBernardinoCounty,0,NA
GC1T6QD,Thislittlelightofmine/OsageTreasuresEvent,NA,38.6665833333333,-94.4599,UnitedStates,Kansas,OsageCounty,26,NA
GC1TFE1,FallFestVIII-RaidersofRobbersCave,NA,34.9875666666667,-94.6452,UnitedStates,Oklahoma,LatimerCounty,73,NA
GC1TFFF,CoalMineNorth,NA,33.38,-88.7308666666667,UnitedStates,Mississippi,ChoctawCounty,59,NA
GC1TPRV,King'sChairatSidewinderMountainMine,NA,34.6178833333333,-116.9209,UnitedStates,California,SanBernardinoCounty,6,NA
GC1TVY3,MutherRoadsTour-Tourthemine,NA,40.18,-88.85295,UnitedStates,Illinois,LoganCounty,121,NA
GC1TYQZ,ACave?Here?,NA,42.8720166666667,-105.842366666667,UnitedStates,Wyoming,NatronaCounty,23,NA
GC1V4GD,Collin'sCaveCaches,NA,47.4182833333333,-118.482283333333,UnitedStates,Washington,GrantCounty,9,NA
GC1VA65,RobberBaronCave,NA,29.5087,-97.5429166666667,UnitedStates,Texas,BexarCounty,422,NA
GC1VD7Q,TheCave's,NA,37.6437666666667,-96.7182166666667,UnitedStates,Kansas,SedgwickCounty,30,NA
GC1VFKX,TennisBallMine,NA,37.5645833333333,-121.90445,UnitedStates,California,AlamedaCounty,185,NA
GC1VHC4,Dylan'sGoldMine,NA,44.8303833333333,-106.261916666667,UnitedStates,Wyoming,SheridanCounty,40,NA
GC1VJFZ,CaveofDoom!,NA,44.84975,-92.4543166666667,UnitedStates,Minnesota,CarverCounty,117,NA
GC1VJWB,TotheBatCave!,NA,34.61635,-85.8686,UnitedStates,Alabama,JacksonCounty,26,NA
GC1VKA2,RobbersCave,NA,35.0067,-94.6614833333333,UnitedStates,Oklahoma,LatimerCounty,174,NA
GC1VVCY,GrandRidgeCoalMine,NA,47.53675,-121.99675,UnitedStates,Washington,KingCounty,131,NA
GC1VVWB,Coyotecave,NA,33.56105,-115.01955,UnitedStates,California,RiversideCounty,87,NA
GC1W33R,CrystalLakeCaveCache,NA,42.4337666666667,-89.3795166666667,UnitedStates,Iowa,DubuqueCounty,119,NA
GC1WAZR,Rock'nCave,NA,37.7517166666667,-121.864166666667,UnitedStates,California,AlamedaCounty,101,NA
GC1WEMY,CarverCave,NA,44.9488166666667,-92.9323,UnitedStates,Minnesota,RamseyCounty,49,NA
GC1WF5W,MakemineBittersweet,NA,44.0571333333333,-102.291633333333,UnitedStates,SouthDakota,PenningtonCounty,13,NA
GC1WK9V,CanyonCreekIceCave,NA,50.9080166666667,-113.190883333333,Canada,Alberta,DivisionNo.15Canmore,8,NA
GC1WNV3,ChollasMine,NA,32.69695,-116.987666666667,UnitedStates,California,SanDiegoCounty,88,NA
GC1WR9K,TonaquintRidgeCaveGive&Take,NA,37.0712333333333,-112.353716666667,UnitedStates,Utah,WashingtonCounty,34,NA
GC1WVZP,WingedDeerparkSmallCave,NA,36.3912,-81.6317666666667,UnitedStates,Tennessee,WashingtonCounty,127,NA
GC1X1H9,Comeseethecave!,NA,32.6084666666667,-115.0755,UnitedStates,California,SanDiegoCounty,19,NA
GC1X71W,WolfCave,NA,36.71335,-80.0313833333333,UnitedStates,Virginia,WashingtonCounty,165,NA
GC1XHGR,CCCNP#3-TheTreeFernCave,NA,34.6224166666667,-86.2057,UnitedStates,Alabama,ColbertCounty,78,NA
GC1XJ44,MineorMine?,NA,37.0107833333333,-112.643166666667,UnitedStates,Utah,WashingtonCounty,56,NA
GC1Y34F,MineSweeper#1,NA,44.0673333333333,-92.7568333333333,UnitedStates,Minnesota,SteeleCounty,15,NA
GC1Y71Z,1935CoalhurstMineDisaster-Remembered,NA,49.7078833333333,-111.16035,Canada,Alberta,DivisionNo.2Lethbridge,86,NA
GC1Y88N,MineSweeper#2,NA,44.0656666666667,-92.763,UnitedStates,Minnesota,SteeleCounty,13,NA
GC1Y8CQ,MineSweeper#3,NA,44.0728833333333,-92.7603,UnitedStates,Minnesota,SteeleCounty,9,NA
GC1Y9MK,YoursandMine,NA,38.7150666666667,-118.068416666667,UnitedStates,California,AlpineCounty,6,NA
GC1YCJ7,TheBlackhawkMineMill,NA,34.3595,-115.205483333333,UnitedStates,California,SanBernardinoCounty,5,NA
GC1YCKJ,TheLesterDaleMine,NA,34.3366,-115.2269,UnitedStates,California,SanBernardinoCounty,25,NA
GC1YCM9,TheSilverReefMine,NA,34.37555,-115.247416666667,UnitedStates,California,SanBernardinoCounty,25,NA
GC1YF5G,GaltCoalMineNo.6,NA,49.7405666666667,-111.16965,Canada,Alberta,DivisionNo.2Lethbridge,110,NA
GC1YJRM,MineSweeper#4,NA,44.07855,-92.76655,UnitedStates,Minnesota,SteeleCounty,16,NA
GC1YMTB,MojaveMulti-MineCache,NA,34.5693,-115.274966666667,UnitedStates,California,SanBernardinoCounty,22,NA
GC1YPMT,P'sofMine(NewandImproved),NA,34.7995,-91.5781666666667,UnitedStates,Arkansas,PulaskiCounty,23,NA
GC1YVN1,TheClipperMine,NA,47.0201166666667,-120.146733333333,UnitedStates,Washington,PierceCounty,36,NA
GC1YW58,MineSweeper#5,NA,44.0769333333333,-92.7657333333333,UnitedStates,Minnesota,SteeleCounty,16,NA
GC1YW9Z,MineSweeper#6,NA,44.0642666666667,-92.7578166666667,UnitedStates,Minnesota,SteeleCounty,7,NA
GC1YWBJ,MineSweeper#7,NA,44.0661,-92.7651166666667,UnitedStates,Minnesota,SteeleCounty,10,NA
GC1YYR5,MineorYours?,NA,34.2170333333333,-115.221333333333,UnitedStates,California,SanBernardinoCounty,54,NA
GC1Z0Y3,OldGoldMine,NA,43.7423333333333,-102.438733333333,UnitedStates,SouthDakota,CusterCounty,67,NA
GC1Z7KP,CookiesCache#1-CopperMineView,NA,36.8958166666667,-118.327233333333,UnitedStates,California,FresnoCounty,82,NA
GC1Z8P5,Gravelmine,NA,46.9681166666667,-90.0128833333333,UnitedStates,Minnesota,St.LouisCounty,18,NA
GC1Z9VQ,WoodUBMine,NA,34.5537333333333,-118.64305,UnitedStates,California,VenturaCounty,10,NA
GC1ZHTY,CaveatJohnNull,NA,46.1510166666667,-121.051833333333,UnitedStates,Washington,CowlitzCounty,44,NA
GC1ZK2F,OakCanyonMine,NA,32.9110333333333,-115.490583333333,UnitedStates,California,SanDiegoCounty,19,NA
GC1ZM2R,FF2009-RaidersofRobbersCave-Commemorative,NA,34.9915333333333,-94.6406666666667,UnitedStates,Oklahoma,LatimerCounty,136,NA
GC1ZQMN,BankheadWaterfallsSeries#17CoalMineBranchFa,NA,NA,NA,NA,NA,NA,NA,NA
GC1ZWAT,ThisLittleLightOfMine,NA,53.4314333333333,-116.474133333333,Canada,Alberta,DivisionNo.14Hinton,38,NA
GC2019J,Thislittleboxofmine.,NA,35.9894,-89.2735166666667,UnitedStates,Arkansas,GreeneCounty,137,NA
GC2053J,ConcreteCave,NA,34.3266333333333,-118.905466666667,UnitedStates,California,VenturaCounty,67,NA
GC205M7,AGABreakfastClubCaveCleanUp,NA,33.7373333333333,-84.1928333333333,UnitedStates,Alabama,CalhounCounty,3,NA
GC209XQ,It'sallinyourmine,NA,34.0452,-114.293666666667,UnitedStates,California,SanBernardinoCounty,44,NA
GC20B0K,BearCave,NA,34.6214833333333,-118.80575,UnitedStates,California,VenturaCounty,2,NA
GC20CD,DaisyHillMine,NA,39.1949166666667,-120.954633333333,UnitedStates,California,NevadaCounty,1,NA
GC20E1K,TheImperialGoldMine......IMR4x4,NA,34.0631,-114.192766666667,UnitedStates,California,SanBernardinoCounty,48,NA
GC20E1W,TheJoelMine......JMR4x4,NA,34.0223333333333,-114.1936,UnitedStates,California,RiversideCounty,29,NA
GC20E1Z,Joel'sTreasureonthewaytotheJoelMine,NA,34.0292833333333,-114.19045,UnitedStates,California,RiversideCounty,17,NA
GC20E4J,ARoundtheMine,NA,34.1189833333333,-114.220216666667,UnitedStates,California,SanBernardinoCounty,25,NA
GC20KHF,Mytreefarm!Mine!,NA,48.2371166666667,-121.871966666667,UnitedStates,Washington,SnohomishCounty,43,NA
GC20QH8,XmasCave,NA,36.4097333333333,-92.2590833333333,UnitedStates,Arkansas,CarrollCounty,115,NA
GC20TPG,LandmineinTinMineCanyon,NA,33.8361166666667,-116.384116666667,UnitedStates,California,RiversideCounty,71,NA
GC20TQB,OldTinMine,NA,33.8356,-116.380266666667,UnitedStates,California,RiversideCounty,34,NA
GC20Y50,Makeminedecaf,NA,48.2392666666667,-121.840483333333,UnitedStates,Washington,SnohomishCounty,87,NA
GC21151,NumberOneMine,NA,51.0799166666667,-114.628916666667,Canada,Alberta,DivisionNo.15Canmore,280,NA
GC213XA,CountyLineGoldMine,NA,34.03575,-114.225083333333,UnitedStates,California,SanBernardinoCounty,18,NA
GC2191B,IndianHeadMine,NA,47.2623333333333,-100.2194,UnitedStates,NorthDakota,MercerCounty,58,NA
GC21AHY,EllisMineShaft,NA,51.6952166666667,-112.7224,Canada,Alberta,DivisionNo.5Strathmore,272,NA
GC21AX6,Ali'sCave,NA,32.9021,-116.7744,UnitedStates,California,SanDiegoCounty,67,NA
GC21AYT,CopperJackMine/RevenueCyn,NA,36.14955,-116.5784,UnitedStates,California,InyoCounty,8,NA
GC21EPF,WoodCave,NA,35.0033,-91.5129666666667,UnitedStates,Arkansas,FaulknerCounty,53,NA
GC21NV1,TeddyBearCave,NA,31.1066166666667,-98.1739333333333,UnitedStates,Texas,ConchoCounty,19,NA
GC21TFZ,P&PAdoptedIT'SMine,NA,39.9563833333333,-121.94085,UnitedStates,California,TehamaCounty,117,NA
GC21VQC,KosseMine,NA,31.2791666666667,-95.5162833333333,UnitedStates,Texas,LimestoneCounty,150,NA
GC222ZM,CaveDweller,NA,33.74965,-115.821566666667,UnitedStates,California,RiversideCounty,87,NA
GC22849,TrailheadtoMineandYours,NA,33.22215,-87.02955,UnitedStates,Mississippi,WinstonCounty,52,NA
GC22GA5,Isabella'sTreeCave,NA,33.46005,-81.76895,UnitedStates,Georgia,ColumbiaCounty,79,NA
GC22H7X,Cacheofthecavedwellers,NA,37.8923333333333,-121.727033333333,UnitedStates,California,AlamedaCounty,60,NA
GC22HAV,"Don't""mine""me",NA,NA,NA,NA,NA,NA,NA,NA
GC22JQ5,ClearCreekCave,NA,34.42455,-88.3078166666667,UnitedStates,Mississippi,LafayetteCounty,29,NA
GC22KQE,LonePineMine,NA,36.6014666666667,-117.920216666667,UnitedStates,California,InyoCounty,452,NA
GC22PFW,Mine!Mine!Mine!,NA,32.7418,-115.063583333333,UnitedStates,California,SanDiegoCounty,121,NA
GC22RHB,Comocave,NA,43.76165,-90.6571166666667,UnitedStates,Minnesota,HoustonCounty,49,NA
GC22XV0,CacheMineonNine,NA,34.7619666666667,-91.23365,UnitedStates,Arkansas,SalineCounty,114,NA
GC22XZE,ClayMineRoad,NA,35.0051333333333,-116.160083333333,UnitedStates,California,KernCounty,404,NA
GC2316,SamwelCave,NA,40.9169833333333,-121.762016666667,UnitedStates,California,ShastaCounty,21,NA
GC23323,OGRE'SCAVE,NA,NA,NA,NA,NA,NA,NA,NA
GC233EA,AveryCanyonLookoutCave,NA,NA,NA,NA,NA,NA,NA,NA
GC234TC,EmpireGoldMine,NA,43.94245,-102.501383333333,UnitedStates,SouthDakota,PenningtonCounty,26,NA
GC236R7,IceCave-Decorah,NA,43.3110666666667,-90.2192833333333,UnitedStates,Iowa,WinneshiekCounty,174,NA
GC237QG,TequilaPete'sCaveofTreasure,NA,26.3267666666667,-97.7728833333333,UnitedStates,Texas,HidalgoCounty,31,NA
GC2394P,BeMine,NA,42.7933166666667,-87.7445666666667,UnitedStates,Wisconsin,RacineCounty,117,NA
GC23FQ9,Mine#71Somethingforeveryone!!,NA,46.9262333333333,-122.058333333333,UnitedStates,Washington,GraysHarborCounty,36,NA
GC23R57,Kong'sCaveCache,NA,NA,NA,NA,NA,NA,NA,NA
GC23VDQ,BlueBirdMine,NA,40.7831333333333,-122.943566666667,UnitedStates,California,TrinityCounty,50,NA
GC240PM,It'sNEARlyMINE,NA,34.9525333333333,-115.138316666667,UnitedStates,California,SanBernardinoCounty,2,NA
GC2413F,Crib'sMine,NA,43.93795,-102.583983333333,UnitedStates,SouthDakota,PenningtonCounty,31,NA
GC24195,"RVET-""RockvilleMercuryMine""",NA,38.25105,-121.859216666667,UnitedStates,California,SolanoCounty,113,NA
GC244RK,Smallcavedweller,NA,37.0948,-112.349816666667,UnitedStates,Utah,WashingtonCounty,40,NA
GC247P6,Don'tcavein!,NA,34.1039833333333,-84.66625,UnitedStates,Georgia,FloydCounty,102,NA
GC248F,JenniferandJonathan’sCliffCaveCache,NA,34.6356833333333,-85.45015,UnitedStates,Alabama,MadisonCounty,53,NA
GC24A8K,Minebetweenthe#'s,NA,34.15875,-115.81125,UnitedStates,California,SanBernardinoCounty,64,NA
GC24D5T,NotMine!,NA,33.6321,-114.131716666667,UnitedStates,California,RiversideCounty,41,NA
GC24J5K,"WindCave""TourtheDepths""",NA,43.555,-102.52805,UnitedStates,SouthDakota,CusterCounty,593,NA
GC24J9Y,CAM2010-DeepCreekLakeBrantMine,NA,39.5217166666667,-78.6876666666667,UnitedStates,Maryland,GarrettCounty,421,NA
GC24T2H,Devil'sCave,NA,41.8177333333333,-87.6766333333333,UnitedStates,Illinois,KaneCounty,223,NA
GC24Z5H,CrystalSkullCave(pond),NA,37.1443,-120.205466666667,UnitedStates,California,SantaClaraCounty,107,NA
GC25038,WaterlooCaveDwellerI,NA,33.7381666666667,-95.4348666666667,UnitedStates,Texas,GraysonCounty,19,NA
GC25045,WaterlooCaveDwellerII,NA,33.7429666666667,-95.4282833333333,UnitedStates,Texas,GraysonCounty,27,NA
GC252BB,WindCaveRestArea,NA,NA,NA,NA,NA,NA,NA,NA
GC252BX,MakeMineOnTheRocks,NA,NA,NA,NA,NA,NA,NA,NA
GC252YH,OrevilleSparMicaMine,NA,43.8561166666667,-102.3733,UnitedStates,SouthDakota,PenningtonCounty,8,NA
GC254ZP,BeMine,NA,39.2038166666667,-120.956083333333,UnitedStates,California,NevadaCounty,122,NA
GC257D,CaveofReeds,NA,37.7385166666667,-119.04775,UnitedStates,California,StanislausCounty,238,NA
GC25BAM,SubwayCave,NA,40.6860166666667,-120.581233333333,UnitedStates,California,ShastaCounty,192,NA
GC25CJX,OnthewaytoStJohn'sMine,NA,NA,NA,NA,NA,NA,NA,NA
GC25CQ0,StJohn'sMineWhereIgo,NA,NA,NA,NA,NA,NA,NA,NA
GC25DJE,grandviewminecache,NA,34.6217666666667,-115.24335,UnitedStates,California,SanBernardinoCounty,8,NA
GC25DJH,bigmine,NA,34.5676,-115.276433333333,UnitedStates,California,SanBernardinoCounty,23,NA
GC25HEY,Cavelikestoplay,NA,32.92475,-95.2533,UnitedStates,Texas,DallasCounty,66,NA
GC25R4C,AlvordMine,NA,35.0666,-115.371016666667,UnitedStates,California,SanBernardinoCounty,3,NA
GC25RQR,TheMine,NA,33.5331833333333,-113.206466666667,UnitedStates,California,RiversideCounty,9,NA
GC25RTR,MakeMineaRuddles!,NA,36.7291666666667,-120.19525,UnitedStates,California,MontereyCounty,5,NA
GC25VJB,"Inacaverninacanyonexcavatingforamine..",NA,46.1630833333333,-121.314616666667,UnitedStates,Washington,CowlitzCounty,19,NA
GC25XXA,TheBatCave,NA,41.4748833333333,-70.46455,UnitedStates,RhodeIsland,WashingtonCounty,39,NA
GC25Z6X,TotheBatCaveRobin,NA,33.4297666666667,-114.184933333333,UnitedStates,California,RiversideCounty,53,NA
GC261V3,TheTragicHistoryoftheBethlehemMine,NA,40.0166666666667,-79.9017666666667,UnitedStates,Pennsylvania,WashingtonCounty,92,NA
GC263F,PortlandCave,NA,34.0632166666667,-84.96765,UnitedStates,Georgia,PolkCounty,116,NA
GC2647E,SpaghettiCave,NA,29.6097333333333,-97.5608833333333,UnitedStates,Texas,BexarCounty,52,NA
GC2668T,BellevueMine,NA,49.58185,-113.63285,Canada,Alberta,DivisionNo.15Canmore,127,NA
GC266MV,SaltPeterCave,NA,37.5362,-87.45435,UnitedStates,Illinois,PopeCounty,9,NA
GC26C53,Thecachecave,NA,39.2365666666667,-120.76715,UnitedStates,California,NevadaCounty,20,NA
GC26J2A,THECAVEOFDARKNESS!!!!,NA,42.0491,-93.9596666666667,UnitedStates,Iowa,BooneCounty,68,NA
GC26N31,TheCaveExpedition,NA,51.94865,-111.0486,Canada,Alberta,DivisionNo.5Strathmore,16,NA
GC27189,It'sminenow.,NA,37.5555,-96.7743166666667,UnitedStates,Kansas,SedgwickCounty,83,NA
GC2722W,MineralMineCache,NA,44.5624833333333,-116.92725,UnitedStates,Idaho,WashingtonCounty,4,NA
GC273FK,LairoftheCaveMonkeys,NA,34.6123666666667,-87.8008166666667,UnitedStates,Mississippi,TishomingoCounty,25,NA
GC274JN,DowninthePigMine,NA,28.9610833333333,-95.4544166666667,UnitedStates,Texas,JacksonCounty,47,NA
GC2778Z,Cave,NA,47.4427333333333,-118.130883333333,UnitedStates,Washington,DouglasCounty,23,NA
GC277YX,CaveofDebacle,NA,NA,NA,NA,NA,NA,NA,NA
GC27CD,MineWashRoadCache,NA,33.10625,-115.647533333333,UnitedStates,California,SanDiegoCounty,50,NA
GC27J2H,ThisOldMine,NA,35.4052666666667,-114.191266666667,UnitedStates,California,SanBernardinoCounty,72,NA
GC27VG1,HiddenGlenCave,NA,30.54305,-96.2892,UnitedStates,Texas,WilliamsonCounty,40,NA
GC27XNP,Mine'sGateCache,NA,47.32595,-52.22825,Canada,NewfoundlandandLabrador,DivisionNo.1AvalonPeninsula-St.John's,61,NA
GC27YE7,Kayak2...MINE!,NA,38.7983333333333,-120.901666666667,UnitedStates,California,ElDoradoCounty,10,NA
GC27ZBY,BearCave,NA,41.9703166666667,-122.8007,UnitedStates,California,SiskiyouCounty,2,NA
GC280ZE,TheCaveofWonder,NA,32.9179666666667,-116.79145,UnitedStates,California,SanDiegoCounty,55,NA
GC2812V,MineMineMine,NA,33.1852,-116.673133333333,UnitedStates,California,SanDiegoCounty,12,NA
GC2813T,ItsAllMine,NA,33.18585,-116.674816666667,UnitedStates,California,SanDiegoCounty,14,NA
GC2814F,StillAllMine,NA,33.1870666666667,-116.672933333333,UnitedStates,California,SanDiegoCounty,149,NA
GC2841,AboveBannerMine,NA,33.0511166666667,-115.476466666667,UnitedStates,California,SanDiegoCounty,10,NA
GC2868J,Not(another)Mine!,NA,38.8684833333333,-120.93385,UnitedStates,California,PlacerCounty,25,NA
GC2873J,TheBatCave,NA,NA,NA,NA,NA,NA,NA,NA
GC2895J,OnTopofMine,NA,45.5409833333333,-121.202166666667,UnitedStates,Oregon,WashingtonCounty,176,NA
GC28FF,RedCloudMineCache,NA,33.5953333333333,-114.557666666667,UnitedStates,California,RiversideCounty,34,NA
GC28KBF,"ItsSoEasyACaveManCanDoIt",NA,NA,NA,NA,NA,NA,NA,NA
GC28YNR,RabbitSpringsCaveView,NA,34.4485166666667,-115.006166666667,UnitedStates,California,SanBernardinoCounty,38,NA
GC29C8,BurksvilleCave,NA,38.2352333333333,-89.8623166666667,UnitedStates,Illinois,MonroeCounty,79,NA
GC29GPA,ThisLittleLightOfMine,NA,38.56335,-120.666716666667,UnitedStates,California,SacramentoCounty,228,NA
GC29HGM,OldAmbroseMineCache,NA,33.69185,-95.61605,UnitedStates,Texas,GraysonCounty,18,NA
GC29KA4,KillpeckerCoalMine,NA,41.9539333333333,-108.852483333333,UnitedStates,Wyoming,SweetwaterCounty,26,NA
GC29MEC,ThisLittleLightofMine,NA,46.2177333333333,-118.884,UnitedStates,Washington,BentonCounty,571,NA
GC29P43,"Batman'sCaveSeries""ToTheBatcave""",NA,33.8499333333333,-84.2103333333333,UnitedStates,Alabama,CalhounCounty,55,NA
GC29P4K,"Batman'sCaveSeries""KissFromaRoseonTheGrave",NA,33.8406166666667,-84.2291166666667,UnitedStates,Alabama,CalhounCounty,107,NA
GC29T1N,Cave!,NA,34.9064166666667,-98.6932833333333,UnitedStates,Oklahoma,GreerCounty,119,NA
GC29WAF,MonarchCave,NA,37.652,-97.7957,UnitedStates,Kansas,KingmanCounty,0,NA
GC2A3WZ,MineShaft,NA,38.7811166666667,-121.181266666667,UnitedStates,California,SonomaCounty,16,NA
GC2A7,MudCaveCookieTin,NA,32.9305,-115.804066666667,UnitedStates,California,SanDiegoCounty,97,NA
GC2A7E,CalciteCave,NA,33.29915,-115.896766666667,UnitedStates,California,SanDiegoCounty,14,NA
GC2A99,Hermit'sCave(CGCache#1),NA,38.66255,-95.5058333333333,UnitedStates,Kansas,MorrisCounty,392,NA
GC2APRE,NOTMINE,NA,34.1328666666667,-116.235116666667,UnitedStates,California,LosAngelesCounty,0,NA
GC2ATDC,Mic'sMineCache,NA,37.1058166666667,-117.7987,UnitedStates,California,InyoCounty,11,NA
GC2AWWY,TopoftheCave,NA,51.1028,-113.789816666667,Canada,Alberta,DivisionNo.6Calgary,195,NA
GC2B2FP,ThisLittleLightofMine,NA,47.8577833333333,-121.83,UnitedStates,Washington,SnohomishCounty,74,NA
GC2B43W,EmptyKohlMine,NA,47.6597166666667,-121.310333333333,UnitedStates,Washington,KitsapCounty,155,NA
GC2B76H,QueenBeeMine,NA,44.02185,-102.386433333333,UnitedStates,SouthDakota,PenningtonCounty,20,NA
GC2B9D,That'sMine,NA,38.606,-119.3876,UnitedStates,California,ElDoradoCounty,6,NA
GC2B9E,That'sMine2,NA,38.6059333333333,-119.38765,UnitedStates,California,ElDoradoCounty,6,NA
GC2BC63,WoodenCave,NA,32.5526166666667,-83.1826833333333,UnitedStates,Georgia,MuscogeeCounty,26,NA
GC2BK9F,TheLostCacheBros.Mine,NA,50.8973333333333,-113.21165,Canada,Alberta,DivisionNo.15Canmore,20,NA
GC2BK9Z,Opa'sCave,NA,34.0015166666667,-116.994016666667,UnitedStates,California,RiversideCounty,3,NA
GC2BKJQ,SOUTHTEXASMINE?,NA,28.75235,-97.6490833333333,UnitedStates,Texas,AtascosaCounty,64,NA
GC2BM58,King'sCoveBearCave,NA,48.5578166666667,-52.6548333333333,Canada,NewfoundlandandLabrador,DivisionNo.1AvalonPeninsula-St.John's,7,NA
GC2BM58,King'sCoveBearCave,NA,48.5578166666667,-52.6548333333333,Canada,NewfoundlandandLabrador,DivisionNo.1AvalonPeninsula-St.John's,7,NA
GC2BQFR,OldStoneBridgeCave,NA,42.8362833333333,-92.3964166666667,UnitedStates,Iowa,WrightCounty,36,NA
GC2BRKK,CaveClimbofDoom!,NA,NA,NA,NA,NA,NA,NA,NA
GC2BXB1,MexicanMinetrail,NA,37.3828666666667,-117.8195,UnitedStates,California,InyoCounty,121,NA
GC2BYKH,NearBri13'scave,NA,40.67925,-88.3362666666667,UnitedStates,Illinois,PeoriaCounty,13,NA
GC2C0B9,Bartlett'sCave,NA,NA,NA,NA,NA,NA,NA,NA
GC2C1WB,CaveintheRocks,NA,38.669,-120.9007,UnitedStates,California,SacramentoCounty,78,NA
GC2C28,Hawk'sCave,NA,37.5433333333333,-87.0166833333333,UnitedStates,Illinois,JohnsonCounty,35,NA
GC2C6Z0,ThisLittleLightofMineProbablyNotGonnaShine,NA,33.4981833333333,-81.9188333333333,UnitedStates,Georgia,RichmondCounty,73,NA
GC2C79Y,stumpedatNiagracave,NA,43.5141833333333,-91.9465,UnitedStates,Minnesota,FillmoreCounty,8,NA
GC2C84,PennyMine,NA,32.9718333333333,-115.351916666667,UnitedStates,California,SanDiegoCounty,31,NA
GC2C8HN,WaterfallCave,NA,37.29005,-121.833,UnitedStates,California,SanMateoCounty,6,NA
GC2CE7V,CaveMountaim,NA,48.5294666666667,-118.39315,UnitedStates,Washington,OkanoganCounty,8,NA
GC2CKZN,GoldCreekCave/Mine,NA,48.2004,-119.818483333333,UnitedStates,Washington,OkanoganCounty,6,NA
GC2CKZN,GoldCreekCave/Mine,NA,48.2004,-119.818483333333,UnitedStates,Washington,OkanoganCounty,6,NA
GC2CRAQ,rg045-KentuckyDerbyMine,NA,41.28715,-105.82065,UnitedStates,Wyoming,AlbanyCounty,19,NA
GC2CRBT,BigBearPAINTEDAmmoCanSeries#3:BearCave,NA,NA,NA,NA,NA,NA,NA,NA
GC2CWEY,HomestakeMine-OpenCut,NA,44.3522166666667,-102.236316666667,UnitedStates,SouthDakota,LawrenceCounty,495,NA
GC2CWK1,CaveMan,NA,44.3612666666667,-102.468033333333,UnitedStates,SouthDakota,MeadeCounty,148,NA
GC2CY5P,TheCaveofRoseValleyFalls,NA,34.5274,-118.819166666667,UnitedStates,California,VenturaCounty,36,NA
GC2D59,Phantom'sCave,NA,32.1504666666667,-114.19945,Mexico,BajaCalifornia,NA,1,NA
GC2D7NA,SQUIRRELCAVE,NA,36.3178333333333,-94.36935,UnitedStates,Oklahoma,RogersCounty,131,NA
GC2D9MW,MercoalMine#846,NA,53.1649666666667,-116.9072,Canada,Alberta,DivisionNo.14Hinton,38,NA
GC2D9QB,CacheCave,NA,NA,NA,NA,NA,NA,NA,NA
GC2DA8,Caleb'sCave,NA,34.7369166666667,-85.4482833333333,UnitedStates,Alabama,MadisonCounty,43,NA
GC2DH8W,LimeMine,NA,37.95005,-120.011983333333,UnitedStates,California,ContraCostaCounty,80,NA
GC2DHEV,InTheBatCave,NA,34.3208833333333,-115.092883333333,UnitedStates,California,SanBernardinoCounty,26,NA
GC2DPVK,Highway11Cave&Borehole*Archived8-9-15*,NA,35.0836166666667,-81.54045,UnitedStates,SouthCarolina,GreenvilleCounty,157,NA
GC2DQMB,"BecauseyourmineIwalktheline;",NA,47.612,-58.7945833333333,Canada,NewfoundlandandLabrador,DivisionNo.1AvalonPeninsula-St.John's,122,NA
GC2E3YW,CougerCave,NA,35.6673166666667,-96.6441166666667,UnitedStates,Oklahoma,OklahomaCounty,49,NA
GC2E5FA,ILoveChicago!-Hubbard'sCave,NA,41.88915,-86.3514833333333,UnitedStates,Illinois,CookCounty,116,NA
GC2E8ZZ,"The""VengeanceIsMine""Tour#1",NA,53.2574833333333,-112.418733333333,Canada,Alberta,DivisionNo.11Edmonton,45,NA
GC2E901,Tothebatcaverobin!,NA,43.341,-90.3578666666667,UnitedStates,Iowa,WinneshiekCounty,7,NA
GC2E9ZH,Cave'n,NA,41.8177166666667,-87.6767833333333,UnitedStates,Illinois,KaneCounty,43,NA
GC2EF9F,Fricke'sCave,NA,NA,NA,NA,NA,NA,NA,NA
GC2EG14,ThisLittleLightofMine,NA,43.0844166666667,-95.8135,UnitedStates,Iowa,SiouxCounty,75,NA
GC2EG9H,NeverMine,NA,NA,NA,NA,NA,NA,NA,NA
GC2EGJG,AlderMine,NA,48.3219333333333,-119.841466666667,UnitedStates,Washington,OkanoganCounty,28,NA
GC2EMPB,CheaterStreeters,NA,32.74995,-95.4801333333333,UnitedStates,Texas,KaufmanCounty,8,NA
GC2EMVZ,Don'tMineThis,NA,35.24395,-119.29565,UnitedStates,California,SanLuisObispoCounty,4,NA
GC2ENG7,"That'sMYspot!!NoitsMINE!!",NA,NA,NA,NA,NA,NA,NA,NA
GC2EXQG,CougarCave,NA,NA,NA,NA,NA,NA,NA,NA
GC2EZ18,OntheTrailtoBigHornMine,NA,NA,NA,NA,NA,NA,NA,NA
GC2EZ74,OntheTrailtoBigHornMine,NA,NA,NA,NA,NA,NA,NA,NA
GC2EZY2,CF-Floodedsandstonecave,NA,44.6923166666667,-90.9907333333333,UnitedStates,Wisconsin,EauClaireCounty,35,NA
GC2F0VZ,SunsetMine-UpTheHill,NA,47.8573166666667,-120.539216666667,UnitedStates,Washington,SnohomishCounty,11,NA
GC2F365,CaveoftheMoundsEarthCache,NA,43.0171666666667,-88.18535,UnitedStates,Wisconsin,DaneCounty,299,NA
GC2FC1R,TheVengeanceIsMineTour#2,NA,53.2576333333333,-112.42185,Canada,Alberta,DivisionNo.11Edmonton,40,NA
GC2FFYP,TheVengeanceIsMineTour#3,NA,53.2592666666667,-112.424816666667,Canada,Alberta,DivisionNo.11Edmonton,74,NA
GC2FM4K,TheVengeanceIsMineTour#5,NA,53.2616166666667,-112.4227,Canada,Alberta,DivisionNo.11Edmonton,67,NA
GC2FM4T,Liftmineeyesuntothehills,NA,35.0969333333333,-81.7733,UnitedStates,SouthCarolina,GreenvilleCounty,130,NA
GC2FM4Y,TheVengeanceIsMineTour#4,NA,53.2599333333333,-112.42255,Canada,Alberta,DivisionNo.11Edmonton,56,NA
GC2FM51,TheVengeanceIsMineTour#6,NA,53.2619666666667,-112.4296,Canada,Alberta,DivisionNo.11Edmonton,77,NA
GC2FM5D,"MineMineEverywhereaMine.",NA,NA,NA,NA,NA,NA,NA,NA
GC2FNPC,Leprechaun'sCave,NA,39.4604166666667,-76.50895,UnitedStates,Maryland,FrederickCounty,176,NA
GC2FQ3P,TorbayCave,NA,47.6549333333333,-51.3018833333333,Canada,NewfoundlandandLabrador,DivisionNo.1AvalonPeninsula-St.John's,154,NA
GC2FQ3P,TorbayCave,NA,47.6549333333333,-51.3018833333333,Canada,NewfoundlandandLabrador,DivisionNo.1AvalonPeninsula-St.John's,154,NA
GC2FYE6,MonsterCave,NA,33.8231666666667,-116.1499,UnitedStates,California,OrangeCounty,151,NA
GC2G5AW,TheVengeanceIsMineTour#7,NA,53.2648833333333,-112.4234,Canada,Alberta,DivisionNo.11Edmonton,61,NA
GC2G5B6,TheVengeanceIsMineTour#8,NA,53.2622333333333,-112.447133333333,Canada,Alberta,DivisionNo.11Edmonton,72,NA
GC2G5BE,TheVengeanceIsMineTour#9,NA,53.2616833333333,-112.4185,Canada,Alberta,DivisionNo.11Edmonton,64,NA
GC2G5BM,TheVengeanceIsMineTour#10,NA,53.2544333333333,-112.419733333333,Canada,Alberta,DivisionNo.11Edmonton,50,NA
GC2GDD3,BowerCave,NA,37.74675,-119.965166666667,UnitedStates,California,MariposaCounty,17,NA
GC2GJNG,TheStifleMineCache,NA,38.8757,-119.184266666667,UnitedStates,California,ElDoradoCounty,21,NA
GC2H0TT,BottlecapMine,NA,35.4589333333333,-119.6657,UnitedStates,California,SanLuisObispoCounty,28,NA
GC2HAG9,Caveoftheunknown,NA,43.6966,-90.7280666666667,UnitedStates,Minnesota,HoustonCounty,62,NA
GC2HBX2,GeocachingFriendsofMine:AtlantaGal,NA,NA,NA,NA,NA,NA,NA,NA
GC2HH8P,HalloweenBATCAVE,NA,37.1267166666667,-112.897783333333,UnitedStates,Utah,WashingtonCounty,13,NA
GC2HJ1F,WorkingInTheCoalMine-MOGABooty,NA,38.0902,-88.9459,UnitedStates,Illinois,FranklinCounty,86,NA
GC2HJD1,DiamondMine,NA,37.9234666666667,-121.826283333333,UnitedStates,California,ContraCostaCounty,37,NA
GC2HV0E,AnotherCacheofMINE,NA,38.8654166666667,-120.933583333333,UnitedStates,California,PlacerCounty,15,NA
GC2J2DV,GeocachingFriendsofMine:SleepyRN,NA,34.1620166666667,-78.6498833333333,UnitedStates,SouthCarolina,MarionCounty,119,NA
GC2J78Q,It'sAllMine!,NA,37.2122,-120.203316666667,UnitedStates,California,SantaClaraCounty,190,NA
GC2JEGJ,GeocachingFriendsofMine:LordThor,NA,34.1978333333333,-78.1642,UnitedStates,SouthCarolina,FlorenceCounty,71,NA
GC2JJZV,Bernie'sCave,NA,39.1082,-76.8916666666667,UnitedStates,Maryland,MontgomeryCounty,93,NA
GC2JK0V,GeoachingFriendsofMine:PV=nRT,NA,33.7660333333333,-77.1927666666667,UnitedStates,SouthCarolina,HorryCounty,267,NA
GC2JRZ0,Java'sCave,NA,36.40395,-93.8216666666667,UnitedStates,Arkansas,BentonCounty,174,NA
GC2JZMW,GeocachingFriendsofMine:wallacefamilysc,NA,34.22865,-78.1942333333333,UnitedStates,SouthCarolina,FlorenceCounty,225,NA
GC2JZMY,GeocachingFriendsofMine:queezy,NA,33.8257333333333,-77.2964333333333,UnitedStates,SouthCarolina,HorryCounty,172,NA
GC2JZN5,GeocachingFriendsofMine:EZtrack,NA,33.72545,-77.1275833333333,UnitedStates,SouthCarolina,HorryCounty,110,NA
GC2K3H2,GeocachingFriendsofMine:gitusum1,NA,34.08285,-77.12795,UnitedStates,SouthCarolina,HorryCounty,89,NA
GC2K3HB,GeocachingFriendsofMine:SCrebel,NA,34.0843666666667,-77.1262333333333,UnitedStates,SouthCarolina,HorryCounty,24,NA
GC2K77M,ThisLittleLightofMine,NA,43.4349,-94.8971,UnitedStates,Iowa,DickinsonCounty,51,NA
GC2K8HA,What'smineisyours,NA,39.24115,-120.983,UnitedStates,California,NevadaCounty,41,NA
GC2K8XH,ElephantCave,NA,NA,NA,NA,NA,NA,NA,NA
GC2KFCK,BearCave,NA,47.8157,-121.42855,UnitedStates,Washington,KitsapCounty,29,NA
GC2KTAK,YerPlaceorMine???,NA,34.9206166666667,-115.251216666667,UnitedStates,California,SanBernardinoCounty,983,NA
GC2KWDW,CaveHills,NA,45.8784666666667,-102.513233333333,UnitedStates,SouthDakota,HardingCounty,26,NA
GC2M35V,DisneyCave,NA,39.2986666666667,-119.658733333333,UnitedStates,California,PlacerCounty,2,NA
GC2M4CJ,GeocachingFriendsofMine:GrovernessSusan,NA,34.19555,-78.3429833333333,UnitedStates,SouthCarolina,FlorenceCounty,69,NA
GC2M8HV,MineMatters,NA,34.7110333333333,-115.171666666667,UnitedStates,California,SanBernardinoCounty,18,NA
GC2MED1,MossyCanyonCave,NA,38.4386,-121.479366666667,UnitedStates,California,SonomaCounty,40,NA
GC2MJEZ,QuailCave,NA,33.1703333333333,-116.967183333333,UnitedStates,California,SanDiegoCounty,44,NA
GC2MVMB,YourGuessisasGoodasMine,NA,41.6734833333333,-92.2539666666667,UnitedStates,Iowa,PolkCounty,59,NA
GC2MW28,ArkhamHorror-TheBlackCave,NA,31.8371,-105.51825,UnitedStates,Texas,ElPasoCounty,9,NA
GC2NK1A,DoYouMine?,NA,32.8919833333333,-115.173383333333,UnitedStates,California,SanDiegoCounty,11,NA
GC2NPMJ,LillyMine,NA,38.5833333333333,-118.572166666667,UnitedStates,California,MonoCounty,0,NA
GC2NV4W,uGAonmy'Mine',NA,33.7473166666667,-83.1160666666667,UnitedStates,Georgia,DouglasCounty,97,NA
GC2PC0A,SlabtownCaveOverlook,NA,NA,NA,NA,NA,NA,NA,NA
GC2PFJC,LittleCaveCache,NA,32.6664,-96.5705,UnitedStates,Texas,TarrantCounty,240,NA
GC2PGRJ,Abe'sSausageCave,NA,41.7915166666667,-86.1994666666667,UnitedStates,Illinois,CookCounty,149,NA
GC2PHFB,WelshCaveRim,NA,34.5486,-84.4056666666667,UnitedStates,Alabama,DeKalbCounty,5,NA
GC2PMJJ,TroyPineMine,NA,39.1987833333333,-75.2477666666667,UnitedStates,Maryland,HowardCounty,53,NA
GC2PMXB,SweetChildO'Mine,NA,36.1605833333333,-94.2549833333333,UnitedStates,Oklahoma,WagonerCounty,16,NA
GC2PPTW,CableHogue'sMine,NA,34.7145,-118.082883333333,UnitedStates,California,SantaBarbaraCounty,5,NA
GC2PQ0Y,SweetChild'OMine(#4),NA,33.7251,-84.1844833333333,UnitedStates,Alabama,CalhounCounty,64,NA
GC2PXHZ,PeterCave,NA,37.50845,-87.3807333333333,UnitedStates,Illinois,PopeCounty,19,NA
GC2PZA6,Willyoubemine?,NA,33.75055,-116.696316666667,UnitedStates,California,RiversideCounty,9,NA
GC2Q0QW,RoadsideCave,NA,35.6203666666667,-119.097316666667,UnitedStates,California,SanLuisObispoCounty,34,NA
GC2Q4MM,HoboCave,NA,34.6673666666667,-117.847666666667,UnitedStates,California,LosAngelesCounty,11,NA
GC2Q70T,TheMooseCave,NA,46.7823666666667,-91.9059166666667,UnitedStates,Minnesota,St.LouisCounty,1959,NA
GC2QC33,CaveDweller,NA,34.6320833333333,-84.43365,UnitedStates,Alabama,DeKalbCounty,65,NA
GC2QJYR,WaterfallCave,NA,46.8504833333333,-119.511766666667,UnitedStates,Washington,KittitasCounty,24,NA
GC2QMDN,Minelookin'overme,NA,35.1227,-115.082616666667,UnitedStates,California,SanBernardinoCounty,12,NA
GC2QXFB,BlackDiamondDrummingMine,NA,NA,NA,NA,NA,NA,NA,NA
GC2QZY8,LandMine,NA,33.0676666666667,-95.25165,UnitedStates,Texas,CollinCounty,28,NA
GC2R995,KittenCaveCache,NA,30.5047166666667,-96.2741666666667,UnitedStates,Texas,WilliamsonCounty,85,NA
GC2RA84,GotCache-Ace'sCave,NA,34.1978666666667,-79.0610166666667,UnitedStates,SouthCarolina,RichlandCounty,54,NA
GC2RDT7,Shimmins(fun)cave,NA,43.8284666666667,-96.9352333333333,UnitedStates,SouthDakota,MinnehahaCounty,10,NA
GC2RGAN,CaveNest,NA,35.0945166666667,-117.335616666667,UnitedStates,California,KernCounty,47,NA
GC2RHW9,MineAgain,NA,NA,NA,NA,NA,NA,NA,NA
GC2RMBH,CaveDwellers,NA,NA,NA,NA,NA,NA,NA,NA
GC2RZV2,Hilltopcavewithaview,NA,33.143,-114.033333333333,UnitedStates,California,ImperialCounty,58,NA
GC2T3M3,TallMine,NA,35.3095833333333,-116.372333333333,UnitedStates,California,SanBernardinoCounty,6,NA
GC2TFGK,CaveIn,NA,NA,NA,NA,NA,NA,NA,NA
GC2TJ91,CaveandBasinFun-PlaisiràCaveandBasin!,NA,51.1702666666667,-114.406516666667,Canada,Alberta,DivisionNo.15Canmore,49,NA
GC2TKAP,MathiesMinePrepPlant,NA,40.21595,-78.03475,UnitedStates,Pennsylvania,WashingtonCounty,111,NA
GC2TQJ6,GravelMineReloaded,NA,46.9680666666667,-90.0125,UnitedStates,Minnesota,St.LouisCounty,13,NA
GC2TT6G,HoneyBeeMine-CCARS11,NA,50.6979,-113.975,Canada,Alberta,DivisionNo.6Calgary,110,NA
GC2TT7X,LostMine,NA,47.58375,-51.3248833333333,Canada,NewfoundlandandLabrador,DivisionNo.1AvalonPeninsula-St.John's,14,NA
GC2TT9H,SuchaSmallCave,NA,47.5874666666667,-51.33165,Canada,NewfoundlandandLabrador,DivisionNo.1AvalonPeninsula-St.John's,66,NA
GC2TT9H,SuchaSmallCave,NA,47.5874666666667,-51.33165,Canada,NewfoundlandandLabrador,DivisionNo.1AvalonPeninsula-St.John's,66,NA
GC2TY10,ThisLittleLightofMine.,NA,33.0837,-96.9744166666667,UnitedStates,Texas,DentonCounty,176,NA
GC2TY1F,YourGuessisasGoodasMine,NA,34.1718166666667,-83.95225,UnitedStates,Georgia,HallCounty,68,NA
GC2V17D,ILRiverBywayTolucaCoalMinePark,NA,40.9988333333333,-88.8627166666667,UnitedStates,Illinois,MarshallCounty,63,NA
GC2V2P9,GoldMine,NA,45.9513166666667,-88.9000166666667,UnitedStates,Wisconsin,VilasCounty,7,NA
GC2V4P5,ClydeMine,NA,39.0718,-121.519683333333,UnitedStates,California,ColusaCounty,14,NA
GC2V8QM,QuartzCave,NA,NA,NA,NA,NA,NA,NA,NA
GC2VEDK,WarlockMine~TheAnnex,NA,NA,NA,NA,NA,NA,NA,NA
GC2VFPR,ReturntoWarlockMine,NA,33.0769166666667,-115.428883333333,UnitedStates,California,SanDiegoCounty,49,NA
GC2VJP5,FarisCave#2,NA,38.6933,-97.8988,UnitedStates,Kansas,EllsworthCounty,21,NA
GC2VVDX,CacheCave,NA,39.8706666666667,-90.6555166666667,UnitedStates,Illinois,AdamsCounty,19,NA
GC2VWPY,CrystalCave,NA,36.5890833333333,-117.173933333333,UnitedStates,California,TulareCounty,78,NA
GC2W3AP,MAKEMINERARE,NA,40.1614333333333,-79.71755,UnitedStates,Pennsylvania,WashingtonCounty,58,NA
GC2WCYF,FoolsCave,NA,34.27,-115.323983333333,UnitedStates,California,SanBernardinoCounty,1,NA
GC2WHPJ,PrairieWinds-TheRelianceMine,NA,49.7940833333333,-111.907766666667,Canada,Alberta,DivisionNo.2Lethbridge,165,NA
GC2WKAM,"HLP-""Willow""BeMine?",NA,30.5115833333333,-96.4295,UnitedStates,Texas,WilliamsonCounty,81,NA
GC2WRNV,VanasseMine,NA,48.6380333333333,-117.991566666667,UnitedStates,Washington,StevensCounty,35,NA
GC2X2K5,Where'stheMine,NA,34.69215,-118.084616666667,UnitedStates,California,SantaBarbaraCounty,13,NA
GC2XD12,ACavewithaStream,NA,31.53715,-96.5687666666667,UnitedStates,Texas,McLennanCounty,8,NA
GC2XN25,I'llHaveMineWithSprinkles,NA,41.6149166666667,-86.4743333333333,UnitedStates,Illinois,CookCounty,78,NA
GC2XPVD,CaveDweller,NA,33.1252166666667,-116.6694,UnitedStates,California,SanDiegoCounty,2,NA
GC2Y8JA,Ilikemineontherocks,NA,42.5657,-86.1878,UnitedStates,Wisconsin,KenoshaCounty,24,NA
GC2YTHE,CaveofGhostWatersMulti,NA,32.6217833333333,-115.305766666667,UnitedStates,California,SanDiegoCounty,21,NA
GC2Z5KZ,AtlasCoalMine-BADLegacyTrail,NA,51.56175,-111.08825,Canada,Alberta,DivisionNo.5Strathmore,285,NA
GC2Z5TE,US-95RiverRun:Mine?OrBridge?,NA,33.9396333333333,-113.459716666667,UnitedStates,California,RiversideCounty,157,NA
GC2Z8A4,I'lltakemineontherocks.,NA,NA,NA,NA,NA,NA,NA,NA
GC2ZABQ,PlutoVisitsScuttlesLanding(MineMineMine183),NA,47.55715,-52.3378,Canada,NewfoundlandandLabrador,DivisionNo.1AvalonPeninsula-St.John's,59,NA
GC2ZFNE,ABadCave,NA,51.6445166666667,-111.103783333333,Canada,Alberta,DivisionNo.5Strathmore,40,NA
GC2ZGWM,StarMineSuspensionBridge-BADLegacyTrail,NA,51.5052,-111.22905,Canada,Alberta,DivisionNo.5Strathmore,202,NA
GC2ZJ10,MineJunk,NA,32.7863,-115.520833333333,UnitedStates,California,SanDiegoCounty,23,NA
GC2ZJ12,MineJunkParking,NA,32.7833666666667,-115.5207,UnitedStates,California,SanDiegoCounty,26,NA
GC2ZK55,DutchMountainCoalMine,NA,41.4719833333333,-75.7942833333333,UnitedStates,Pennsylvania,WyomingCounty,17,NA
GC2ZP1X,AtlasCoalMineEarthCache,NA,51.3293333333333,-111.519283333333,Canada,Alberta,DivisionNo.5Strathmore,236,NA
GC2ZTVC,HiddenCave-GovDodgeStatePark,NA,NA,NA,NA,NA,NA,NA,NA
GC2ZTVC,HiddenCave-GovDodgeStatePark,NA,NA,NA,NA,NA,NA,NA,NA
GC300EC,SaltMine,NA,53.8677333333333,-109.356416666667,Canada,Alberta,DivisionNo.12ColdLake,83,NA
GC30429,KingsGapCaveandRockShelter,NA,NA,NA,NA,NA,NA,NA,NA
GC3043A,CoonCave,NA,NA,NA,NA,NA,NA,NA,NA
GC30442,CaveTroll,NA,42.47375,-92.8534333333333,UnitedStates,Iowa,HardinCounty,12,NA
GC304CN,TheBatCave,NA,43.8135,-90.7705333333333,UnitedStates,Wisconsin,LaCrosseCounty,22,NA
GC305B,Slong&HotOnes'GoldMine,NA,33.7213166666667,-113.1287,UnitedStates,California,RiversideCounty,6,NA
GC3079,Cave-in-Rock,NA,37.46755,-87.8427,UnitedStates,Illinois,HardinCounty,6,NA
GC309PC,Mary'sMine,NA,NA,NA,NA,NA,NA,NA,NA
GC30A9F,KidneySpringCave,NA,43.4346666666667,-102.5182,UnitedStates,SouthDakota,FallRiverCounty,60,NA
GC30CQX,MothCave,NA,34.4481833333333,-113.531633333333,UnitedStates,California,SanBernardinoCounty,25,NA
GC30GCX,JackAssMine,NA,NA,NA,NA,NA,NA,NA,NA
GC30NRK,IceCaveView,NA,48.0914333333333,-120.48155,UnitedStates,Washington,SnohomishCounty,48,NA
GC3197F,CAVEMAN,NA,NA,NA,NA,NA,NA,NA,NA
GC319Z1,GravelMineRestored,NA,42.22615,-87.7290166666667,UnitedStates,Illinois,McHenryCounty,266,NA
GC31AXR,ThisOne'sMine,NA,44.8742333333333,-92.9252833333333,UnitedStates,Minnesota,DakotaCounty,141,NA
GC31D9D,SlopeMine#6,NA,40.1230166666667,-86.2606333333333,UnitedStates,Illinois,VermilionCounty,48,NA
GC31F8,BahiaCoyoteCavePainting,NA,26.7081,-110.094166666667,Mexico,BajaCaliforniaSur,NA,41,NA
GC31GTQ,TheGreatOutdoors-CaveTrails,NA,44.2964666666667,-71.61005,UnitedStates,Vermont,WashingtonCounty,79,NA
GC31PWE,DeerParkCaveLookout,NA,42.3626166666667,-92.9164166666667,UnitedStates,Iowa,HardinCounty,49,NA
GC31Y06,lookoutMine,NA,37.9152333333333,-119.80825,UnitedStates,California,TuolumneCounty,6,NA
GC3210,NewShawneeParkGoldMine,NA,33.0455666666667,-95.3072666666667,UnitedStates,Texas,CollinCounty,76,NA
GC321M9,Bythecave,NA,35.5707166666667,-116.347783333333,UnitedStates,California,KernCounty,12,NA
GC322FB,BullyHillMine,NA,40.7944,-121.80415,UnitedStates,California,ShastaCounty,20,NA
GC324J1,MineRd.,NA,40.9409,-89.7018666666667,UnitedStates,Illinois,KnoxCounty,83,NA
GC325E4,un-naturalcave,NA,41.1531666666667,-86.1208166666667,UnitedStates,Illinois,KankakeeCounty,81,NA
GC32FFG,GardnerCave,NA,48.9957,-116.629683333333,UnitedStates,Washington,PendOreilleCounty,100,NA
GC32H63,TheBatCave,NA,44.8074166666667,-90.49915,UnitedStates,Wisconsin,EauClaireCounty,48,NA
GC32MRQ,Scott&Maggie'sCave,NA,46.6834833333333,-91.74425,UnitedStates,Minnesota,St.LouisCounty,74,NA
GC32N16,MammothCave,NA,NA,NA,NA,NA,NA,NA,NA
GC32P9M,CopperMine,NA,NA,NA,NA,NA,NA,NA,NA
GC32W25,WalkerMine,NA,39.96385,-119.332983333333,UnitedStates,California,PlumasCounty,13,NA
GC32ZGP,Iateallmine,NA,NA,NA,NA,NA,NA,NA,NA
GC32ZV1,CheckingforLeaksintheRoofofmyCave,NA,47.3950833333333,-120.5775,UnitedStates,Washington,KittitasCounty,209,NA
GC335YQ,SpookCaveCache,NA,43.0335,-90.6923,UnitedStates,Iowa,ClaytonCounty,22,NA
GC339R1,EelonTopofCave,NA,33.8269,-116.229116666667,UnitedStates,California,OrangeCounty,6,NA
GC339WQ,CaveofTrees,NA,41.2703166666667,-109.04005,UnitedStates,Wyoming,UintaCounty,47,NA
GC33GT4,ThisLittleLightofMine,NA,44.9347,-93.5011,UnitedStates,Minnesota,McLeodCounty,84,NA
GC33GY5,LillyMine,NA,38.5841833333333,-118.566583333333,UnitedStates,California,MonoCounty,21,NA
GC348KN,HangingaroundCoalMine,NA,29.2264,-97.1860166666667,UnitedStates,Texas,MedinaCounty,145,NA
GC34BQP,PinesofPennsylvaniaMine,NA,39.2059666666667,-120.945433333333,UnitedStates,California,NevadaCounty,10,NA
GC34JYE,TheManCave,NA,32.5556833333333,-82.1166166666667,UnitedStates,Georgia,PeachCounty,15,NA
GC34MXW,BeyondtheCave,NA,NA,NA,NA,NA,NA,NA,NA
GC34PMX,StuffedAnimalCave,NA,46.63145,-120.611216666667,UnitedStates,Washington,LewisCounty,9,NA
GC34VVP,PulpMine,NA,46.9682166666667,-90.0138,UnitedStates,Minnesota,St.LouisCounty,40,NA
GC34W7V,TheCaveofCaerbannogII,NA,NA,NA,NA,NA,NA,NA,NA
GC3561,Thebigconcretehill,NA,40.1533833333333,-82.8733,UnitedStates,Ohio,DelawareCounty,43,NA
GC356QV,MoneyCache-Damon&PythiasMine!,NA,47.6982833333333,-120.4728,UnitedStates,Washington,KingCounty,46,NA
GC358VK,PineNeedleBridgeSecretCave,NA,44.0163833333333,-90.0450666666667,UnitedStates,Minnesota,WinonaCounty,22,NA
GC35C6Z,TOTHECACHECAVE!,NA,45.1501833333333,-92.6033833333333,UnitedStates,Minnesota,HennepinCounty,211,NA
GC35FE,TheIceCaveCache,NA,48.05575,-120.479916666667,UnitedStates,Washington,SnohomishCounty,165,NA
GC35FK6,cavemadeaplaypretty,NA,33.1378666666667,-95.9025333333333,UnitedStates,Texas,HuntCounty,109,NA
GC35Q4F,Beyond'ComeSeetheCave',NA,32.6060833333333,-115.078633333333,UnitedStates,California,SanDiegoCounty,14,NA
GC35QKV,Pole-ishMineSweeper,NA,33.1708666666667,-114.021616666667,UnitedStates,California,ImperialCounty,90,NA
GC35TCF,Thesmallcave,NA,51.0714,-114.591166666667,Canada,Alberta,DivisionNo.15Canmore,95,NA
GC35W9V,Caveofwonders,NA,38.2752333333333,-121.755016666667,UnitedStates,California,NapaCounty,47,NA
GC3671,CaveSpringsCache,NA,34.5466166666667,-85.1486,UnitedStates,Alabama,MorganCounty,33,NA
GC36DC,RockCaveCache,NA,33.5446166666667,-116.259566666667,UnitedStates,California,OrangeCounty,5,NA
GC36FV1,YourCoffinorMine?,NA,38.8051333333333,-93.0636,UnitedStates,Kansas,JohnsonCounty,164,NA
GC36G5Y,BatCave,NA,42.8026333333333,-109.101533333333,UnitedStates,Wyoming,LincolnCounty,11,NA
GC36RDJ,MorningStarCoalMine,NA,49.7616333333333,-110.347016666667,Canada,Alberta,DivisionNo.2Lethbridge,64,NA
GC36XQQ,CachebyaCave,NA,34.2861333333333,-101.234133333333,UnitedStates,Texas,BaileyCounty,72,NA
GC3768A,ThisLittleLightofMine,NA,48.3583166666667,-120.5362,UnitedStates,Washington,SkagitCounty,259,NA
GC37AC8,TupperwareCave,NA,41.5731833333333,-87.9330666666667,UnitedStates,Illinois,WillCounty,100,NA
GC37D6G,BirdCave,NA,35.6069333333333,-96.3910666666667,UnitedStates,Oklahoma,OklahomaCounty,281,NA
GC37EQ0,BatCave,NA,NA,NA,NA,NA,NA,NA,NA
GC37XEZ,PetalumaUnderground(BatCave),NA,NA,NA,NA,NA,NA,NA,NA
GC37XNV,GoodtobeMine,NA,NA,NA,NA,NA,NA,NA,NA
GC38AKH,CaveDweller,NA,34.0079666666667,-117.629866666667,UnitedStates,California,LosAngelesCounty,16,NA
GC38CFX,HighabovePegLegMine,NA,NA,NA,NA,NA,NA,NA,NA
GC38GRG,CaveofAccomplishment,NA,33.5922166666667,-116.529533333333,UnitedStates,California,OrangeCounty,9,NA
GC38R2G,Steve'sMine,NA,NA,NA,NA,NA,NA,NA,NA
GC38WFJ,PinkCave,NA,37.5818666666667,-87.3782,UnitedStates,Illinois,PopeCounty,22,NA
GC39C2P,FilmyFernCave,NA,37.51605,-87.2936666666667,UnitedStates,Illinois,PopeCounty,22,NA
GC39KZG,TheReturntoSt.Ellen'sMine,NA,38.5793833333333,-88.0405833333333,UnitedStates,Illinois,St.ClairCounty,106,NA
GC39REK,MineandStamp,NA,38.5099666666667,-118.46605,UnitedStates,California,MonoCounty,1,NA
GC39XXT,OBG:Can'tSeemToMakeYouMine,NA,44.8976166666667,-92.8107,UnitedStates,Minnesota,RamseyCounty,98,NA
GC39Z6H,Hwy'49er:RedCloudMine,NA,37.5204166666667,-119.775766666667,UnitedStates,California,MariposaCounty,37,NA
GC39Z7A,Hwy'49er:No.9Mine,NA,37.51635,-119.801933333333,UnitedStates,California,MariposaCounty,23,NA
GC39ZC3,Hwy'49er:CottonCreekMine,NA,37.5730333333333,-119.829283333333,UnitedStates,California,MariposaCounty,29,NA
GC39ZCX,Hwy'49er:PyramidMine,NA,37.5834166666667,-119.822633333333,UnitedStates,California,MariposaCounty,25,NA
GC39ZDW,Hwy'49er:MorningstarMine,NA,37.5993666666667,-119.837583333333,UnitedStates,California,MariposaCounty,17,NA
GC39ZEZ,Hwy'49er:YellowstoneMine,NA,37.5729,-119.85775,UnitedStates,California,MariposaCounty,35,NA
GC39ZFJ,Hwy'49er:Mt.GainesMine,NA,37.5395666666667,-119.821516666667,UnitedStates,California,MariposaCounty,33,NA
GC39ZJR,Hwy'49er:Mt.OphirMine,NA,37.5151166666667,-119.93685,UnitedStates,California,MariposaCounty,51,NA
GC39ZVW,"Hwy'49er:PrincetonMineMt.Bullion",NA,37.4989666666667,-119.95615,UnitedStates,California,MariposaCounty,51,NA
GC39ZVY,Hwy'49er:PermitMine,NA,37.54805,-119.981366666667,UnitedStates,California,MariposaCounty,24,NA
GC39ZWA,Hwy'49er:NutmegMine,NA,37.5565166666667,-119.976183333333,UnitedStates,California,MariposaCounty,10,NA
GC3A13C,Hwy'49er:GoldenKeyMine,NA,37.5575166666667,-119.98445,UnitedStates,California,MariposaCounty,22,NA
GC3A157,Hwy'49er:McAlpineMine,NA,37.7628833333333,-119.741733333333,UnitedStates,California,TuolumneCounty,72,NA
GC3A15Y,Hwy'49er:DiltzMine,NA,37.5582666666667,-119.994583333333,UnitedStates,California,MariposaCounty,15,NA
GC3A17F,Hwy'49er:ColoradoMine&Camp,NA,37.5563166666667,-118.0281,UnitedStates,California,MariposaCounty,19,NA
GC3A19F,Hwy'49er:BuffaloMine,NA,37.5730833333333,-118.057383333333,UnitedStates,California,MariposaCounty,116,NA
GC3A1C7,Hwy'49er:MariposaMine,NA,37.4810833333333,-118.038633333333,UnitedStates,California,MariposaCounty,36,NA
GC3A1F8,Hwy'49er:RuthPierceMine,NA,37.4972,-119.824666666667,UnitedStates,California,MariposaCounty,121,NA
GC3A35D,GoldMine,NA,31.98685,-80.8494333333333,UnitedStates,Georgia,ChathamCounty,40,NA
GC3A7X9,Cave&Loco'sLow-KeyBedrockBash,NA,33.3801833333333,-96.9671166666667,UnitedStates,Texas,DentonCounty,241,NA
GC3A9GG,PineTreeCave,NA,33.8056333333333,-117.91505,UnitedStates,California,LosAngelesCounty,15,NA
GC3ABE6,Hwy'49er:VirginiaMine,NA,37.6766666666667,-119.831783333333,UnitedStates,California,MariposaCounty,42,NA
GC3ABFH,SerpentsCave4/4,NA,34.2767833333333,-117.34555,UnitedStates,California,VenturaCounty,21,NA
GC3AFVH,GT1227-CacheCave,NA,NA,NA,NA,NA,NA,NA,NA
GC3AFY7,BabyBatCave,NA,33.43265,-114.179816666667,UnitedStates,California,RiversideCounty,23,NA
GC3AJ86,CoonCave,NA,31.3915666666667,-96.4556166666667,UnitedStates,Texas,CoryellCounty,16,NA
GC3AJQ4,RedrockMineCache,NA,34.6533833333333,-117.3502,UnitedStates,California,LosAngelesCounty,1,NA
GC3AND8,JACKASSMINECACHE,NA,38.8298333333333,-120.986466666667,UnitedStates,California,ElDoradoCounty,63,NA
GC3APE1,CallawayGardens-Thislittlelightofmine,NA,32.8350333333333,-83.1283166666667,UnitedStates,Georgia,HarrisCounty,276,NA
GC3AQD0,ThisLittleLightofMine,NA,29.9177333333333,-96.0671333333333,UnitedStates,Texas,HaysCounty,13,NA
GC3AT0D,Mini-MineDump,NA,45.1947666666667,-92.7317666666667,UnitedStates,Minnesota,AnokaCounty,110,NA
GC3B6E,BoneCave,NA,39.69135,-77.2119333333333,UnitedStates,Maryland,AlleganyCounty,2,NA
GC3B8J4,CaveOffCarlisle,NA,34.1264,-117.140083333333,UnitedStates,California,VenturaCounty,21,NA
GC3B8K4,BeyondtheCave,NA,34.1279166666667,-117.138516666667,UnitedStates,California,VenturaCounty,5,NA
GC3B97F,NorthwoodsSoduku#1-CaveLakeView,NA,NA,NA,NA,NA,NA,NA,NA
GC3BWJ6,ThisLittleLightofMine,NA,32.2081833333333,-94.69375,UnitedStates,Texas,SmithCounty,23,NA
GC3BYP4,NickelMine,NA,NA,NA,NA,NA,NA,NA,NA
GC3C2M3,Here'smine-Where'syours?,NA,45.75515,-92.3312833333333,UnitedStates,Minnesota,MilleLacsCounty,14,NA
GC3C543,RuinsoftheMine,NA,39.19965,-120.957816666667,UnitedStates,California,NevadaCounty,27,NA
GC3CA68,TreePairalongMineHill,NA,NA,NA,NA,NA,NA,NA,NA
GC3CA6D,RottingLogRemnantalongMineHill,NA,NA,NA,NA,NA,NA,NA,NA
GC3CBBE,MineYourOwnBusiness,NA,31.7998166666667,-105.5019,UnitedStates,Texas,ElPasoCounty,33,NA
GC3CRQM,thatoldgangofmine...challenge,NA,39.3336,-120.267533333333,UnitedStates,California,ButteCounty,11,NA
GC3CVN8,DuckEggCoonCave,NA,43.5897666666667,-90.98615,UnitedStates,Wisconsin,VernonCounty,41,NA
GC3CX9V,CaveAdventure,NA,29.7058833333333,-100.645066666667,UnitedStates,Texas,ValVerdeCounty,9,NA
GC3D0P5,MineGate,NA,32.9662666666667,-114.159533333333,UnitedStates,California,ImperialCounty,12,NA
GC3D3T9,SilverMine,NA,38.5117,-121.08315,UnitedStates,California,SonomaCounty,14,NA
GC3D3TM,GoldMine,NA,NA,NA,NA,NA,NA,NA,NA
GC3DY1G,TreeCave,NA,37.1496833333333,-120.21235,UnitedStates,California,SantaClaraCounty,99,NA
GC3DZPC,WilubMine?,NA,NA,NA,NA,NA,NA,NA,NA
GC3EC5,TheCave,NA,33.0120666666667,-116.72695,UnitedStates,California,SanDiegoCounty,41,NA
GC3EPY6,SanCristobalMineCacheRevived,NA,NA,NA,NA,NA,NA,NA,NA
GC3EW77,DoodlebugCave,NA,32.9513833333333,-113.3678,UnitedStates,California,ImperialCounty,50,NA
GC3EX3F,DinoCave,NA,42.6812,-77.6244,UnitedStates,NewYork,WyomingCounty,78,NA
GC3F08N,ItsAllMine,NA,40.7259833333333,-121.4819,UnitedStates,California,ShastaCounty,11,NA
GC3F1B1,Plato'sCave,NA,33.4873,-85.26965,UnitedStates,Alabama,JeffersonCounty,39,NA
GC3F2Z6,MineisBIGGERthanyours,NA,33.1351,-116.735916666667,UnitedStates,California,SanDiegoCounty,34,NA
GC3F9WY,CaveDwelling,NA,40.33825,-87.2635333333333,UnitedStates,Illinois,McLeanCounty,80,NA
GC3FAB6,SweetTunnelO'Mine,NA,NA,NA,NA,NA,NA,NA,NA
GC3FD1K,ViroquaCave,NA,43.5551833333333,-89.1033833333333,UnitedStates,Wisconsin,VernonCounty,45,NA
GC3FRH2,Craig'sCave,NA,40.9794166666667,-87.6955333333333,UnitedStates,Illinois,LivingstonCounty,58,NA
GC3G28A,Caveman'scache,NA,34.1868333333333,-117.01395,UnitedStates,California,VenturaCounty,0,NA
GC3G4W9,bailysleviathanminerd.#16,NA,38.7620333333333,-118.343,UnitedStates,California,AlpineCounty,101,NA
GC3G4WG,bailysleviathanminerd.#17,NA,38.7584833333333,-118.346133333333,UnitedStates,California,AlpineCounty,106,NA
GC3G4WP,bailysleviathanminerd.#18,NA,38.7559666666667,-118.350183333333,UnitedStates,California,AlpineCounty,108,NA
GC3G76Q,LostMine,NA,41.9715666666667,-87.2797333333333,UnitedStates,Illinois,DeKalbCounty,89,NA
GC3GBR8,bailysleviathanminerd.#19,NA,38.7553666666667,-118.352666666667,UnitedStates,California,AlpineCounty,102,NA
GC3GBRP,bailysleviathanminerd.#20,NA,38.7538833333333,-118.353733333333,UnitedStates,California,AlpineCounty,106,NA
GC3GBRY,bailysleviathanminerd.#21,NA,38.7526833333333,-118.355833333333,UnitedStates,California,AlpineCounty,107,NA
GC3GBT8,bailysleviathanminerd.#22,NA,38.7513666666667,-118.357216666667,UnitedStates,California,AlpineCounty,108,NA
GC3GBWZ,bailysleviathanminerd.#23,NA,38.7464666666667,-118.359366666667,UnitedStates,California,AlpineCounty,106,NA
GC3GBXA,bailysleviathanminerd.#24,NA,38.74435,-118.35935,UnitedStates,California,AlpineCounty,101,NA
GC3GBXK,bailysleviathanminerd.#25,NA,38.7424166666667,-118.358833333333,UnitedStates,California,AlpineCounty,102,NA
GC3GBXR,bailysleviathanminerd.#26,NA,38.7408333333333,-118.3579,UnitedStates,California,AlpineCounty,106,NA
GC3GBY3,bailysleviathanminerd.#27,NA,38.7382833333333,-118.356666666667,UnitedStates,California,AlpineCounty,102,NA
GC3GBY9,bailysleviathanminerd.#28,NA,38.7362,-118.354466666667,UnitedStates,California,AlpineCounty,102,NA
GC3GBYG,bailysleviathanminerd.#29,NA,38.7342333333333,-118.353133333333,UnitedStates,California,AlpineCounty,82,NA
GC3GBYZ,bailysleviathanminerd.#30,NA,38.7329166666667,-118.351483333333,UnitedStates,California,AlpineCounty,102,NA
GC3GBZ8,bailysleviathanminerd.#31,NA,38.73145,-118.34955,UnitedStates,California,AlpineCounty,99,NA
GC3GBZE,bailysleviathanminerd.#32,NA,38.7302333333333,-118.347833333333,UnitedStates,California,AlpineCounty,104,NA
GC3GBZX,bailysleviathanminerd.#33,NA,38.72905,-118.346016666667,UnitedStates,California,AlpineCounty,105,NA
GC3GC02,bailysleviathanminerd.#34,NA,38.7270833333333,-118.344233333333,UnitedStates,California,AlpineCounty,98,NA
GC3GC05,bailysleviathanminerd.#35,NA,38.7249166666667,-118.344066666667,UnitedStates,California,AlpineCounty,102,NA
GC3GC0B,bailysleviathanminerd.#36,NA,38.7226166666667,-118.342783333333,UnitedStates,California,AlpineCounty,97,NA
GC3GC0K,bailysleviathanminerd.#37,NA,38.72085,-118.340933333333,UnitedStates,California,AlpineCounty,102,NA
GC3GC0V,bailysleviathanminerd.#38,NA,38.7176666666667,-118.3408,UnitedStates,California,AlpineCounty,103,NA
GC3GEWW,CaveViewCache,NA,47.7313666666667,-51.2836166666667,Canada,NewfoundlandandLabrador,DivisionNo.1AvalonPeninsula-St.John's,46,NA
GC3GEWW,CaveViewCache,NA,47.7313666666667,-51.2836166666667,Canada,NewfoundlandandLabrador,DivisionNo.1AvalonPeninsula-St.John's,46,NA
GC3GJ3E,ThisLittleLightofMine...,NA,53.90105,-110.683266666667,Canada,Alberta,DivisionNo.12ColdLake,5,NA
GC3GJMY,CreepyCave,NA,37.7574,-121.741383333333,UnitedStates,California,AlamedaCounty,168,NA
GC3GJTG,"Tellmeaboutthis""CopperMine""",NA,37.109,-120.64355,UnitedStates,California,SantaClaraCounty,50,NA
GC3GR5G,Mineandmylittlescache,NA,42.72555,-91.51905,UnitedStates,Iowa,BremerCounty,174,NA
GC3H4C9,GoldMineTrailheadCache,NA,48.9201666666667,-121.7345,UnitedStates,Washington,WhatcomCounty,98,NA
GC3HHQE,Hang'inRoundBackonMineHill,NA,NA,NA,NA,NA,NA,NA,NA
GC3HM5X,ARockCavealongStrangeBrew,NA,NA,NA,NA,NA,NA,NA,NA
GC3HNTW,WascottCopperMine#1,NA,46.22155,-90.42735,UnitedStates,Wisconsin,DouglasCounty,29,NA
GC3HTZZ,MakeMineaChiliCheeseHalf&Half!,NA,34.20435,-81.8271,UnitedStates,SouthCarolina,GreenwoodCounty,31,NA
GC3HX7D,Groupedelouvescave,NA,53.6711666666667,-112.514166666667,Canada,Alberta,DivisionNo.11Edmonton,41,NA
GC3HY5N,WascottCopperMine#2,NA,46.2222833333333,-90.4424333333333,UnitedStates,Wisconsin,DouglasCounty,23,NA
GC3HY69,WascottCopperMine#3,NA,46.22385,-90.4434833333333,UnitedStates,Wisconsin,DouglasCounty,20,NA
GC3HY77,WascottCopperMine#4,NA,46.2253333333333,-90.4447666666667,UnitedStates,Wisconsin,DouglasCounty,20,NA
GC3HYKW,CaveOfTheBearClan,NA,42.5267666666667,-89.1773833333333,UnitedStates,Iowa,DubuqueCounty,51,NA
GC3J1A7,ThisLittleLightofMine,NA,32.49105,-85.8789,UnitedStates,Alabama,ElmoreCounty,9,NA
GC3J6AK,TheCaveofCaerbannog,NA,37.5298333333333,-119.7184,UnitedStates,California,MariposaCounty,7,NA
GC3J7QR,WascottCopperMine#5,NA,46.2269,-90.4446166666667,UnitedStates,Wisconsin,DouglasCounty,15,NA
GC3J7W9,WascottCopperMine#6,NA,46.2297833333333,-90.44725,UnitedStates,Wisconsin,DouglasCounty,11,NA
GC3J7X4,WascottCopperMine#7,NA,46.2289166666667,-90.44495,UnitedStates,Wisconsin,DouglasCounty,10,NA
GC3J7YX,WascottCopperMine#8,NA,46.2271666666667,-90.4414666666667,UnitedStates,Wisconsin,DouglasCounty,11,NA
GC3J821,WascottCopperMine#9,NA,46.21925,-90.4407166666667,UnitedStates,Wisconsin,DouglasCounty,32,NA
GC3J83Y,WascottCopperMine#10,NA,46.2185666666667,-90.4431166666667,UnitedStates,Wisconsin,DouglasCounty,23,NA
GC3J86R,WascottCopperMine#11,NA,46.2168333333333,-90.4443666666667,UnitedStates,Wisconsin,DouglasCounty,24,NA
GC3J8HN,WascottCopperMine,NA,46.2198333333333,-90.4238833333333,UnitedStates,Wisconsin,DouglasCounty,17,NA
GC3JGHH,NiagaraCave,NA,43.5140166666667,-91.9451666666667,UnitedStates,Minnesota,FillmoreCounty,104,NA
GC3JK68,ASurpriseofMine,NA,NA,NA,NA,NA,NA,NA,NA
GC3JMBD,EastCopperMineLoopCache#1,NA,46.2171666666667,-90.42315,UnitedStates,Wisconsin,DouglasCounty,32,NA
GC3JMGY,Err:509,NA,NA,NA,NA,NA,NA,NA,NA
GC3JXJC,Forestville/MysteryCaveStateParkAvianAdventur,NA,43.64045,-91.78155,UnitedStates,Minnesota,FillmoreCounty,200,NA
GC3JXMR,HillAnnexMineStateParkAvianAdventure,NA,47.3264166666667,-92.7217166666667,UnitedStates,Minnesota,ItascaCounty,133,NA
GC3JXY4,SoudanUndergroundMineStateParkAvianAdventure,NA,47.8182666666667,-91.7611666666667,UnitedStates,Minnesota,St.LouisCounty,184,NA
GC3K1PT,WANTTOBUYAGOLDMINE,NA,NA,NA,NA,NA,NA,NA,NA
GC3K24W,MineHillTrailsideCache,NA,37.1937166666667,-120.13175,UnitedStates,California,SantaClaraCounty,48,NA
GC3K7ZW,WarrenParkCave,NA,42.0012166666667,-86.3168333333333,UnitedStates,Illinois,CookCounty,48,NA
GC3KD67,OneidaCountyCave,NA,45.6439,-88.5409333333333,UnitedStates,Wisconsin,OneidaCounty,118,NA
GC3KMY6,CurlyRockCave,NA,37.527,-112.670316666667,UnitedStates,Utah,WashingtonCounty,8,NA
GC3KWFQ,Jugomine,NA,43.67505,-98.6488666666667,UnitedStates,SouthDakota,BruleCounty,10,NA
GC3KWPM,LilleLoop-BlairmoreMineCache,NA,49.6152833333333,-113.555466666667,Canada,Alberta,DivisionNo.15Canmore,18,NA
GC3KWT2,TheMinePits,NA,49.6699166666667,-113.57355,Canada,Alberta,DivisionNo.15Canmore,10,NA
GC3KYQX,Abovethecave,NA,39.2188,-119.89005,UnitedStates,California,PlacerCounty,12,NA
GC3M5NY,BisonCave,NA,35.6152333333333,-96.4474166666667,UnitedStates,Oklahoma,OklahomaCounty,44,NA
GC3M6XG,ThisLittleLightofMine,NA,32.7098666666667,-96.8707166666667,UnitedStates,Texas,TarrantCounty,76,NA
GC3M8JJ,DoesThisCaveLookLikeaChineseGolirratoYou?,NA,NA,NA,NA,NA,NA,NA,NA
GC3MEPJ,Rhinoontheroadtothemine.,NA,40.7549833333333,-121.5821,UnitedStates,California,ShastaCounty,10,NA
GC3N0B5,VictoryIsMine!,NA,33.1818,-95.3558833333333,UnitedStates,Texas,CollinCounty,56,NA
GC3NGDN,TheTurquoiseMine,NA,34.4302666666667,-115.553966666667,UnitedStates,California,SanBernardinoCounty,12,NA
GC3NN7W,ThisLittleLightofMine,NA,33.6607833333333,-94.4098333333333,UnitedStates,Texas,LamarCounty,17,NA
GC3NQ64,Mini-caveonBigCedarCreek,NA,NA,NA,NA,NA,NA,NA,NA
GC3NRFJ,WoodenCave,NA,42.9536,-90.39315,UnitedStates,Iowa,FayetteCounty,10,NA
GC3P54B,MineRoad,NA,47.4441166666667,-100.136216666667,UnitedStates,NorthDakota,MercerCounty,6,NA
GC3P5XM,Layla'sRiverRun-CaveDweller,NA,42.5149,-92.68885,UnitedStates,Iowa,HardinCounty,25,NA
GC3PAWZ,Creature'sCacheCave,NA,38.0479666666667,-121.8523,UnitedStates,California,SolanoCounty,160,NA
GC3PBVH,RushmoreCave,NA,43.8732833333333,-102.668,UnitedStates,SouthDakota,PenningtonCounty,159,NA
GC3PJ09,OutlawCaveCache,NA,43.5904833333333,-105.047733333333,UnitedStates,Wyoming,JohnsonCounty,4,NA
GC3PN4T,ClanoftheCaveBear(Revitalized),NA,42.5624833333333,-88.9489666666667,UnitedStates,Wisconsin,RockCounty,25,NA
GC3PQK6,KAS#38-CavePark,NA,37.2754666666667,-96.8363833333333,UnitedStates,Kansas,SumnerCounty,76,NA
GC3PT2Y,Friday-Loudenmine,NA,40.7535333333333,-121.539766666667,UnitedStates,California,ShastaCounty,23,NA
GC3PVYN,Gollum'sCave,NA,41.9054166666667,-90.4857666666667,UnitedStates,Iowa,LinnCounty,35,NA
GC3PZWC,OnceUponAmine,NA,51.31125,-54.3790666666667,Canada,NewfoundlandandLabrador,DivisionNo.1AvalonPeninsula-St.John's,15,NA
GC3Q2CJ,Porterville'sOldCoalMineHill,NA,39.0824333333333,-86.1564333333333,UnitedStates,Illinois,CrawfordCounty,42,NA
GC3Q9C6,RL125:19ToTheCave!,NA,45.3113833333333,-90.3576,UnitedStates,Wisconsin,BarronCounty,48,NA
GC3Q9DZ,BayClingerAlongMineHill,NA,NA,NA,NA,NA,NA,NA,NA
GC3Q9EP,AReallyBigRockalongMineHill,NA,NA,NA,NA,NA,NA,NA,NA
GC3QZ0B,CaveSpringsCemetary,NA,36.2569333333333,-93.7767333333333,UnitedStates,Arkansas,BentonCounty,116,NA
GC3QZTQ,ReddingShaftMine,NA,NA,NA,NA,NA,NA,NA,NA
GC3R0RE,TheSuperHeroMiniCave,NA,35.1237833333333,-81.3913666666667,UnitedStates,SouthCarolina,GreenvilleCounty,27,NA
GC3R1N8,APEXMINE:Theoldtramstationrelics!,NA,47.7025333333333,-120.495066666667,UnitedStates,Washington,KingCounty,37,NA
GC3R2DP,YouGottaBeOuttaYerMine,NA,47.69555,-120.4728,UnitedStates,Washington,KingCounty,37,NA
GC3RJ4H,"TotheSeabatCave""...ahtunnel,NA,NA,NA,UnitedStates,Iowa,DubuqueCounty,21,NA
GC3XGZT,WoodenCave,NA,NA,NA,UnitedStates,Iowa,WapelloCounty,42,NA
GC55P7C,CoolCave,NA,NA,NA,UnitedStates,Iowa,WapelloCounty,NA,NA
GC592JP,GarrisonRock/HorseThiefCave,NA,NA,NA,UnitedStates,Iowa,WapelloCounty,13,NA
GC59322,TheBatCave,NA,NA,NA,UnitedStates,Iowa,ScottCounty,92,NA
GC5PHM6,CaveManagement,NA,NA,NA,UnitedStates,Iowa,FayetteCounty,4,NA
GC62VGA,Onthewayto""Searryl'sCaveHike2016",NA,42.1936,-89.0918833333333,UnitedStates,Iowa,JonesCounty,27,NA
GC3RR4J,CaveFindshisName,NA,33.0210833333333,-95.8930333333333,UnitedStates,Texas,HuntCounty,11,NA
GC3TF2K,ConcreteCave,NA,32.4683333333333,-83.1288666666667,UnitedStates,Georgia,MuscogeeCounty,24,NA
GC3TN8K,GBRTrail#52-Let'sCraftaMine!,NA,42.0330166666667,-96.7189166666667,UnitedStates,Nebraska,StantonCounty,47,NA
GC3V3AQ,LuckyStrikeMine,NA,48.8241833333333,-55.13605,Canada,NewfoundlandandLabrador,DivisionNo.1AvalonPeninsula-St.John's,14,NA
GC3V3QY,CAVECACHE,NA,48.4400166666667,-120.0487,UnitedStates,Washington,SkagitCounty,6,NA
GC3V9VN,BatCave,NA,32.7921833333333,-115.5862,UnitedStates,California,SanDiegoCounty,8,NA
GC3VBPH,PicturedRockCave,NA,42.97655,-90.8709166666667,UnitedStates,Wisconsin,GrantCounty,91,NA
GC3VGG4,Thislittlelightofmine,NA,40.7677,-86.1489333333333,UnitedStates,Illinois,IroquoisCounty,132,NA
GC3VJR6,"APEXMINE:A""SeriouslyChallengingCache""",NA,47.6951333333333,-120.487233333333,UnitedStates,Washington,KingCounty,4,NA
GC3VPN8,Vasquez'sCave,NA,34.479,-117.681733333333,UnitedStates,California,LosAngelesCounty,66,NA
GC3VTET,CaveCache(Stumped?DoNotEnter),NA,44.896,-92.81945,UnitedStates,Minnesota,RamseyCounty,15,NA
GC3VVKB,ZRRT-CaveIn,NA,44.2561833333333,-91.6013,UnitedStates,Minnesota,WabashaCounty,62,NA
GC3VVMD,ZRRT-AnotherCaveIn,NA,44.2405166666667,-91.6108,UnitedStates,Minnesota,WabashaCounty,74,NA
GC3VVNB,ZRRT-AnotherCaveIn(Again),NA,44.2301166666667,-91.6197333333333,UnitedStates,Minnesota,WabashaCounty,60,NA
GC3W24H,ZRRT-CaveInIV,NA,44.2335833333333,-91.64985,UnitedStates,Minnesota,WabashaCounty,25,NA
GC3W24X,ZRRT-CaveInV,NA,44.23805,-91.6756166666667,UnitedStates,Minnesota,WabashaCounty,65,NA
GC3WG82,MakemineaPolish,NA,38.8576,-121.786666666667,UnitedStates,California,YoloCounty,45,NA
GC3WT1R,MineAllMine,NA,34.2214666666667,-118.847766666667,UnitedStates,California,VenturaCounty,118,NA
GC3WTPA,Robinsonminestampmill,NA,39.8108166666667,-120.755616666667,UnitedStates,California,PlumasCounty,3,NA
GC3X09B,P.E.C.G.2012ThisLittleLightofMine,NA,43.1380833333333,-88.6943333333333,UnitedStates,Wisconsin,DaneCounty,19,NA
GC3X56B,COALMINE,NA,NA,NA,NA,NA,NA,NA,NA
GC3X8N1,PathtoBurtonCaveNaturePreserveBeginsHere,NA,39.8933166666667,-90.74885,UnitedStates,Illinois,AdamsCounty,24,NA
GC3XDJK,OBG:WorkingInTheChertMine,NA,47.3732333333333,-90.7714333333333,UnitedStates,Minnesota,LakeCounty,28,NA
GC3XKQ7,TheCave,NA,37.3273833333333,-118.980966666667,UnitedStates,California,FresnoCounty,21,NA
GC3Y943,SerpentsCaveTwo,NA,34.2815166666667,-117.346566666667,UnitedStates,California,VenturaCounty,7,NA
GC3YCGJ,ReyesCave,NA,34.6374666666667,-118.759666666667,UnitedStates,California,VenturaCounty,5,NA
GC3YGFV,"TRTMissingLinkCave",NA,39.2008166666667,-119.820216666667,UnitedStates,California,PlacerCounty,8,NA
GC3YK29,BlueCanyonMine,NA,48.6956833333333,-121.704266666667,UnitedStates,Washington,WhatcomCounty,78,NA
GC3YP95,OldGreerCountyCemetery-CaveCreek,NA,NA,NA,NA,NA,NA,NA,NA
GC3YZ9J,BearDenroadcavecache,NA,44.95085,-90.6023666666667,UnitedStates,Wisconsin,ChippewaCounty,106,NA
GC407Z5,ILikeMineChocolateCovered,NA,NA,NA,NA,NA,NA,NA,NA
GC4082Y,"WineVine.Mine",NA,NA,NA,NA,NA,NA,NA,NA
GC40B1V,LipsThatTouchLiquorWillNeverTouchMine,NA,NA,NA,NA,NA,NA,NA,NA
GC40BFB,WarNinjasCoyotecave!!,NA,37.66745,-121.505916666667,UnitedStates,California,SanMateoCounty,86,NA
GC40NGR,YESITSMINE,NA,NA,NA,NA,NA,NA,NA,NA
GC40TFJ,AMouseCave,NA,38.7787666666667,-96.4982666666667,UnitedStates,Kansas,SalineCounty,29,NA
GC40XF5,cavesay...lakepretty!,NA,NA,NA,NA,NA,NA,NA,NA
GC417KK,Thislittlelightofmine.,NA,38.0418666666667,-120.649166666667,UnitedStates,California,SanJoaquinCounty,83,NA
GC41ATK,RobbersCaveAdvance,NA,34.9959833333333,-94.6499,UnitedStates,Oklahoma,LatimerCounty,5,NA
GC41ENT,HEARTLANDTRAILCASSLAKEEXPRESS:THECAVE,NA,47.2772833333333,-93.3728166666667,UnitedStates,Minnesota,CassCounty,41,NA
GC41YP2,CaveofTrees,NA,NA,NA,NA,NA,NA,NA,NA
GC421WC,AnotherTinMineCache,NA,NA,NA,NA,NA,NA,NA,NA
GC42G3G,Nevermine...Duke'sTricky,NA,40.53605,-121.54045,UnitedStates,California,ShastaCounty,25,NA
GC42NXJ,TurnoffToPopcornCaveTrail,NA,40.9563833333333,-120.560233333333,UnitedStates,California,ShastaCounty,28,NA
GC42RBA,Cavedweller,NA,35.0184666666667,-79.0102166666667,UnitedStates,SouthCarolina,YorkCounty,62,NA
GC42TM4,AnotherMine?,NA,40.5211833333333,-121.491333333333,UnitedStates,California,ShastaCounty,15,NA
GC42TQT,"SpelunkingCavingCave",NA,38.7698166666667,-120.51175,UnitedStates,California,SutterCounty,173,NA
GC42YA0,EchoCave,NA,NA,NA,NA,NA,NA,NA,NA
GC436G1,CaveCache,NA,38.8846166666667,-93.2804166666667,UnitedStates,Kansas,JohnsonCounty,272,NA
GC439NN,TheBatCave,NA,33.6955333333333,-116.879816666667,UnitedStates,California,RiversideCounty,47,NA
GC43JAK,CaveSpringsChurch,NA,NA,NA,NA,NA,NA,NA,NA
GC43RJV,JamesGangCave,NA,38.5829166666667,-94.5442,UnitedStates,Kansas,FranklinCounty,63,NA
GC43VTD,CaveofPlants,NA,37.0946166666667,-120.357016666667,UnitedStates,California,SantaClaraCounty,20,NA
GC43XTA,JesseJamesCaveEarthCache,NA,38.58275,-94.5439166666667,UnitedStates,Kansas,FranklinCounty,89,NA
GC44JWB,PCT-ManCave,NA,50.858,-113.14635,Canada,Alberta,DivisionNo.15Canmore,25,NA
GC44KB9,DisneyCave,NA,NA,NA,NA,NA,NA,NA,NA
GC44Z5C,ThelostmineinPine,NA,34.2009,-117.8838,UnitedStates,California,LosAngelesCounty,13,NA
GC44Z7Y,"HuntforAztecTreasure(4):MineAllMine!",NA,29.0388333333333,-94.5266666666667,UnitedStates,Texas,BrazoriaCounty,2,NA
GC45146,AllMine,NA,36.8091333333333,-117.889316666667,UnitedStates,California,InyoCounty,22,NA
GC453DT,TheCatCave,NA,39.193,-95.4235166666667,UnitedStates,Kansas,RileyCounty,134,NA
GC454AP,*SM015H.O.w.s.AboutaCavein*,NA,34.7056333333333,-114.047233333333,UnitedStates,California,SanBernardinoCounty,54,NA
GC4592T,BeMine,NA,37.1009833333333,-112.474983333333,UnitedStates,Utah,WashingtonCounty,33,NA
GC45ADE,CaveofWonders,NA,47.5140666666667,-120.1163,UnitedStates,Washington,KingCounty,88,NA
GC45CVF,"Sprucefirorpine...whichoneismine?CARW2013",NA,53.5669666666667,-112.434433333333,Canada,Alberta,DivisionNo.11Edmonton,66,NA
GC45E4R,GOINGONAVANRIDE#4-BEARCAVE?,NA,35.4509,-97.1921333333333,UnitedStates,Oklahoma,WashitaCounty,7,NA
GC45EXZ,Mine...AKey,NA,33.9832166666667,-80.7389833333333,UnitedStates,SouthCarolina,LexingtonCounty,145,NA
GC45JYG,IntotheCave,NA,36.1593,-78.5114833333333,UnitedStates,NorthCarolina,AlamanceCounty,42,NA
GC45MPW,Merlin'sCave,NA,39.4419833333333,-87.2503666666667,UnitedStates,Illinois,ShelbyCounty,112,NA
GC45R66,GhostMine,NA,37.86645,-119.5348,UnitedStates,California,TuolumneCounty,24,NA
GC460JR,Caveinacave,NA,33.0777666666667,-96.9896166666667,UnitedStates,Texas,DentonCounty,63,NA
GC46CX9,AmineforLauren,NA,34.2148166666667,-117.874866666667,UnitedStates,California,LosAngelesCounty,13,NA
GC46CXA,1-800-FOOT-MINE,NA,34.2133333333333,-117.873683333333,UnitedStates,California,LosAngelesCounty,19,NA
GC46G9K,BackToTheCave,NA,48.6085833333333,-121.570633333333,UnitedStates,Washington,SkagitCounty,113,NA
GC46H33,AreyououtofyourMine?,NA,NA,NA,NA,NA,NA,NA,NA
GC46RFZ,ShinnCave,NA,37.5676,-120.0153,UnitedStates,California,AlamedaCounty,97,NA
GC46V0Z,BullDawgMine,NA,33.4626833333333,-110.491266666667,UnitedStates,Arizona,PinalCounty,68,NA
GC46V5H,BATCAVE2,NA,NA,NA,NA,NA,NA,NA,NA
GC46V6N,BATCAVE1,NA,NA,NA,NA,NA,NA,NA,NA
GC46WQ9,FalseCaveCache,NA,44.0552166666667,-102.634516666667,UnitedStates,SouthDakota,PenningtonCounty,123,NA
GC478G8,KZ-MineDetector,NA,34.4287166666667,-116.321783333333,UnitedStates,California,LosAngelesCounty,13,NA
GC47TW9,VulcanMineMeld,NA,32.9273333333333,-116.960466666667,UnitedStates,California,SanDiegoCounty,123,NA
GC47XQF,"YourPadOrMine?",NA,34.2434166666667,-116.040383333333,UnitedStates,California,LosAngelesCounty,22,NA
GC47Y78,PriestMineOverlook,NA,34.0159166666667,-113.06625,UnitedStates,California,RiversideCounty,1,NA
GC483PB,TheGoldMine,NA,35.48695,-96.4841666666667,UnitedStates,Oklahoma,OklahomaCounty,21,NA
GC48AX5,TooWeeMine,NA,32.8486333333333,-113.236983333333,UnitedStates,California,ImperialCounty,9,NA
GC48XFR,CargoMine,NA,32.8341,-113.220566666667,UnitedStates,California,ImperialCounty,26,NA
GC493J7,KZ-HazzardMine,NA,34.54255,-116.2714,UnitedStates,California,LosAngelesCounty,21,NA
GC495WH,BentoniteMine,NA,33.7446666666667,-87.4693166666667,UnitedStates,Mississippi,MonroeCounty,29,NA
GC49BDQ,randomcavewithacontainer,NA,34.0966,-82.0853333333333,UnitedStates,Georgia,GwinnettCounty,46,NA
GC49BZM,Dredgingforcache@Empiremine,NA,39.208,-120.9527,UnitedStates,California,NevadaCounty,92,NA
GC49E78,"It'sMineAllMine!",NA,48.8114333333333,-118.54315,UnitedStates,Washington,OkanoganCounty,26,NA
GC49GER,BadgerintheBear'sCave,NA,42.9297166666667,-87.1635,UnitedStates,Wisconsin,JeffersonCounty,8,NA
GC49Y3P,ThirtiethSurprise“GeorgeWashingtonMine”,NA,NA,NA,NA,NA,NA,NA,NA
GC4A0MA,EauClaireHistory:TheCaveLady(VioletLeigh),NA,NA,NA,NA,NA,NA,NA,NA
GC4A43Q,DelawareMine,NA,47.4235,-87.8979833333333,UnitedStates,Michigan,KeweenawCounty,61,NA
GC4AEEJ,SilverbrookMansion&CopperMine,NA,45.37565,-91.3328,UnitedStates,Wisconsin,PolkCounty,181,NA
GC4APVN,MiniTreeCave,NA,NA,NA,NA,NA,NA,NA,NA
GC4B8CG,Thislittlelightofmine#1,NA,38.4238333333333,-120.666966666667,UnitedStates,California,SacramentoCounty,111,NA
GC4B9,'C'IsForCaveDwellers,NA,36.50345,-120.800416666667,UnitedStates,California,SanBenitoCounty,287,NA
GC4BDHD,Thislittlelightofmine#2,NA,38.3883666666667,-120.640066666667,UnitedStates,California,SacramentoCounty,63,NA
GC4BDKZ,Thislittlelightofmine#6,NA,38.3817166666667,-120.634833333333,UnitedStates,California,SacramentoCounty,77,NA
GC4BEZK,TrailtoManganeseMine,NA,47.5316333333333,-52.8121833333333,Canada,NewfoundlandandLabrador,DivisionNo.1AvalonPeninsula-St.John's,8,NA
GC4BFA,VanaldenCave,NA,34.1318166666667,-117.437916666667,UnitedStates,California,LosAngelesCounty,62,NA
GC4BJXF,Thislittlelightofmine#3,NA,38.4767,-120.57965,UnitedStates,California,SacramentoCounty,76,NA
GC4BJXN,Thislittlelightofmine#4,NA,38.4253666666667,-120.538983333333,UnitedStates,California,SacramentoCounty,75,NA
GC4BJXZ,Thislittlelightofmine#5,NA,NA,NA,NA,NA,NA,NA,NA
GC4BRMT,Fibonacci'sFling#9-BeeMine,NA,32.5743166666667,-82.4341333333333,UnitedStates,Georgia,HoustonCounty,24,NA
GC4C1GT,QuarryCave,NA,34.5556166666667,-117.58255,UnitedStates,California,LosAngelesCounty,57,NA
GC4C3T2,Crittercave,NA,36.0532666666667,-89.47395,UnitedStates,Arkansas,GreeneCounty,49,NA
GC4C4JK,BlackAngus-ACoolCowCavingCache,NA,NA,NA,NA,NA,NA,NA,NA
GC4CCVM,HBCleanupCave,NA,34.2759666666667,-117.34385,UnitedStates,California,VenturaCounty,20,NA
GC4CEQH,Crittercave#2,NA,36.0631666666667,-89.50345,UnitedStates,Arkansas,GreeneCounty,54,NA
GC4CQD0,KeynotMineEarthcache,NA,36.7196166666667,-116.063516666667,UnitedStates,California,InyoCounty,4,NA
GC4CX3T,ThisLittleLightOfMine,NA,47.4309,-121.835316666667,UnitedStates,Washington,KingCounty,247,NA
GC4D50G,"ColdCaveTrail""NotAllWhoWanderAreLost""",NA,36.42675,-93.7788166666667,UnitedStates,Arkansas,BentonCounty,111,NA
GC4D6NR,MAG=MineAGeocache!,NA,NA,NA,NA,NA,NA,NA,NA
GC4DRQG,DCP#10-CavePointPark,NA,44.93165,-86.8255166666667,UnitedStates,Wisconsin,DoorCounty,364,NA
GC4DWR3,CaveIn-CarsonRiver#8,NA,NA,NA,NA,NA,NA,NA,NA
GC4DXYN,MineCreekCowboy,NA,38.146,-93.2756666666667,UnitedStates,Kansas,LinnCounty,231,NA
GC4E15,IbexMine,NA,35.6911166666667,-115.637583333333,UnitedStates,California,SanBernardinoCounty,25,NA
GC4EA5G,CaveoftheMoundsTrailCache,NA,43.01495,-88.1842333333333,UnitedStates,Wisconsin,DaneCounty,192,NA
GC4EB0X,'taintmine!,NA,NA,NA,NA,NA,NA,NA,NA
GC4EWEC,AdventureTime:Marceline'scave,NA,39.0400666666667,-119.0969,UnitedStates,California,PlacerCounty,0,NA
GC4FCQV,TheTreeCave,NA,37.4312833333333,-121.78975,UnitedStates,California,SanMateoCounty,134,NA
GC4FHJF,OctagonBatCave,NA,47.5208333333333,-51.0539666666667,Canada,NewfoundlandandLabrador,DivisionNo.1AvalonPeninsula-St.John's,320,NA
GC4FHJF,OctagonBatCave,NA,47.5208333333333,-51.0539666666667,Canada,NewfoundlandandLabrador,DivisionNo.1AvalonPeninsula-St.John's,320,NA
GC4FP3C,TheTalcMineofManuels,NA,47.4860666666667,-51.04445,Canada,NewfoundlandandLabrador,DivisionNo.1AvalonPeninsula-St.John's,31,NA
GC4FPKD,YLHD-Thislittlelightofmine...,NA,53.5375666666667,-111.810483333333,Canada,Alberta,DivisionNo.10Lloydminster,157,NA
GC4G44M,Can'tSeemToMakeYouMine,NA,48.70785,-121.514316666667,UnitedStates,Washington,WhatcomCounty,147,NA
GC4G7AG,Trail118DomBoscoProspectMine,NA,NA,NA,NA,NA,NA,NA,NA
GC4G9A5,CelbrateHallock#3,NA,48.7766666666667,-95.0555166666667,UnitedStates,Minnesota,KittsonCounty,69,NA
GC4GDKA,TheCaveMan,NA,42.1400333333333,-86.0729333333333,UnitedStates,Illinois,CookCounty,49,NA
GC4GTHC,100GGS:SweetChildO'Mine(63),NA,46.29875,-91.5669166666667,UnitedStates,Minnesota,PineCounty,16,NA
GC4GVQH,ArcoMineLake,NA,46.90915,-92.0871333333333,UnitedStates,Minnesota,CassCounty,57,NA
GC4HER9,SierraTrek:StumpedonthewaytoExcelsiorMine,NA,39.4061166666667,-119.49275,UnitedStates,California,NevadaCounty,12,NA
GC4HQPP,GABC5-ThisLittleLightofMine,NA,32.3196666666667,-94.7184,UnitedStates,Texas,SmithCounty,139,NA
GC4J4V4,CLT:CONCRETECAVE,NA,46.2432166666667,-95.9841,UnitedStates,Minnesota,OtterTailCounty,49,NA
GC4J64D,HikingSeries:DarbyWindCave,NA,43.6864833333333,-109.035583333333,UnitedStates,Wyoming,TetonCounty,0,NA
GC4JQQA,SlateMine,NA,48.6097166666667,-52.6007166666667,Canada,NewfoundlandandLabrador,DivisionNo.1AvalonPeninsula-St.John's,14,NA
GC4JVGG,LandMine,NA,36.5195166666667,-120.187683333333,UnitedStates,California,MontereyCounty,7,NA
GC4K1GC,THISLITTLELIGHTOFMINE#1,NA,31.1477333333333,-88.7790666666667,UnitedStates,Mississippi,ForrestCounty,89,NA
GC4KBG2,#PopcornMine,NA,47.7787833333333,-91.88135,UnitedStates,Minnesota,St.LouisCounty,4,NA
GC4MAWT,CaveMonster,NA,52.57765,-112.5619,Canada,Alberta,DivisionNo.8RedDeer,37,NA
GC4MN96,CattleCave,NA,NA,NA,NA,NA,NA,NA,NA
GC4P84A,MakeMineaHamburger,NA,46.1400333333333,-121.105366666667,UnitedStates,Washington,CowlitzCounty,178,NA
GC4PNQQ,UndergroundMineElevator,NA,43.03335,-107.6017,UnitedStates,Wyoming,FremontCounty,70,NA
GC4PZRJ,I'llTakeMineonTheRocks,NA,NA,NA,NA,NA,NA,NA,NA
GC4Q3PM,AmericatheBeautiful-#7MammothCaveNat.Park,NA,39.6048166666667,-75.33805,UnitedStates,Maryland,BaltimoreCounty,96,NA
GC4Q6CA,MineView,NA,40.1517166666667,-120.957333333333,UnitedStates,California,PlumasCounty,7,NA
GC4Q71R,SunsetLodeMine,NA,43.8179666666667,-102.330633333333,UnitedStates,SouthDakota,CusterCounty,42,NA
GC4QCXA,ThisLittleLightofMine,NA,35.5181166666667,-119.299216666667,UnitedStates,California,SanLuisObispoCounty,17,NA
GC4QG17,MakeminePepperoni-number57inI-5series,NA,46.1652333333333,-121.097266666667,UnitedStates,Washington,CowlitzCounty,104,NA
GC4QYTX,VictoryisMine!,NA,44.8765666666667,-96.9938,UnitedStates,SouthDakota,CodingtonCounty,34,NA
GC4QYX8,ThiscacheisMINE,NA,NA,NA,NA,NA,NA,NA,NA
GC4RHPT,Yourmidnightormine?,NA,42.0652166666667,-86.1299166666667,UnitedStates,Illinois,CookCounty,25,NA
GC4RMEP,Cave-Inn,NA,47.6856666666667,-116.624566666667,UnitedStates,Washington,SpokaneCounty,283,NA
GC4T1H5,Wally'sGoldMine,NA,NA,NA,NA,NA,NA,NA,NA
GC4T3VC,Coalminehill,NA,54.11835,-114.497133333333,Canada,Alberta,DivisionNo.13Whitecourt,24,NA
GC4T81Y,MaryBelleMine,NA,44.1207833333333,-102.27375,UnitedStates,SouthDakota,PenningtonCounty,9,NA
GC4T8VE,lilkgurlMine,NA,32.9723166666667,-114.14085,UnitedStates,California,ImperialCounty,13,NA
GC4TEF9,GlitterGulchMine,NA,45.1077166666667,-94.9672333333333,UnitedStates,Minnesota,KandiyohiCounty,40,NA
GC4TJY5,ballardcave,NA,NA,NA,NA,NA,NA,NA,NA
GC4TKNC,thislittlelightofmine,NA,31.1883666666667,-82.47785,UnitedStates,Georgia,CookCounty,108,NA
GC4TQJD,Jethro'sDiamondMine,NA,NA,NA,NA,NA,NA,NA,NA
GC4TTHM,IndianCave,NA,40.2471333333333,-94.4808166666667,UnitedStates,Nebraska,RichardsonCounty,43,NA
GC4TYEJ,JackDanielsisafriendofmine!!,NA,32.8477666666667,-114.045016666667,UnitedStates,California,ImperialCounty,9,NA
GC4V1HC,StarMineCampground,NA,NA,NA,NA,NA,NA,NA,NA
GC4V2B5,BB'sMineShaftGapCache!,NA,29.74645,-93.0253,UnitedStates,Texas,HarrisCounty,27,NA
GC4VA1A,Bubba'sSilverMine,NA,NA,NA,NA,NA,NA,NA,NA
GC4VHWY,MineJunkPlusOne,NA,NA,NA,NA,NA,NA,NA,NA
GC4VQP2,TrailtoOakCanyonMine,NA,32.9088833333333,-115.4899,UnitedStates,California,SanDiegoCounty,15,NA
GC4VWX4,CaveofDoom,NA,37.83105,-93.2795,UnitedStates,Kansas,BourbonCounty,8,NA
GC4W0X5,LastTowerofAlpineMineBucketLine,NA,38.66725,-118.27185,UnitedStates,California,AlpineCounty,23,NA
GC4WCFN,CaveDweller,NA,34.5637166666667,-116.892166666667,UnitedStates,California,SanBernardinoCounty,10,NA
GC4WEKE,Mineinthemiddle,NA,34.6085333333333,-114.336583333333,UnitedStates,California,SanBernardinoCounty,32,NA
GC4WH1W,CaveLandingandPirate'sCoveParking,NA,35.1764333333333,-119.2809,UnitedStates,California,SanLuisObispoCounty,214,NA
GC4WPVP,TurtleCave,NA,34.4799833333333,-118.561416666667,UnitedStates,California,VenturaCounty,7,NA
GC4WR5K,Justpassingthrough,NA,37.9024166666667,-120.778633333333,UnitedStates,California,SanJoaquinCounty,101,NA
GC4WR8W,BluelightSpecial!,NA,37.9376333333333,-120.758666666667,UnitedStates,California,SanJoaquinCounty,17,NA
GC4WR9X,AliceIsMine,NA,34.0535833333333,-113.490033333333,UnitedStates,California,RiversideCounty,6,NA
GC4WTH1,ScootOverCaveCache,NA,30.4866833333333,-96.2785,UnitedStates,Texas,WilliamsonCounty,33,NA
GC4WV18,BookWorm,NA,37.9348166666667,-120.753733333333,UnitedStates,California,SanJoaquinCounty,17,NA
GC4WV1H,KennedyPark,NA,37.9287666666667,-120.753633333333,UnitedStates,California,SanJoaquinCounty,20,NA
GC4X17P,1-BYOP-youcan'tusemine,NA,NA,NA,NA,NA,NA,NA,NA
GC4X332,BluelightSpecial#2,NA,38.129,-120.7403,UnitedStates,California,SanJoaquinCounty,157,NA
GC4X3PV,MineWouldBeYou,NA,34.8964,-87.4516833333333,UnitedStates,Mississippi,AlcornCounty,77,NA
GC4X5KH,2-BYOP-youcan'tusemine,NA,53.5207666666667,-112.428883333333,Canada,Alberta,DivisionNo.11Edmonton,90,NA
GC4X8W8,CanineMineField,NA,33.9307666666667,-83.6649166666667,UnitedStates,Georgia,DeKalbCounty,108,NA
GC4X8Z4,COUGARSCAVE,NA,44.0965166666667,-102.44775,UnitedStates,SouthDakota,PenningtonCounty,21,NA
GC4XPGA,QwikAgMine,NA,37.9193833333333,-121.9439,UnitedStates,California,ContraCostaCounty,155,NA
GC4Y725,"CargoMinejustanotherhole!",NA,32.8312,-113.220883333333,UnitedStates,California,ImperialCounty,52,NA
GC4YEXZ,9ValentineBeMine,NA,46.27515,-118.790716666667,UnitedStates,Washington,FranklinCounty,149,NA
GC4YGFA,BeMineAtValentine,NA,43.6575,-89.6559166666667,UnitedStates,Wisconsin,VernonCounty,46,NA
GC4YHKE,"BeMine,Valentine",NA,NA,NA,NA,NA,NA,NA
NA,NA,NA,NA,NA,NA,NA,NA,NA,NA
GC4YQKV,LetterboxofLove:BeMine,NA,33.8087333333333,-83.6156,UnitedStates,Georgia,FultonCounty,155,NA
GC4YRX2,BigCave:IrishHillsPointsofInterest,NA,35.2546,-119.281483333333,UnitedStates,California,SanLuisObispoCounty,27,NA
GC4YRXA,MineView:DurataVistaTrail,NA,35.2573666666667,-119.2873,UnitedStates,California,SanLuisObispoCounty,24,NA
GC4ZBCZ,InjunJoe'sCave,NA,NA,NA,NA,NA,NA,NA,NA
GC4ZP0D,Robber'sCaveView,NA,37.01175,-95.6836833333333,UnitedStates,Kansas,ChautauquaCounty,20,NA
GC4ZQRY,☠DIZFIZRedSaucePaddleSeries-BelowTheCave,NA,NA,NA,NA,NA,NA,NA,NA
GC4ZTBR,LowerNobleMine,NA,NA,NA,NA,NA,NA,NA,NA
GC4ZZND,PropmanCave,NA,47.2807333333333,-119.58085,UnitedStates,Washington,ChelanCounty,8,NA
GC5044J,CCRockCave,NA,33.3128166666667,-116.901833333333,UnitedStates,California,SanDiegoCounty,83,NA
GC50P7F,Dragon'sCave,NA,33.3158333333333,-86.33455,UnitedStates,Alabama,TuscaloosaCounty,40,NA
GC50QXE,CAVECREEKSCHOOL,NA,NA,NA,NA,NA,NA,NA,NA
GC5151,MicaMineCache,NA,32.6396,-115.88815,UnitedStates,California,SanDiegoCounty,93,NA
GC51B3R,MissionImpossible:Episode5-ECRiverCave,NA,NA,NA,NA,NA,NA,NA,NA
GC51D7C,Canyoufindmine?,NA,34.1224,-115.903383333333,UnitedStates,California,SanBernardinoCounty,28,NA
GC51QH2,DryCreekCaveTrail,NA,34.5792666666667,-84.8731166666667,UnitedStates,Georgia,ChattoogaCounty,21,NA
GC51W5P,"NoTheHonorIsMine",NA,39.1216166666667,-87.4584,UnitedStates,Illinois,EffinghamCounty,139,NA
GC5296,Rhino'sGrotto(cave),NA,46.7365833333333,-119.215166666667,UnitedStates,Washington,YakimaCounty,24,NA
GC52AHJ,CaveCranny,NA,44.5510666666667,-91.4518833333333,UnitedStates,Minnesota,GoodhueCounty,24,NA
GC52J2T,WhenyougoyourwayandIgomine,NA,39.35305,-75.2739333333333,UnitedStates,Maryland,BaltimoreCounty,23,NA
GC52PKN,CoalMine,NA,32.98005,-115.424,UnitedStates,California,SanDiegoCounty,80,NA
GC52PKP,CopperMine,NA,32.9815833333333,-115.423283333333,UnitedStates,California,SanDiegoCounty,94,NA
GC52PKX,SilverMine,NA,32.98365,-115.423,UnitedStates,California,SanDiegoCounty,101,NA
GC52PM1,GoldMine,NA,32.9859,-115.425333333333,UnitedStates,California,SanDiegoCounty,77,NA
GC52PM6,DiamondMine,NA,32.9865333333333,-115.429516666667,UnitedStates,California,SanDiegoCounty,72,NA
GC52PM8,PlatinumMine,NA,32.9849,-115.430883333333,UnitedStates,California,SanDiegoCounty,69,NA
GC536XX,SmallCave,NA,40.1932166666667,-79.9576166666667,UnitedStates,Pennsylvania,WashingtonCounty,90,NA
GC53CRA,UpperPennMine,NA,NA,NA,NA,NA,NA,NA,NA
GC53KHQ,CCCNP-TheTreeFernCave,NA,34.6192666666667,-86.1972833333333,UnitedStates,Alabama,ColbertCounty,67,NA
GC53KT9,CaveofTheWinds,NA,41.8974333333333,-87.5325333333333,UnitedStates,Illinois,KaneCounty,11,NA
GC5451B,Minedumpvalley,NA,47.2887333333333,-92.5127666666667,UnitedStates,Minnesota,ItascaCounty,27,NA
GC54CKG,Mineoryours?,NA,37.5383,-120.43445,UnitedStates,California,AlamedaCounty,64,NA
GC54CKN,Mineyoumanners!,NA,37.4360333333333,-120.4878,UnitedStates,California,SantaClaraCounty,63,NA
GC54GFH,"CliffTreeRootCave",NA,47.1078333333333,-121.347566666667,UnitedStates,Washington,PierceCounty,10,NA
GC5598E,MooseMountainIceCave,NA,50.9088,-113.190816666667,Canada,Alberta,DivisionNo.15Canmore,21,NA
GC55EVB,BlackhawkMine,NA,NA,NA,NA,NA,NA,NA,NA
GC55T2W,MooseMountainMiniCave,NA,50.9090333333333,-113.193366666667,Canada,Alberta,DivisionNo.15Canmore,14,NA
GC55WX2,NewBlackDiamondMinefanhouse,NA,47.4526833333333,-121.890583333333,UnitedStates,Washington,KingCounty,70,NA
GC56F1N,LowerSalmonLakeMine,NA,39.6489833333333,-119.354983333333,UnitedStates,California,SierraCounty,13,NA
GC56FPX,CaveSpringsSwagRepositoryandTravelBugHotel,NA,36.26355,-93.7687166666667,UnitedStates,Arkansas,BentonCounty,54,NA
GC56JYP,OLDBRIDGETOBATCAVE,NA,42.1111166666667,-103.013,UnitedStates,Wyoming,PlatteCounty,43,NA
GC56N54,Guardingthecave,NA,36.1198833333333,-92.8747333333333,UnitedStates,Arkansas,BooneCounty,83,NA
GC56WKF,WaterMine,NA,38.7519,-121.686633333333,UnitedStates,California,NapaCounty,5,NA
GC5705Z,LockeMine,NA,39.686,-119.422983333333,UnitedStates,California,SierraCounty,8,NA
GC5731H,CaveofWonders,NA,40.85055,-120.467283333333,UnitedStates,California,ShastaCounty,8,NA
GC574KZ,GoldLakeMine,NA,39.6695333333333,-119.356166666667,UnitedStates,California,SierraCounty,11,NA
GC57GH0,CiscoKid(Wasafriendofmine),NA,45.7107333333333,-92.3510166666667,UnitedStates,Minnesota,MilleLacsCounty,5,NA
GC57M0K,FriendsofMine,NA,33.90875,-82.0318166666667,UnitedStates,Georgia,GwinnettCounty,52,NA
GC58474,TheBatsofCrystalCave🦇,NA,36.4578666666667,-93.74145,UnitedStates,Arkansas,BentonCounty,57,NA
GC5855B,WhiteQuartzMine,NA,43.88135,-102.393966666667,UnitedStates,SouthDakota,PenningtonCounty,46,NA
GC588Z8,BeeMine,NA,NA,NA,NA,NA,NA,NA,NA
GC58AZB,ViewoftheCave,NA,32.9072833333333,-116.783383333333,UnitedStates,California,SanDiegoCounty,53,NA
GC58RCH,DGB-Anoldwateringholeofmine...,NA,41.51185,-86.4631833333333,UnitedStates,Illinois,CookCounty,34,NA
GC591EK,HurleyCave,NA,48.9713666666667,-118.220833333333,UnitedStates,Washington,OkanoganCounty,2,NA
GC596H3,TreeCave,NA,35.6173166666667,-120.849516666667,UnitedStates,California,SanLuisObispoCounty,17,NA
GC59BK7,FeatherbugCave,NA,48.19955,-119.405516666667,UnitedStates,Washington,ChelanCounty,5,NA
GC5A4C8,Didtheyplaykickthecanatthemine?,NA,39.7605166666667,-119.294233333333,UnitedStates,California,PlumasCounty,13,NA
GC5A4D9,MammothMine,NA,39.75785,-119.292833333333,UnitedStates,California,PlumasCounty,11,NA
GC5A7T3,RoundLakeMine,NA,39.6845333333333,-119.323216666667,UnitedStates,California,PlumasCounty,22,NA
GC5AB6,Grayson'sGoldMine,NA,32.971,-95.374,UnitedStates,Texas,DallasCounty,44,NA
GC5AHA5,MammothConsolidatedMine,NA,37.59325,-117.0125,UnitedStates,California,MonoCounty,60,NA
GC5AJGG,TinMineWaterfall,NA,47.5541,-121.19935,UnitedStates,Washington,KitsapCounty,28,NA
GC5ATNJ,Fricke'sCave-AlluvialFanandErosion,NA,30.7700166666667,-89.8403166666667,UnitedStates,Louisiana,WashingtonParish,53,NA
GC5AV4E,MilfordMineMemorialPark,NA,46.53795,-92.0353333333333,UnitedStates,Minnesota,CrowWingCounty,42,NA
GC5AYZR,SCT-Cave?,NA,33.9777833333333,-83.0017833333333,UnitedStates,Georgia,PolkCounty,67,NA
GC5BJ6Z,Dave'sCave,NA,43.87085,-90.7908166666667,UnitedStates,Wisconsin,LaCrosseCounty,49,NA
GC5BKBZ,MineSweeper,NA,38.3627833333333,-96.3533833333333,UnitedStates,Kansas,McPhersonCounty,83,NA
GC5C286,Mineyourownbusiness!,NA,37.2265833333333,-117.3952,UnitedStates,California,InyoCounty,2,NA
GC5C69,GoldMountainMineCache,NA,43.9852166666667,-102.3912,UnitedStates,SouthDakota,PenningtonCounty,222,NA
GC5CN2T,SANDANDGRAVELMINEOVERLOOK,NA,40.6714166666667,-98.8904166666667,UnitedStates,Nebraska,BuffaloCounty,48,NA
GC5CT24,BlackRanchMiniCave,NA,40.9598166666667,-120.359466666667,UnitedStates,California,ShastaCounty,8,NA
GC5CVNN,Strataca-UndergroundSaltMine,NA,38.0437166666667,-96.13245,UnitedStates,Kansas,RenoCounty,141,NA
GC5D5G1,IndianCave,NA,33.85615,-115.130566666667,UnitedStates,California,RiversideCounty,2,NA
GC5DAZ7,CaveSpringNorthCemetery.,NA,34.1173333333333,-84.6713833333333,UnitedStates,Georgia,FloydCounty,38,NA
GC5DAZ8,CaveSpringEarthcache,NA,NA,NA,NA,NA,NA,NA,NA
GC5DAZZ,RoundHillsCemetery,NA,34.1078833333333,-84.6495833333333,UnitedStates,Georgia,FloydCounty,88,NA
GC5DB0F,QuailRidge.,NA,34.1047333333333,-84.6496666666667,UnitedStates,Georgia,FloydCounty,91,NA
GC5DB0W,Theoldconcretetrestle.,NA,34.0912333333333,-84.6509,UnitedStates,Georgia,FloydCounty,91,NA
GC5DB2G,GuardingGSDentrancebridge.,NA,34.0999666666667,-84.6553666666667,UnitedStates,Georgia,FloydCounty,126,NA
GC5DB39,DeadGoatGate.,NA,34.0717166666667,-84.6605,UnitedStates,Georgia,PolkCounty,17,NA
GC5DD83,ArgonautMine:MinetheView,NA,38.3627666666667,-119.214016666667,UnitedStates,California,AmadorCounty,32,NA
GC5DDCH,BunkerHillMineShaft:FiggyForest,NA,38.4252666666667,-119.175483333333,UnitedStates,California,AmadorCounty,54,NA
GC5DDCN,⛏QuartzCrystalMine:TheLetterboxofLegend💎,NA,NA,NA,NA,NA,NA,NA,NA
GC5DH08,PACB2014-CaveMonster,NA,40.8297833333333,-88.21145,UnitedStates,Illinois,PeoriaCounty,16,NA
GC5DJHC,PACB2014-CaveYeller,NA,40.8131333333333,-88.1938333333333,UnitedStates,Illinois,PeoriaCounty,18,NA
GC5EQHT,4HillsMine,NA,39.6977333333333,-119.286583333333,UnitedStates,California,SierraCounty,5,NA
GC5EYMV,DesertCave2334,NA,NA,NA,NA,NA,NA,NA,NA
GC5F05J,Etowahrivercave,NA,34.2155333333333,-84.9896,UnitedStates,Georgia,BartowCounty,8,NA
GC5F16,TheElPasoTinMineCache,NA,31.9358,-105.5123,UnitedStates,Texas,ElPasoCounty,35,NA
GC5F7CX,ClanoftheCaveBear,NA,37.0085166666667,-120.280783333333,UnitedStates,California,SantaClaraCounty,4,NA
GC5F8M1,3-BYOP-youcan'tusemine,NA,NA,NA,NA,NA,NA,NA,NA
GC5H721,TheLordoftheRings:Gollum'sCave,NA,38.9073666666667,-119.171616666667,UnitedStates,California,ElDoradoCounty,8,NA
GC5H9T2,GovDodge-OntheWaytotheCave,NA,NA,NA,NA,NA,NA,NA,NA
GC5HEX1,SplitMineDrinkingHole,NA,33.21185,-113.2399,UnitedStates,California,ImperialCounty,3,NA
GC5HQAJ,Shutterspot:DiamondMineDisaster,NA,41.28885,-87.7666666666667,UnitedStates,Illinois,WillCounty,37,NA
GC5HTG3,TequepisCave,NA,NA,NA,NA,NA,NA,NA,NA
GC5HZN4,Tothebatcave,NA,36.4351833333333,-93.7766,UnitedStates,Arkansas,BentonCounty,8,NA
GC5J1KQ,MineView,NA,NA,NA,NA,NA,NA,NA,NA
GC5J1MD,BelowtheOldMine,NA,NA,NA,NA,NA,NA,NA,NA
GC5J2GX,{MHX}SecretCaveTrailhead,NA,34.0612333333333,-117.065666666667,UnitedStates,California,LosAngelesCounty,28,NA
GC5J8PB,CrystaldriftCave,NA,35.1460666666667,-100.2752,UnitedStates,Texas,RandallCounty,90,NA
GC5JDGK,SamBassTreasureCacheCave#1,NA,NA,NA,NA,NA,NA,NA,NA
GC5JEXN,RockyPointCave,NA,33.0126666666667,-96.8633333333333,UnitedStates,Texas,DentonCounty,6,NA
GC5JFEK,LostMine,NA,33.8668,-116.9951,UnitedStates,California,RiversideCounty,4,NA
GC5JN8F,DoxeyPark,NA,37.8204333333333,-120.758583333333,UnitedStates,California,SanJoaquinCounty,32,NA
GC5JNA7,RXMarkstheSpot,NA,37.8269666666667,-120.764233333333,UnitedStates,California,SanJoaquinCounty,125,NA
GC5JRFY,HopSkipandaJumpfromtheMineGateCache,NA,32.9647333333333,-114.160466666667,UnitedStates,California,ImperialCounty,6,NA
GC5JTNN,GG,NA,37.80005,-120.802816666667,UnitedStates,California,SanJoaquinCounty,164,NA
GC5JTPF,DiamondOaksPark,NA,37.8132833333333,-120.808083333333,UnitedStates,California,SanJoaquinCounty,15,NA
GC5K2R5,Pluto'sCave,NA,41.5680333333333,-121.7175,UnitedStates,California,SiskiyouCounty,23,NA
GC5K2Z5,ArchatSandCave,NA,37.5003166666667,-87.3535833333333,UnitedStates,Illinois,PopeCounty,6,NA
GC5KJCH,LegendaryDawnMine,NA,34.2267,-117.869666666667,UnitedStates,California,LosAngelesCounty,8,NA
GC5MA3D,FTLOC#6-BEMINE,NA,NA,NA,NA,NA,NA,NA,NA
GC5MGXZ,OldMine,NA,NA,NA,NA,NA,NA,NA,NA
GC5MHVR,TheCacheCaveBrunch,NA,47.6853333333333,-116.625,UnitedStates,Washington,SpokaneCounty,55,NA
GC5MMNP,RainbowGoesToThePark(ORANGE),NA,33.5758166666667,-116.750816666667,UnitedStates,California,RiversideCounty,77,NA
GC5NNTF,Drake'sCave&SunsetBeach-NotaNudeBeach!,NA,35.1752666666667,-119.278366666667,UnitedStates,California,SanLuisObispoCounty,5,NA
GC5NXQ1,Forestville/MysteryCaveCalloftheWildflowers,NA,43.6404166666667,-91.7815,UnitedStates,Minnesota,FillmoreCounty,233,NA
GC5NY29,HillAnnexMineStateParkCalloftheWildflowers,NA,47.3264166666667,-92.7217166666667,UnitedStates,Minnesota,ItascaCounty,180,NA
GC5P4JA,LakeVermillion-SoudanUndergroundMineStatePark,NA,47.81995,-91.7613333333333,UnitedStates,Minnesota,St.LouisCounty,167,NA
GC5P4V1,LostinaCave,NA,NA,NA,NA,NA,NA,NA,NA
GC5P86J,ThisLittleLightofMine,NA,39.24045,-96.3694833333333,UnitedStates,Kansas,OttawaCounty,7,NA
GC5PBQJ,TheLimestoneCave,NA,37.9302833333333,-120.002016666667,UnitedStates,California,ContraCostaCounty,33,NA
GC5PDGE,GoldMine,NA,NA,NA,NA,NA,NA,NA,NA
GC5Q4JB,OrevilleSparMicaMine,NA,43.8561666666667,-102.373316666667,UnitedStates,SouthDakota,PenningtonCounty,17,NA
GC5QGP5,CastaicCave,NA,NA,NA,NA,NA,NA,NA,NA
GC5QVT6,EasterCave,NA,47.3012166666667,-117.74385,UnitedStates,Washington,LincolnCounty,8,NA
GC5R2NA,CaveClimber,NA,39.1613,-89.3827833333333,UnitedStates,Illinois,CalhounCounty,8,NA
GC5R50C,TrollCave,NA,36.9765166666667,-120.430716666667,UnitedStates,California,SantaClaraCounty,25,NA
GC5R8HE,AHoleCave,NA,34.1066333333333,-117.367083333333,UnitedStates,California,LosAngelesCounty,7,NA
GC5RCCW,⬆ElevatortoTheCaveTrail⬇,NA,NA,NA,NA,NA,NA,NA,NA
GC5RVMR,CreekCave,NA,38.9402166666667,-94.8981166666667,UnitedStates,Kansas,DouglasCounty,47,NA
GC5RYBT,SecretCave,NA,41.6720833333333,-120.665216666667,UnitedStates,California,ModocCounty,28,NA
GC5TAHR,Rockin'Cave,NA,41.5654666666667,-108.788833333333,UnitedStates,Wyoming,SweetwaterCounty,23,NA
GC5TH97,SaltatGoldBelleMineandMillingCompany,NA,NA,NA,NA,NA,NA,NA,NA
GC5TW1J,7.MineShaft,NA,42.1997833333333,-90.9597833333333,UnitedStates,Iowa,JonesCounty,39,NA
GC5V6MG,CaveTrailConifer,NA,NA,NA,NA,NA,NA,NA,NA
GC5VDWV,Rainier1001:LayserCave,NA,46.4599666666667,-120.140066666667,UnitedStates,Washington,LewisCounty,237,NA
GC5X02N,ReturntotheBatCave,NA,33.74195,-83.273,UnitedStates,Georgia,DouglasCounty,75,NA
GC5Y0WT,MerryChristmasMine,NA,NA,NA,NA,NA,NA,NA,NA
GC5Y0WT,MerryChristmasMine,NA,NA,NA,NA,NA,NA,NA,NA
GC5YRND,KohlMine,NA,36.0636333333333,-94.1474333333333,UnitedStates,Oklahoma,TulsaCounty,138,NA
GC5YX3M,OhGuardianofMine,NA,44.2774833333333,-89.18505,UnitedStates,Wisconsin,JacksonCounty,36,NA
GC5ZCP8,TwinCulvertsCave,NA,39.4460666666667,-89.3365166666667,UnitedStates,Illinois,PikeCounty,33,NA
GC5ZDKV,"It'snotmineit's.....",NA,30.8891333333333,-88.8787,UnitedStates,Mississippi,StoneCounty,62,NA
GC5ZF44,TreasureCave,NA,33.282,-116.991916666667,UnitedStates,California,SanDiegoCounty,8,NA
GC5ZFQK,CaveWarmingMeet&Greet,NA,47.6580333333333,-116.78505,UnitedStates,Washington,SpokaneCounty,40,NA
GC5ZMZ2,OBXGeekinvadestheCave,NA,47.6580333333333,-116.78505,UnitedStates,Washington,SpokaneCounty,23,NA
GC5ZPPY,ThisLittleLightofMine,NA,41.93155,-87.2515333333333,UnitedStates,Illinois,DeKalbCounty,169,NA
GC6010W,RedTopMountainIronMineEarthcache,NA,34.1328333333333,-83.2963166666667,UnitedStates,Georgia,BartowCounty,96,NA
GC605DA,STAR:DoctorWhoandtheCacheCaveStation,NA,47.6717166666667,-116.719216666667,UnitedStates,Washington,SpokaneCounty,572,NA
GC607QR,I'mCaveJohnson,NA,33.2858333333333,-86.5181666666667,UnitedStates,Alabama,TuscaloosaCounty,4,NA
GC60G9R,ElfCave,NA,32.48055,-83.1218166666667,UnitedStates,Georgia,MuscogeeCounty,25,NA
GC60XTN,CavemonasteryofUplistsikhe,NA,41.9682166666667,NA,Georgia,InnerKartli,GoriMunicipality,101,NA
GC615D8,Ole'sCaveCache,NA,46.0683166666667,-121.7737,UnitedStates,Washington,SkamaniaCounty,13,NA
GC619AQ,MiniCave,NA,43.4968666666667,-95.2623833333333,UnitedStates,SouthDakota,LincolnCounty,19,NA
GC61BER,HelenBerylMine,NA,43.7126,-102.302816666667,UnitedStates,SouthDakota,CusterCounty,22,NA
GC624NP,MusicCity:AsylumCave,NA,NA,NA,NA,NA,NA,NA,NA
GC62JV8,SnowShoeMine,NA,46.4631333333333,-93.9596666666667,UnitedStates,Minnesota,CrowWingCounty,18,NA
GC62V61,RockAlter,NA,34.1637666666667,-84.6267333333333,UnitedStates,Georgia,FloydCounty,98,NA
GC62V7B,DeadGoatGate.,NA,34.0714166666667,-84.66085,UnitedStates,Georgia,PolkCounty,46,NA
GC62V7G,WelcometoCaveSpring.,NA,34.1142833333333,-84.6674666666667,UnitedStates,Georgia,FloydCounty,135,NA
GC62V7T,TheJVKcache.,NA,34.1091333333333,-84.6589833333333,UnitedStates,Georgia,FloydCounty,8,NA
GC62VED,BiwabikMine,NA,47.5411666666667,-91.6571833333333,UnitedStates,Minnesota,St.LouisCounty,13,NA
GC631CE,LittleBuggie'sNemoRockCaveCache,NA,34.6070333333333,-116.159783333333,UnitedStates,California,LosAngelesCounty,11,NA
GC63JC3,FiveManCave,NA,NA,NA,NA,NA,NA,NA,NA
GC63N92,BeeCaveBaptistchuch-historiccemetery,NA,30.30925,-96.0529333333333,UnitedStates,Texas,TravisCounty,101,NA
GC63XEC,WhoisupforsomeGIFFintheManCave?(Moved),NA,37.7346666666667,-96.6384333333333,UnitedStates,Kansas,SedgwickCounty,23,NA
GC644DF,TheLostLedgestoneMine,NA,32.66275,-96.5974,UnitedStates,Texas,TarrantCounty,18,NA
GC64BZ5,GIFFNightattheCave,NA,47.6579166666667,-116.78505,UnitedStates,Washington,SpokaneCounty,32,NA
GC658,Diamond'sMine,NA,33.4422166666667,-83.3232333333333,UnitedStates,Georgia,CowetaCounty,14,NA
GC65F0N,PlummerMineHeadframe,NA,46.4075166666667,-89.7081666666667,UnitedStates,Wisconsin,IronCounty,31,NA
GC65FQC,"BeaverLakeRockCaveandPaddle",NA,NA,NA,NA,NA,NA,NA,NA
GC65XAY,GameDayAtTheCave,NA,47.6579166666667,-116.78505,UnitedStates,Washington,SpokaneCounty,19,NA
GC669Y6,ThisLittleLightofMine,NA,NA,NA,NA,NA,NA,NA,NA
GC66AXG,BeeCavesculpturePark,NA,30.30695,-96.05265,UnitedStates,Texas,TravisCounty,145,NA
GC66DF,SlabtownCave,NA,37.56795,-91.9688666666667,UnitedStates,Missouri,TexasCounty,20,NA
GC66KFH,WhiskeyCave,NA,37.6105166666667,-87.6493166666667,UnitedStates,Illinois,GallatinCounty,4,NA
GC673HZ,CaveDweller,NA,NA,NA,NA,NA,NA,NA,NA
GC6779B,BearinaCave,NA,41.4486833333333,-70.4861833333333,UnitedStates,RhodeIsland,WashingtonCounty,20,NA
GC679G1,"ColdCave""NotAllWhoWanderAreLost""🦇",NA,NA,NA,NA,NA,NA,NA,NA
GC681YG,SouthernHillsLoopMine,NA,43.6762166666667,-102.3642,UnitedStates,SouthDakota,CusterCounty,18,NA
GC68FEB,TheCaveCrew,NA,36.9909166666667,-118.28585,UnitedStates,California,MaderaCounty,11,NA
GC695H5,ACaveofBrambles,NA,36.9794666666667,-120.050533333333,UnitedStates,California,SantaCruzCounty,26,NA
GC6ABCQ,FissureorStreamErosionCave,NA,NA,NA,NA,NA,NA,NA,NA
GC6ACM8,OrganicLandMine,NA,NA,NA,NA,NA,NA,NA,NA
GC6APKH,FavoritePlacesofMine,NA,30.3509,-96.6281333333333,UnitedStates,Texas,BastropCounty,10,NA
GC6B192,SearrylsCaveHike2016,NA,42.2130666666667,-89.0871333333333,UnitedStates,Iowa,JonesCounty,15,NA
GC6B8,CacheatMineCreek,NA,38.1324666666667,-93.2878666666667,UnitedStates,Kansas,LinnCounty,20,NA
GC6BFT0,3rdAnnualGeocaching/HikingEvent-FiveManCave,NA,45.6262166666667,-90.6449166666667,UnitedStates,Wisconsin,RuskCounty,14,NA
GC6BKMX,BeMine,NA,29.783,-94.2851666666667,UnitedStates,Texas,HarrisCounty,3,NA
GC6BMWC,TotheBatCaveRobin!,NA,NA,NA,NA,NA,NA,NA,NA
GC6BQ09,TheBatCave,NA,34.6071166666667,-116.162233333333,UnitedStates,California,LosAngelesCounty,17,NA
GC6CZ0N,HiketoFrankenstein'sCave2016,NA,42.1961,-89.1250166666667,UnitedStates,Iowa,JacksonCounty,11,NA
GC6D0N5,RatCave,NA,NA,NA,NA,NA,NA,NA,NA
GC6D1VA,TreeCave,NA,31.1893333333333,-97.9115333333333,UnitedStates,Texas,LampasasCounty,3,NA
GC6DAQB,CaveMountainEast,NA,34.4187333333333,-85.5968166666667,UnitedStates,Alabama,MarshallCounty,20,NA
GC6DG45,AlumCaveHollow,NA,NA,NA,NA,NA,NA,NA,NA
GC6DG63,ThisLittleLightofMine,NA,32.8845833333333,-89.6562333333333,UnitedStates,Mississippi,YazooCounty,2,NA
GC6DHNH,Thiswayto'HorseThiefCave'!,NA,39.9593166666667,-100.251366666667,UnitedStates,Kansas,CheyenneCounty,46,NA
GC6DHR2,HorseThiefCave,NA,39.99005,-100.254166666667,UnitedStates,Kansas,CheyenneCounty,92,NA
GC6DPDX,Mineyourbusiness,NA,50.6777,-113.753666666667,Canada,Alberta,DivisionNo.6Calgary,0,NA
GC6DT16,RedRockCave,NA,35.3705833333333,-116.00205,UnitedStates,California,KernCounty,0,NA
GC6DZNC,TheCave,NA,33.02085,-113.336283333333,UnitedStates,California,ImperialCounty,11,NA
GC6E0B,ChoateMine,NA,39.4126333333333,-75.1659333333333,UnitedStates,Maryland,BaltimoreCounty,18,NA
GC6E0D,PitMine,NA,39.4169666666667,-75.1683,UnitedStates,Maryland,BaltimoreCounty,17,NA
GC6EBYJ,Coalminestar,NA,33.1937166666667,-97.2620666666667,UnitedStates,Texas,YoungCounty,0,NA
GC6EJFM,StalagmitesareCaveCones,NA,47.3963,-125.0865,UnitedStates,Washington,NA,0,NA
GC6F05,TwinFallsCave,NA,46.7733333333333,-90.6092666666667,UnitedStates,Wisconsin,BayfieldCounty,321,NA
GC6F7WG,GateToIceCave,NA,43.8737833333333,-102.07725,UnitedStates,SouthDakota,PenningtonCounty,21,NA
GC6F7WT,ToIceCaveFS2891-B,NA,43.8706833333333,-102.072416666667,UnitedStates,SouthDakota,PenningtonCounty,22,NA
GC6F7XE,ToIceCaveFS289,NA,43.8651,-102.068133333333,UnitedStates,SouthDakota,PenningtonCounty,22,NA
GC6FBFK,Don'tMineatNight,NA,40.3060333333333,-82.9378666666667,UnitedStates,Ohio,DelawareCounty,64,NA
GC6FD2P,BB'sMineShaftGapCache2!,NA,29.74645,-93.0253,UnitedStates,Texas,HarrisCounty,11,NA
GC6G49M,BlackForestCave,NA,38.99155,-121.2396,UnitedStates,California,LakeCounty,5,NA
GC6G63G,GoingtoRussellCaveNationalMonument,NA,34.9349,-84.2403333333333,UnitedStates,Alabama,JacksonCounty,44,NA
GC6GBNX,Itsacave,NA,42.0415666666667,-95.8221333333333,UnitedStates,Iowa,MononaCounty,3,NA
GC6GCYV,ReflectionsoftheMine,NA,30.3546166666667,-96.7582833333333,UnitedStates,Texas,BastropCounty,15,NA
GC6GG51,CaveintheWall:AugustineRoad,NA,33.48275,-114.762466666667,UnitedStates,California,RiversideCounty,8,NA
GC6GYVV,"IMeMine",NA,45.6478333333333,-92.5906166666667,UnitedStates,Minnesota,IsantiCounty,30,NA
GC6HKG9,FlatRockCave,NA,NA,NA,NA,NA,NA,NA,NA
GC6HXW2,OffTheBeatenPathSeries-InTheCave?,NA,51.1726333333333,-113.547016666667,Canada,Alberta,DivisionNo.6Calgary,127,NA
GC6J7NR,TheCave-A13,NA,33.5266166666667,-100.275866666667,UnitedStates,Texas,LubbockCounty,7,NA
GC6JF3R,CaveMountainCheeseburgeronaSummit,NA,34.42065,-85.5961166666667,UnitedStates,Alabama,MarshallCounty,5,NA
GC6JRF7,Rainier1003:BoulderCave,NA,46.95785,-120.9063,UnitedStates,Washington,YakimaCounty,128,NA
GC6K4BT,10Candles:TakeFlighttotheCoffeeCave,NA,38.81085,-93.0443833333333,UnitedStates,Kansas,JohnsonCounty,22,NA
GC6K4DP,MoroCanyonCave,NA,33.5936333333333,-116.211816666667,UnitedStates,California,OrangeCounty,25,NA
GC6KBVD,HotWax:StillMine,NA,46.0918333333333,-91.5833333333333,UnitedStates,Minnesota,PineCounty,14,NA
GC6KBYD,SweetChildO'Mine,NA,46.36565,-92.7662833333333,UnitedStates,Minnesota,AitkinCounty,23,NA
GC6KCYV,MulberryMine,NA,NA,NA,NA,NA,NA,NA,NA
GC6N2PE,BATCAVEREDUX,NA,NA,NA,NA,NA,NA,NA,NA
GC6PE9Y,ThisLittleLightofMine,NA,42.1902166666667,-87.6420666666667,UnitedStates,Illinois,McHenryCounty,56,NA
GC6PZCP,TheCave(HavaCacheSeries),NA,34.3145666666667,-113.785766666667,UnitedStates,California,SanBernardinoCounty,24,NA
GC6QRF2,Prospector'sNoGloryMine,NA,43.7752833333333,-102.483183333333,UnitedStates,SouthDakota,CusterCounty,85,NA
GC6QRZA,SulfurSpringsCaveDweller,NA,NA,NA,NA,NA,NA,NA,NA
GC6R3B2,TheCaveWatcher,NA,NA,NA,NA,NA,NA,NA,NA
GC6RJ4M,BatCaveBytheBakerBridge,NA,48.6614666666667,-120.33175,UnitedStates,Washington,WhatcomCounty,5,NA
GC6RVNZ,Caveman,NA,32.7439333333333,-116.7679,UnitedStates,California,SanDiegoCounty,6,NA
GC6TAH0,GIFFNightattheCave,NA,47.6579166666667,-116.78505,UnitedStates,Washington,SpokaneCounty,26,NA
GC6TKJD,TIM-BER!Cave,NA,40.3603666666667,-120.65795,UnitedStates,California,PlumasCounty,2,NA
GC6TRBW,CaveCemetery,NA,37.54725,-99.7476166666667,UnitedStates,Kansas,GrayCounty,5,NA
GC6TWM0,MBT-BeMine,NA,44.88895,-88.58125,UnitedStates,Wisconsin,MarathonCounty,43,NA
GC6V0DZ,JuraCave,NA,51.0752333333333,-114.854466666667,Canada,Alberta,DivisionNo.15Canmore,16,NA
GC6V7JW,OysterPoint:Caveview,NA,NA,NA,NA,NA,NA,NA,NA
GC6VAZQ,MovieNightattheCave,NA,47.6579166666667,-116.78505,UnitedStates,Washington,SpokaneCounty,13,NA
GC6VC58,CaveTrick-or-Treat,NA,47.6579666666667,-116.784933333333,UnitedStates,Washington,SpokaneCounty,9,NA
GC6VRYC,BeeCaveCentralParkPicnic,NA,30.3146666666667,-96.0480666666667,UnitedStates,Texas,TravisCounty,1,NA
GC6W21M,CaveSpringEarthcache,NA,34.1050333333333,-84.6654333333333,UnitedStates,Georgia,FloydCounty,83,NA
GC6W3BT,Thislittlelightofmine,NA,33.5209333333333,-83.6823333333333,UnitedStates,Georgia,ClaytonCounty,42,NA
GC6WN48,ALittleBlueinALittleCave,NA,34.1152166666667,-117.293216666667,UnitedStates,California,LosAngelesCounty,6,NA
GC6WXQT,GameDayAtTheCave,NA,47.6579166666667,-116.78505,UnitedStates,Washington,SpokaneCounty,15,NA
GC6X2EW,MineField,NA,30.4577,-96.3342666666667,UnitedStates,Texas,TravisCounty,13,NA
GC6X4GB,TheBigYear(MovieattheCave),NA,47.6579666666667,-116.784933333333,UnitedStates,Washington,SpokaneCounty,15,NA
GC6XEMM,TrollMine,NA,45.7043666666667,-120.610466666667,UnitedStates,Washington,KlickitatCounty,17,NA
GC6Y7ZN,TheAmericanPresident(MovieattheCave),NA,47.6579666666667,-116.784933333333,UnitedStates,Washington,SpokaneCounty,6,NA
GC6Y96J,15MileMineWashhouse,NA,NA,NA,NA,NA,NA,NA,NA
GC6YKQJ,BearHollowCaveNotAllWhoWanderAreLost,NA,NA,NA,NA,NA,NA,NA,NA
GC6YR4R,LeapYear(MovieattheCave),NA,47.6579666666667,-116.784933333333,UnitedStates,Washington,SpokaneCounty,19,NA
GC6YTCF,MayaAngelou,NA,37.9346666666667,-120.7533,UnitedStates,California,SanJoaquinCounty,14,NA
GC6YVD2,"Bat""Lamb""Cavekinda",NA,38.4484166666667,-119.380816666667,UnitedStates,California,AmadorCounty,15,NA
GC6Z44M,CaveoftheBeast,NA,34.26715,-113.460283333333,UnitedStates,California,SanBernardinoCounty,5,NA
GC6Z8QZ,MagaliaMine,NA,39.84445,-120.4102,UnitedStates,California,ButteCounty,13,NA
GC6ZMH9,TheTroublewithHarry(MovieattheCave),NA,47.6579666666667,-116.784933333333,UnitedStates,Washington,SpokaneCounty,12,NA
GC702DD,BeeMine,NA,NA,NA,NA,NA,NA,NA,NA
GC7046B,TalusCave-PinnaclesNM,NA,36.50235,-120.7999,UnitedStates,California,SanBenitoCounty,35,NA
GC707KF,ManhattanCoalMine-HiddenHistorySeries,NA,40.6489833333333,-88.42865,UnitedStates,Illinois,TazewellCounty,16,NA
GC70D87,Cheeto'sMulti81:TinyCave,NA,42.1291666666667,-90.6171666666667,UnitedStates,Iowa,LinnCounty,12,NA
GC70F76,KeepaCloseWatchOnThisHeartofMine,NA,NA,NA,NA,NA,NA,NA,NA
GC71EPT,FlodderinAmerika(MovieattheCave),NA,47.6579666666667,-116.784933333333,UnitedStates,Washington,SpokaneCounty,9,NA
GC71MH8,HorseCave,NA,37.50635,-87.1200333333333,UnitedStates,Illinois,JohnsonCounty,4,NA
GC72N3R,SCAS-SteveCave,NA,51.0718333333333,-114.78865,Canada,Alberta,DivisionNo.15Canmore,3,NA
GC734V4,Camel'sHumpCaveCache,NA,44.8388166666667,-91.0298,UnitedStates,Minnesota,WashingtonCounty,36,NA
GC734V4,Camel'sHumpCaveCache,NA,44.8388166666667,-91.0298,UnitedStates,Minnesota,WashingtonCounty,36,NA
GC734WZ,it'smine,NA,37.1005,-112.553333333333,UnitedStates,Utah,WashingtonCounty,8,NA
GC735DB,Cacheway77-BatCave,NA,37.8277,-121.791033333333,UnitedStates,California,AlamedaCounty,43,NA
GC737JP,MayCityOilCo.Mine,NA,NA,NA,NA,NA,NA,NA,NA
GC7423V,TexasEggHunt#8BeeCave,NA,30.30395,-96.0613333333333,UnitedStates,Texas,TravisCounty,111,NA
GC74578,TheBatCave,NA,NA,NA,NA,NA,NA,NA,NA
GC74XM0,ALittleCaveforaLittleManGoose,NA,39.4989833333333,-75.3779166666667,UnitedStates,Maryland,BaltimoreCounty,10,NA
GC752P1,ThisLittleLightOfMine|SingaSong,NA,41.2699166666667,-95.8002333333333,UnitedStates,Nebraska,DouglasCounty,45,NA
GC768TZ,NewCaveMeetUp,NA,47.67175,-116.7192,UnitedStates,Washington,SpokaneCounty,46,NA
GC76P2Y,CaveontheOnionPeakCircuit,NA,52.13695,-115.964066666667,Canada,Alberta,DivisionNo.9RockyMountainHouse,0,NA
GC76V3Q,6DoingDisappearAmazingCowboyTrialSaysMine,NA,37.45365,-121.818933333333,UnitedStates,California,SanMateoCounty,14,NA
GC76XAW,BB's(3)MineShaftGapCache!,NA,29.77345,-93.0845333333333,UnitedStates,Texas,ChambersCounty,8,NA
GC77GZ7,IntheRoseValleyFallsCave,NA,NA,NA,NA,NA,NA,NA,NA
GC78480,PuzzleintheCave,NA,30.2644666666667,-96.1918333333333,UnitedStates,Texas,TravisCounty,35,NA
GC788F,FatHilll,NA,36.5368,-116.188983333333,UnitedStates,California,InyoCounty,11,NA
GC78DGJ,Cavecache,NA,43.46595,-87.4151833333333,UnitedStates,Wisconsin,DodgeCounty,28,NA
GC78P6C,nps-cave,NA,38.0123333333333,-121.8265,UnitedStates,California,ContraCostaCounty,80,NA
GC7917K,BrokenBootGoldMine,NA,44.37055,-102.257316666667,UnitedStates,SouthDakota,LawrenceCounty,37,NA
GC79D,GreensCaveOverlookIII,NA,38.1824333333333,-90.9085,UnitedStates,Missouri,WashingtonCounty,45,NA
GC7A4E,DynamitedCaveCache,NA,45.96095,-120.3013,UnitedStates,Washington,SkamaniaCounty,124,NA
GC7A5G9,GatewaytoNobel1Mine,NA,NA,NA,NA,NA,NA,NA,NA
GC7ACZD,WhitewaterCave,NA,44.0442166666667,-90.0281333333333,UnitedStates,Minnesota,WinonaCounty,5,NA
GC7B67C,PictographCave,NA,47.2562,-119.901883333333,UnitedStates,Washington,KittitasCounty,4,NA
GC7BRTE,CaveHillsLutheranChurch,NA,45.6880833333333,-102.433383333333,UnitedStates,SouthDakota,HardingCounty,12,NA
GC7CCG6,AjaxCoalMineEarthcache,NA,50.0507833333333,-109.210483333333,Canada,Alberta,DivisionNo.1MedicineHat,33,NA
GC7D30Z,MineCreekDayUseArea,NA,NA,NA,NA,NA,NA,NA,NA
GC7DA85,Cave-Man,NA,40.80945,-91.4066166666667,UnitedStates,Iowa,DavisCounty,17,NA
GC7DNF0,CaveTrick-or-Treat#2,NA,47.6717833333333,-116.719133333333,UnitedStates,Washington,SpokaneCounty,13,NA
GC7DV0Q,K2Mine,NA,48.8810333333333,-117.324833333333,UnitedStates,Washington,FerryCounty,10,NA
GC7E3MA,ThisLittleLightofMine,NA,30.89375,-93.9493666666667,UnitedStates,Texas,JasperCounty,18,NA
GC7E6DP,Deadman'scave,NA,NA,NA,NA,NA,NA,NA,NA
GC7EE76,CaveSpringsHydrogeology,NA,34.1056833333333,-84.66365,UnitedStates,Georgia,FloydCounty,85,NA
GC7EWVV,BB's(4)MineShaftGapCache!,NA,29.74645,-93.0253,UnitedStates,Texas,HarrisCounty,17,NA
GC7F0KB,Youcandecoratemineandsfcchaz'sChristmastree,NA,NA,NA,NA,NA,NA,NA,NA
GC7F50G,TheScrollofDing-BatCave,NA,NA,NA,NA,NA,NA,NA,NA
GC7F8F,Mysterymineshaft,NA,44.2304333333333,-102.077733333333,UnitedStates,SouthDakota,LawrenceCounty,14,NA
GC7FC7K,TheTreeCave,NA,37.5233666666667,-121.676366666667,UnitedStates,California,SanMateoCounty,27,NA
GC7GF97,What'sYourSign?MineisBriggsChaney.,NA,39.10955,-75.0027833333333,UnitedStates,Maryland,MontgomeryCounty,34,NA
GC7HH3Y,STAR:CaveMeet-n-Greet,NA,47.672,-116.719666666667,UnitedStates,Washington,SpokaneCounty,66,NA
GC7HRGE,TheHauntedCave-DinnerandBeer,NA,40.78,-95.29225,UnitedStates,Nebraska,LancasterCounty,138,NA
GC7HTFV,BatCaveNorth,NA,34.37045,-117.3873,UnitedStates,California,LosAngelesCounty,2,NA
GC7JQVG,SR'sNorthboundQEII-SilverMine,NA,51.4166,-113.99905,Canada,Alberta,DivisionNo.6Calgary,67,NA
GC7K0TN,ReverseWherigo-GeneseeMine,NA,53.3176666666667,-113.776233333333,Canada,Alberta,DivisionNo.11Edmonton,21,NA
GC7K3ZJ,LittleCave,NA,NA,NA,NA,NA,NA,NA,NA
GC7K7D8,HillAnnexMineStateParkAquaticQuest,NA,47.3264166666667,-92.7217166666667,UnitedStates,Minnesota,ItascaCounty,72,NA
GC7K7DN,Forestville/MysteryCaveStateParkAquaticQuest,NA,43.62855,-91.7780833333333,UnitedStates,Minnesota,FillmoreCounty,91,NA
GC7KX3G,It'saTypicalSituation(BatCave),NA,33.092,-95.2868833333333,UnitedStates,Texas,CollinCounty,23,NA
GC7M10R,ThisLittleLightOfMine#1-MiniTBHotel,NA,29.6501666666667,-94.3813333333333,UnitedStates,Texas,FortBendCounty,44,NA
GC7MAF8,"BlowingSpringsCave""NAWWAL”🦇",NA,NA,NA,NA,NA,NA,NA,NA
GC7N0EE,Robber's(Haunted!)Cave,NA,40.78,-95.29225,UnitedStates,Nebraska,LancasterCounty,10,NA
GC7N17N,AbandonedMine,NA,47.36505,-121.556833333333,UnitedStates,Washington,KingCounty,16,NA
GC7N2QW,ReverseWIGO-CoalMineofBeverly,NA,53.5610833333333,-112.593333333333,Canada,Alberta,DivisionNo.11Edmonton,37,NA
GC7NKMM,YourGuessisasGoodasMine!,NA,46.0901166666667,-91.7577166666667,UnitedStates,Wisconsin,BurnettCounty,9,NA
GC7NP6R,CAVE-IndianCaverns,NA,40.1922666666667,-82.9373,UnitedStates,Ohio,DelawareCounty,3,NA
GC7NT7M,Salmon-CougarCave,NA,45.7104833333333,-121.3155,UnitedStates,Washington,ClarkCounty,64,NA
GC7PYYC,TreeCave,NA,47.6866833333333,-121.810016666667,UnitedStates,Washington,KingCounty,74,NA
GC7PZ7T,SilverMineCarpeDiem,NA,NA,NA,NA,NA,NA,NA,NA
GC7Q1A2,RockCave,NA,35.0966666666667,-116.014616666667,UnitedStates,California,KernCounty,12,NA
GC7Q27A,PrometheusCave,NA,42.3764333333333,NA,Georgia,Imereti,TskaltuboMunicipality,70,NA
GC7QP2W,ThisLittleLightofMine!,NA,41.41115,-91.0689333333333,UnitedStates,Iowa,MarionCounty,92,NA
GC7QP4Q,☠️Crap!AnotherStonerCaveHide!☠️,NA,NA,NA,NA,NA,NA,NA,NA
GC7QTDW,TheFailureAtTheCave,NA,45.0870166666667,-91.0007166666667,UnitedStates,Minnesota,RamseyCounty,24,NA
GC7R1NY,"YoustayonyoursideI'llstayonmine!",NA,NA,NA,NA,NA,NA,NA,NA
GC7R27K,"BigRockSmallCave",NA,42.6698833333333,-88.9732166666667,UnitedStates,Wisconsin,RockCounty,36,NA
GC7RVP5,Cave?,NA,NA,NA,NA,NA,NA,NA,NA
GC7T1DP,SilverKingMine,NA,48.4986333333333,-116.645333333333,UnitedStates,Washington,PendOreilleCounty,2,NA
GC7TM7K,ColorfulCityCave,NA,41.9353666666667,-86.26655,UnitedStates,Illinois,CookCounty,12,NA
GC7V552,TheCave,NA,43.8708166666667,-90.7909166666667,UnitedStates,Wisconsin,LaCrosseCounty,37,NA
GC7VEXJ,"GhostsMythsandLegends:LostLemonMine",NA,49.6549333333333,-113.4172,Canada,Alberta,DivisionNo.15Canmore,20,NA
GC7W1T7,YetiCave,NA,29.5692333333333,-94.4486333333333,UnitedStates,Texas,FortBendCounty,1,NA
GC7W6VZ,Dragon’sCave,NA,48.7313833333333,-121.566216666667,UnitedStates,Washington,WhatcomCounty,21,NA
GC7WWK6,"Mineallmine",NA,34.9525666666667,-117.730733333333,UnitedStates,California,KernCounty,7,NA
GC7XA88,SnowshoeThompson'sCave,NA,38.77835,-118.112766666667,UnitedStates,California,AlpineCounty,8,NA
GC7XBXR,SchermerhornParkCave,NA,37.0457166666667,-93.3593,UnitedStates,Kansas,CherokeeCounty,48,NA
GC7XJQZ,ShadyCave,NA,47.7373833333333,-51.1807333333333,Canada,NewfoundlandandLabrador,DivisionNo.1AvalonPeninsula-St.John's,8,NA
GC7XJQZ,ShadyCave,NA,47.7373833333333,-51.1807333333333,Canada,NewfoundlandandLabrador,DivisionNo.1AvalonPeninsula-St.John's,8,NA
GC7XZ7H,BEARCAVE,NA,40.3619666666667,-120.64115,UnitedStates,California,PlumasCounty,4,NA
GC7Y9TB,JasperCave,NA,43.7369666666667,-102.130566666667,UnitedStates,SouthDakota,CusterCounty,6,NA
GC7YNJ2,CaveTrick-or-Treat#3,NA,47.6717833333333,-116.719133333333,UnitedStates,Washington,SpokaneCounty,18,NA
GC7Z02Z,AlluvialFanatTanyardSpringCave🌎,NA,36.4700833333333,-93.7367,UnitedStates,Arkansas,BentonCounty,13,NA
GC7ZBJG,Esther'sHideawayCave,NA,NA,NA,NA,NA,NA,NA,NA
GC7ZNNT,ColumbineMinemassacre,NA,41.5873,-92.3866666666667,UnitedStates,Iowa,PolkCounty,8,NA
GC80BNK,TheBearCave-RitzReplacementPlanB,NA,50.2860166666667,-113.46195,Canada,Alberta,DivisionNo.15Canmore,2,NA
GC80PDF,ThatOldGangOfMine,NA,45.0205666666667,-92.8312833333333,UnitedStates,Minnesota,RamseyCounty,26,NA
GC815E,CaveTour,NA,44.1780666666667,-102.572183333333,UnitedStates,SouthDakota,MeadeCounty,33,NA
GC824QW,SeasonalStreamfromTrollCave,NA,43.2951666666667,-90.1818166666667,UnitedStates,Iowa,WinneshiekCounty,11,NA
GC824R2,OnthewaytoIceCave!,NA,43.3113666666667,-90.21505,UnitedStates,Iowa,WinneshiekCounty,33,NA
GC825YC,OOTA:CAVEFIRE,NA,NA,NA,NA,NA,NA,NA,NA
GC82BBM,ToTheBatCave-CARW2019,NA,NA,NA,NA,NA,NA,NA,NA
GC82BM8,Granny'sbicyclebridgeoverthepondcave,NA,37.43695,-120.07785,UnitedStates,California,SantaClaraCounty,12,NA
GC82CQ3,KidTreeCave,NA,NA,NA,NA,NA,NA,NA,NA
GC82H3D,+Mr.LukeBirdhasLove4Ruth&CaveNutBerries,NA,39.1159333333333,-93.3899666666667,UnitedStates,Kansas,WyandotteCounty,16,NA
GC836W4,NotSoColossalCave,NA,NA,NA,NA,NA,NA,NA,NA
GC836ZC,Whatdoyouthinkaboutlettingmecallyoumine?,NA,33.9975833333333,-85.2508166666667,UnitedStates,Alabama,BlountCounty,18,NA
GC83C1,TheCAVECACHE,NA,46.1404166666667,-121.779583333333,UnitedStates,Washington,SkamaniaCounty,91,NA
GC83DWD,Thislittlebushofmine,NA,35.3560333333333,-96.5211666666667,UnitedStates,Oklahoma,ClevelandCounty,18,NA
GC83RZA,OldCacheO'Mine,NA,NA,NA,NA,NA,NA,NA,NA
GC843TA,I'llTakeMineontheRocks,NA,34.5050333333333,-84.3778666666667,UnitedStates,Alabama,DeKalbCounty,27,NA
GC84KZ9,BackOfTheBearCave,NA,NA,NA,NA,NA,NA,NA,NA
GC84YYQ,RedRockVulcanTrail-ValleyViewMine,NA,NA,NA,NA,NA,NA,NA,NA
GC85N26,RootballCave,NA,NA,NA,NA,NA,NA,NA,NA
GC85Z4W,"Tom,BertandWilliam'sCave",NA,NA,NA,NA,NA,NA,NA
NA,NA,NA,NA,NA,NA,NA,NA,NA,NA
GC86085,"Becauseyou'remineIW...t..L...",NA,38.6399833333333,-120.69065,UnitedStates,California,SacramentoCounty,25,NA
GC860D9,CARL11-#4Coal:ChesterMine,NA,49.7529333333333,-111.149416666667,Canada,Alberta,DivisionNo.2Lethbridge,8,NA
GC863D5,CCSP:Sitton'sCave,NA,34.8594833333333,-84.5147,UnitedStates,Georgia,DadeCounty,9,NA
GC86EGW,VanaldenCaveTrail,NA,34.13435,-117.436833333333,UnitedStates,California,LosAngelesCounty,10,NA
GC8717,CaveMan,NA,37.0757166666667,-120.501333333333,UnitedStates,California,SantaClaraCounty,65,NA
GC87JND,CoyoteCave,NA,34.41505,-116.809966666667,UnitedStates,California,SanBernardinoCounty,1,NA
GC87R7B,BruleMine,NA,41.8454,-102.313633333333,UnitedStates,Nebraska,ScottsBluffCounty,9,NA
GC88EFQ,GladyouCave,NA,50.7629,-110.500016666667,Canada,Alberta,DivisionNo.2Lethbridge,18,NA
GC88TB0,SweetChildO'Mine,NA,NA,NA,NA,NA,NA,NA,NA
GC88WRD,inacave,NA,33.5451,-116.253566666667,UnitedStates,California,OrangeCounty,1,NA
GC89P27,RumRunners(Smugglers)Cave,NA,NA,NA,NA,NA,NA,NA,NA
GC89PQ1,LaRueMinePitLanding,NA,47.3876,-92.8443833333333,UnitedStates,Minnesota,ItascaCounty,7,NA
GC8ARQG,NashFarm:TreeCave,NA,33.45715,-83.7138,UnitedStates,Georgia,HenryCounty,2,NA
GC8AXJG,Lifestagesofacave.,NA,41.2536,-95.9943333333333,UnitedStates,Nebraska,DouglasCounty,14,NA
GC8B3CA,OnthewaytoSundownorIndianCave?,NA,47.5148666666667,-122.4589,UnitedStates,Washington,GraysHarborCounty,1,NA
GC8C5VV,ThePointofaCave,NA,44.9305666666667,-86.8276166666667,UnitedStates,Wisconsin,DoorCounty,16,NA
GC8C6,OregonMineCache,NA,34.9572833333333,-115.151233333333,UnitedStates,California,SanBernardinoCounty,55,NA
GC8CX44,CaveSpringsEarthcache,NA,34.9080666666667,-84.0402666666667,UnitedStates,Alabama,JacksonCounty,3,NA
GC8CYPX,Mason'sLogCave,NA,47.3860333333333,-122.391733333333,UnitedStates,Washington,GraysHarborCounty,3,NA
GC8DA3J,TinMineTrail,NA,47.5570333333333,-121.206183333333,UnitedStates,Washington,KitsapCounty,3,NA
GC8DB1,GHOSTMINE,NA,37.0223,-120.304816666667,UnitedStates,California,SantaClaraCounty,140,NA
GC8DJND,ToTheBatCave!,NA,29.452,-98.3343333333333,UnitedStates,Texas,UvaldeCounty,12,NA
GC8DK37,CaveOfWonders,NA,NA,NA,NA,NA,NA,NA,NA
GC8E3EJ,CaveTrick-or-Treat#4,NA,47.6717833333333,-116.719133333333,UnitedStates,Washington,SpokaneCounty,10,NA
GC8E98C,WelcometoCaveSpring,NA,34.1081666666667,-84.6644,UnitedStates,Georgia,FloydCounty,159,NA
GC8EKTF,TrailtoBigCave,NA,NA,NA,NA,NA,NA,NA,NA
GC8F3TZ,Mine!Mine!Mine!,NA,37.6129,-121.902083333333,UnitedStates,California,AlamedaCounty,10,NA
GC8FNNA,TheCave,NA,37.56605,-120.312766666667,UnitedStates,California,AlamedaCounty,1,NA
GC8FPKM,Mr.BoyAgVillePaCaveNutMarkRuthNorthDakota,NA,38.9513,-76.5921666666667,UnitedStates,Virginia,FairfaxCounty,4,NA
GC8G0K8,BearCave,NA,48.8843333333333,-117.403316666667,UnitedStates,Washington,FerryCounty,1,NA
GC8G49A,CoalMineConnection,NA,47.5287833333333,-120.144883333333,UnitedStates,Washington,KingCounty,18,NA
GC8HHC9,WelcometotheDiamondMine,NA,41.5404666666667,-92.1772833333333,UnitedStates,Iowa,DallasCounty,13,NA
GC8HHJE,CrookedSilverMineTrail-MineView,NA,38.8028833333333,-119.418066666667,UnitedStates,California,ElDoradoCounty,3,NA
GC8HNNH,CaveMountainSaddle,NA,35.05865,-115.673466666667,UnitedStates,California,SanBernardinoCounty,1,NA
GC8J0BW,CaveSprings,NA,NA,NA,NA,NA,NA,NA,NA
GC8J20D,DassieCave,NA,47.6305666666667,-121.655716666667,UnitedStates,Washington,KingCounty,28,NA
GC8JRV2,ClanoftheCaveBears,NA,38.2503833333333,-121.054866666667,UnitedStates,California,MarinCounty,4,NA
GC8JXQ1,"TexasGhostTowns-CaveCreekTexas",NA,NA,NA,NA,NA,NA,NA,NA
GC8JZ7H,CliffCaveCache,NA,33.9201,-116.818133333333,UnitedStates,California,RiversideCounty,1,NA
GC8K8R2,NationalParksArrowheadGeoArt#62-WindCave,NA,NA,NA,NA,NA,NA,NA,NA
GC8K9ZB,LittleCliffCaveCache,NA,33.92095,-116.816366666667,UnitedStates,California,RiversideCounty,1,NA
GC8KV9Y,"Downdowndown....mineminemine!",NA,34.9841333333333,-115.643883333333,UnitedStates,California,SanBernardinoCounty,1,NA
GC8M1GD,BatCave,NA,NA,NA,NA,NA,NA,NA,NA
GC8MCAA,WhatanErieCoalMine-HiddenHistorySeries,NA,40.65865,-88.4055,UnitedStates,Illinois,TazewellCounty,7,NA
GC8N73N,GreenhornCave,NA,NA,NA,NA,NA,NA,NA,NA
GC8ND3D,CaveWithAView,NA,43.8076166666667,-90.8041166666667,UnitedStates,Wisconsin,LaCrosseCounty,4,NA
GC915C,MerryChristmasMineHill,NA,42.8613833333333,-89.8283833333333,UnitedStates,Wisconsin,IowaCounty,262,NA
GC915C,MerryChristmasMineHill,NA,42.8613833333333,-89.8283833333333,UnitedStates,Wisconsin,IowaCounty,262,NA
GC91D3,SearrylsCaveCache,NA,42.2174833333333,-89.0916333333333,UnitedStates,Iowa,JonesCounty,55,NA
GC942B,minethetides,NA,47.3164666666667,-121.467133333333,UnitedStates,Washington,PierceCounty,2,NA
GC9677,NaturalTrapCave,NA,44.9733166666667,-107.80705,UnitedStates,Wyoming,BigHornCounty,13,NA
GC973,PickelJarMudCave,NA,32.9255833333333,-115.808816666667,UnitedStates,California,SanDiegoCounty,5,NA
GC991B,TheCaveofCaerbannog,NA,46.3004833333333,-118.640116666667,UnitedStates,Washington,BentonCounty,32,NA
GC9D60,TiredofUnionMine,NA,38.6502,-119.16685,UnitedStates,California,ElDoradoCounty,20,NA
GC9E96,Mr.Barnett'sOpalMine,NA,35.4136833333333,-116.05335,UnitedStates,California,KernCounty,86,NA
GCA195,ThemineontheroadtoMelones,NA,38.01595,-119.496683333333,UnitedStates,California,CalaverasCounty,112,NA
GCAEBD,SWAMPRATRETREAT,NA,NA,NA,NA,NA,NA,NA,NA
GCB4FA,AllMine,NA,50.93465,-114.83025,Canada,Alberta,DivisionNo.15Canmore,51,NA
GCB8D5,ShawneeParkGoldMine(v5),NA,33.0459333333333,-95.307,UnitedStates,Texas,CollinCounty,135,NA
GCB9D4,MineCreekCache,NA,38.1360166666667,-93.2692166666667,UnitedStates,Kansas,LinnCounty,222,NA
GCBC5,CopperMine**NEWSPOT**,NA,33.0817833333333,-116.7923,UnitedStates,California,SanDiegoCounty,42,NA
GCBCB2,KingSolomon'sMine,NA,38.3300166666667,-75.53215,UnitedStates,Maryland,CalvertCounty,114,NA
GCBDB,BerthaPeakMine,NA,34.2838166666667,-115.100433333333,UnitedStates,California,SanBernardinoCounty,27,NA
GCC01D,MalibuCave,NA,34.0806666666667,-117.25075,UnitedStates,California,LosAngelesCounty,29,NA
GCC2,AzucarMineOffset,NA,34.77745,-115.18335,UnitedStates,California,SanBernardinoCounty,463,NA
GCC5EA,PenningtonMineVirtualCache,NA,34.6889,-97.3373833333333,UnitedStates,Oklahoma,ComancheCounty,123,NA
GCC7DF,LandMine2003Cache,NA,34.94275,-115.157766666667,UnitedStates,California,SanBernardinoCounty,173,NA
GCCA63,StyxMine,NA,34.71095,-97.2441166666667,UnitedStates,Oklahoma,ComancheCounty,51,NA
GCCB32,IngsMineTicTacToe,NA,50.8719333333333,-113.24865,Canada,Alberta,DivisionNo.15Canmore,179,NA
GCCC7B,IsThatcherCacheorMine?,NA,45.20095,-91.8761166666667,UnitedStates,Wisconsin,DunnCounty,20,NA
GCD2A4,BigHornMine&StampMill,NA,34.3564166666667,-116.255316666667,UnitedStates,California,LosAngelesCounty,71,NA
GCD634,TheMusicCave,NA,NA,NA,NA,NA,NA,NA,NA
GCD660,LonghornCaveCacheakaStonehenge,NA,30.6857,-97.6457,UnitedStates,Texas,BurnetCounty,44,NA
GCD6FD,WalkerMine,NA,40.65225,-121.5774,UnitedStates,California,ShastaCounty,42,NA
GCD9EB,TheRoofofMyCave,NA,47.8559166666667,-121.794766666667,UnitedStates,Washington,SnohomishCounty,282,NA
GCDA60,TwoHoleMine,NA,34.3088166666667,-115.351733333333,UnitedStates,California,SanBernardinoCounty,22,NA
GCE070,Smuggler'sCave,NA,32.6359833333333,-115.90755,UnitedStates,California,ImperialCounty,67,NA
GCE3DA,Blackhawk,NA,34.35365,-115.2006,UnitedStates,California,SanBernardinoCounty,7,NA
GCEFC5,WhiteRiverCave,NA,34.0345833333333,-84.9879166666667,UnitedStates,Georgia,PolkCounty,59,NA
GCF263,GovernorMine,NA,34.5082833333333,-117.794533333333,UnitedStates,California,LosAngelesCounty,119,NA
GCF66E,ThisLittleLightofMine,NA,45.6474833333333,-120.902316666667,UnitedStates,Washington,KlickitatCounty,187,NA
GCFA2B,Cave-aphobicCache,NA,33.5854666666667,-114.099033333333,UnitedStates,California,RiversideCounty,25,NA
GCFAB1,BentoniteMine,NA,34.0094666666667,-87.71085,UnitedStates,Mississippi,MonroeCounty,0,NA
GCFB92,BearCaveCreek,NA,44.9510333333333,-90.6025333333333,UnitedStates,Wisconsin,ChippewaCounty,57,NA
GCG0ME,MelonesMineandViewCache,NA,38.0086,-119.489516666667,UnitedStates,California,CalaverasCounty,32,NA
GCG2B2,Trestle,NA,33.5177166666667,-114.322566666667,UnitedStates,California,RiversideCounty,27,NA
GCG6BQ,It'sMINE!,NA,39.5731,-119.376783333333,UnitedStates,California,SierraCounty,114,NA
GCG6GY,ICECAVEEXCURSION,NA,41.7960666666667,-107.108916666667,UnitedStates,Wyoming,SweetwaterCounty,30,NA
GCG8QJ,Workingthemine,NA,37.547,-120.43045,UnitedStates,California,AlamedaCounty,8,NA
GCG8R0,IceCave,NA,43.8792333333333,-102.084333333333,UnitedStates,SouthDakota,PenningtonCounty,111,NA
GCG91D,MineTheGap,NA,37.6038833333333,-120.338283333333,UnitedStates,California,AlamedaCounty,239,NA
GCG91E,Notmine,NA,47.8483333333333,-122.899333333333,UnitedStates,Washington,JeffersonCounty,1,NA
GCGAJ5,DeadBugCache,NA,33.7510833333333,-115.28265,UnitedStates,California,RiversideCounty,73,NA
GCGAVX,GeoCacheCaveStash,NA,45.9600666666667,-120.342333333333,UnitedStates,Washington,SkamaniaCounty,166,NA
GCGEFQ,MARYKAYMINE,NA,48.40235,-116.47895,UnitedStates,Washington,StevensCounty,47,NA
GCGF63,TheLostMine,NA,51.0561666666667,-113.9272,Canada,Alberta,DivisionNo.6Calgary,51,NA
GCGF8W,ThreeLevelIceCave,NA,41.3922166666667,-120.33235,UnitedStates,California,SiskiyouCounty,83,NA
GCGG94,BatCave,NA,34.24935,-115.293183333333,UnitedStates,California,SanBernardinoCounty,87,NA
GCGMJY,AnsweredPrayers,NA,32.1943833333333,-83.86985,UnitedStates,Georgia,MaconCounty,693,NA
GCGPZW,BigRockWaveCave,NA,34.0399333333333,-117.3873,UnitedStates,California,LosAngelesCounty,73,NA
GCGQB0,AvilaBeachCave,NA,35.1742666666667,-119.2831,UnitedStates,California,SanLuisObispoCounty,5,NA
GCGTK0,TieOneOnisBackinBusiness!,NA,34.1309666666667,-83.4790666666667,UnitedStates,Georgia,CherokeeCounty,226,NA
GCGTVC,TheGoldMine,NA,32.7572833333333,-84.1362666666667,UnitedStates,Alabama,TallapoosaCounty,45,NA
GCGVCW,ThisLittlelightofmine,NA,37.0471333333333,-121.951516666667,UnitedStates,California,SantaCruzCounty,124,NA
GCGYE5,ScrantonMineLocation,NA,47.4293833333333,-91.0437166666667,UnitedStates,Minnesota,St.LouisCounty,23,NA
GCH0J3,0ldminesite,NA,39.8265,-120.802016666667,UnitedStates,California,PlumasCounty,12,NA
GCH1F1,PegLegMineMineMine,NA,32.7356833333333,-115.13895,UnitedStates,California,SanDiegoCounty,76,NA
GCH33H,PaliCave,NA,34.0813333333333,-117.43395,UnitedStates,California,LosAngelesCounty,56,NA
GCH36W,TheLog'sCaveCache,NA,48.9272666666667,-56.0933333333333,Canada,NewfoundlandandLabrador,DivisionNo.1AvalonPeninsula-St.John's,93,NA
GCH58G,MartenCreek-MineSite,NA,48.1037666666667,-120.378116666667,UnitedStates,Washington,SnohomishCounty,13,NA
GCHB42,ThisLittleCacheofMine,NA,33.8433666666667,-116.003483333333,UnitedStates,California,OrangeCounty,420,NA
GCHBP9,MotoquaCave,NA,37.2810666666667,-112.021066666667,UnitedStates,Utah,WashingtonCounty,2,NA
GCHD9F,GeorgiaGoldMine,NA,33.6996333333333,-81.74785,UnitedStates,Georgia,LincolnCounty,107,NA
GCHDZ7,MineAuBreton(MosesAustinTomb),NA,37.93815,-89.2107666666667,UnitedStates,Missouri,WashingtonCounty,294,NA
GCHE3K,NotMineAnymore,NA,32.8238666666667,-115.8635,UnitedStates,California,SanDiegoCounty,37,NA
GCHENZ,CoalMineStash,NA,35.2122333333333,-93.7469166666667,UnitedStates,Arkansas,SebastianCounty,136,NA
GCHF0G,MineAllMine,NA,33.3075333333333,-85.1446666666667,UnitedStates,Alabama,ShelbyCounty,67,NA
GCHFG7,CavetoNowhere,NA,35.0493833333333,-115.108916666667,UnitedStates,California,SanBernardinoCounty,140,NA
GCHFM7,SanCristobalMineCache,NA,37.1781833333333,-120.1532,UnitedStates,California,SantaClaraCounty,47,NA
GCHJ9K,PaintedChumashCave,NA,34.5043166666667,-118.21245,UnitedStates,California,SantaBarbaraCounty,34,NA
GCHKHX,PencilMine,NA,47.0467833333333,-121.09915,UnitedStates,Washington,ThurstonCounty,130,NA
GCHKPW,IncredibleHulkorTheLeanMeanMineMachine,NA,35.95825,-94.6045333333333,UnitedStates,Oklahoma,WagonerCounty,23,NA
GCHKXQ,McCloudMineCache,NA,36.1513,-116.115183333333,UnitedStates,California,InyoCounty,35,NA
GCHMR1,Mine?Mine?Mine?,NA,34.4898833333333,-117.77895,UnitedStates,California,LosAngelesCounty,85,NA
GCHN0N,MineShaft,NA,34.3734833333333,-117.909183333333,UnitedStates,California,LosAngelesCounty,12,NA
GCHNAM,TheCave,NA,34.5359333333333,-92.9719166666667,UnitedStates,Arkansas,GarlandCounty,19,NA
GCHP0M,YourTreehouseorMine?,NA,33.9844,-116.23145,UnitedStates,California,SanBernardinoCounty,22,NA
GCHPNF,"IsliponaRockIslipinaCaveIslipattheTop",NA,34.3451,-116.160266666667,UnitedStates,California,LosAngelesCounty,62,NA
GCHQ1E,CoalMineCache,NA,35.3191,-92.2040833333333,UnitedStates,Arkansas,LoganCounty,22,NA
GCHR5G,DumontGoldMine/SaltHills,NA,35.635,-115.7238,UnitedStates,California,SanBernardinoCounty,62,NA
GCHXFJ,KohlMine,NA,37.6737166666667,-120.965933333333,UnitedStates,California,StanislausCounty,33,NA
GCHYWK,CaveRiverValley,NA,38.6899166666667,-85.74465,UnitedStates,Indiana,WashingtonCounty,124,NA
GCHYXZ,TheMysteryoftheDug-OutMine,NA,33.62915,-99.1713833333333,UnitedStates,Texas,DickensCounty,110,NA
GCHZC7,"collierspring..twincreekmineareaarkansas",NA,34.4989,-92.4319,UnitedStates,Arkansas,MontgomeryCounty,50,NA
GCHZGT,"BeMineValentine",NA,32.8293166666667,-96.8201166666667,UnitedStates,Texas,TarrantCounty,31,NA
GCJ06V,GrandTourofElflandPrimalCave,NA,37.1699333333333,-118.219233333333,UnitedStates,California,MaderaCounty,37,NA
GCJ1KC,MineOverMatter,NA,39.8278333333333,-120.434433333333,UnitedStates,California,ButteCounty,9,NA
GCJ1WC,WillYouBeMine?,NA,34.2370666666667,-117.201633333333,UnitedStates,California,VenturaCounty,17,NA
GCJ1X1,BeMine#1-Lionheart,NA,34.25165,-117.324166666667,UnitedStates,California,VenturaCounty,3,NA
GCJ1X7,BeMine#2-HeartbreakRidge,NA,34.2354666666667,-117.200516666667,UnitedStates,California,VenturaCounty,57,NA
GCJ1XE,BeMine#3-Fillmeupwithyourlove,NA,34.2483,-117.17465,UnitedStates,California,VenturaCounty,14,NA
GCJ1XJ,BeMine#4-Myheartisonfire,NA,34.2494833333333,-117.176883333333,UnitedStates,California,VenturaCounty,15,NA
GCJ1XM,BeMine#5-SunnyDays,NA,34.2772333333333,-117.1893,UnitedStates,California,VenturaCounty,33,NA
GCJ26R,BeMine#6-Youcrackmeup,NA,34.2839666666667,-117.317283333333,UnitedStates,California,VenturaCounty,72,NA
GCJ27R,MicroCaveDwellersOfChinoHills,NA,33.96485,-116.264166666667,UnitedStates,California,SanBernardinoCounty,68,NA
GCJ66J,BeMine#1-Lionsheart,NA,34.2705666666667,-117.346133333333,UnitedStates,California,VenturaCounty,37,NA
GCJ7T7,Pluto'sCave,NA,41.5677333333333,-121.71725,UnitedStates,California,SiskiyouCounty,202,NA
GCJ88F,FremontChiefMine#2,NA,35.2159166666667,-116.504233333333,UnitedStates,California,SanBernardinoCounty,57,NA
GCJ9FA,BeMine,NA,34.3431166666667,-115.002116666667,UnitedStates,California,SanBernardinoCounty,44,NA
GCJAFD,BlackHillsMines#2(IngersollMine),NA,43.9098333333333,-102.54615,UnitedStates,SouthDakota,PenningtonCounty,176,NA
GCJJ3F,DeadlockVictimatFountainCave,NA,44.9341333333333,-92.8944666666667,UnitedStates,Minnesota,RamseyCounty,4,NA
GCJJ7E,WhiteCave,NA,47.5513,-51.0847166666667,Canada,NewfoundlandandLabrador,DivisionNo.1AvalonPeninsula-St.John's,91,NA
GCJJ7E,WhiteCave,NA,47.5513,-51.0847166666667,Canada,NewfoundlandandLabrador,DivisionNo.1AvalonPeninsula-St.John's,91,NA
GCJM9J,SODASPARMINECACHE,NA,43.8593,-102.617516666667,UnitedStates,SouthDakota,PenningtonCounty,156,NA
GCJN8T,ACometinaCave,NA,47.6501666666667,-121.81005,UnitedStates,Washington,KingCounty,77,NA
GCJNV9,BatCave,NA,34.0975333333333,-117.263816666667,UnitedStates,California,LosAngelesCounty,19,NA
GCJPK8,ThisCacheisMine,NA,37.94,-121.341666666667,UnitedStates,California,MarinCounty,58,NA
GCJQMN,TheCaveOfTheCache,NA,37.4509166666667,-121.858583333333,UnitedStates,California,SantaClaraCounty,68,NA
GCJQPE,MountainLoopMine,NA,48.0713333333333,-120.3489,UnitedStates,Washington,SnohomishCounty,216,NA
GCJR2P,Caleb'sothercave,NA,34.7371666666667,-85.44815,UnitedStates,Alabama,MadisonCounty,124,NA
GCJR9C,RockCaveCache,NA,39.8824666666667,-120.84395,UnitedStates,California,PlumasCounty,5,NA
GCJT31,CadominCave,NA,53.00125,-116.6515,Canada,Alberta,DivisionNo.14Hinton,0,NA
GCJV9Z,MakemineaV-8,NA,36.8200666666667,-118.209883333333,UnitedStates,California,FresnoCounty,14,NA
GCJX55,TrinityMine,NA,48.0723833333333,-119.1502,UnitedStates,Washington,ChelanCounty,138,NA
GCJXDT,DamonMine,NA,47.6988833333333,-120.472216666667,UnitedStates,Washington,KingCounty,15,NA
GCK197,MammothConsolidatedMine,NA,37.5950166666667,-117.011433333333,UnitedStates,California,MonoCounty,4,NA
GCK2EM,WizOut'sCave,NA,42.7565166666667,-88.4199333333333,UnitedStates,Wisconsin,GreenCounty,9,NA
GCK4PM,SierraMine,NA,38.05125,-118.819033333333,UnitedStates,California,MonoCounty,86,NA
GCK5YR,TheCaveStore,NA,32.8493,-116.729666666667,UnitedStates,California,SanDiegoCounty,16,NA
GCK7KQ,OhBeeCave!,NA,30.3358166666667,-96.0301333333333,UnitedStates,Texas,TravisCounty,22,NA
GCK82Y,SandCave,NA,37.5024666666667,-87.353,UnitedStates,Illinois,PopeCounty,88,NA
GCK8W3,BoneCave2,NA,39.6913333333333,-77.2116833333333,UnitedStates,Maryland,AlleganyCounty,38,NA
GCK9M5,CaveofBooks,NA,30.10285,-96.7340833333333,UnitedStates,Texas,BastropCounty,346,NA
GCKC5W,GeraldWalkerWasAFriendOfMine,NA,32.9785666666667,-95.4060333333333,UnitedStates,Texas,DallasCounty,189,NA
GCKD4K,ADriveintheWoods#3–Minecreek,NA,47.4043666666667,-120.36335,UnitedStates,Washington,KingCounty,15,NA
GCKDJ7,MartisCaveCache,NA,39.3276166666667,-119.887966666667,UnitedStates,California,NevadaCounty,108,NA
GCKE6B,TheCaveRevisited,NA,34.5360333333333,-92.9720666666667,UnitedStates,Arkansas,GarlandCounty,18,NA
GCKFK1,BattleofMineCreek,NA,38.1340833333333,-93.28685,UnitedStates,Kansas,LinnCounty,53,NA
GCKJMQ,ThatRATOfofMINE,NA,34.3750833333333,-115.246566666667,UnitedStates,California,SanBernardinoCounty,3,NA
GCKNDX,SayLeenMineCache,NA,36.4429,-116.385533333333,UnitedStates,California,InyoCounty,49,NA
GCKNQ9,CaveHillsCache,NA,45.84125,-102.5243,UnitedStates,SouthDakota,HardingCounty,56,NA
GCKTAE,KollyWobbels#20TheCaveofTheClanBear,NA,38.8746166666667,-119.807983333333,UnitedStates,California,ElDoradoCounty,3,NA
GCKW7W,LimeStoneMine,NA,32.7500666666667,-115.8604,UnitedStates,California,SanDiegoCounty,42,NA
GCM0RW,SPERRY-IVERSONMINE,NA,48.0743666666667,-120.405133333333,UnitedStates,Washington,SnohomishCounty,327,NA
GCM162,Corina'sCave,NA,38.2339,-119.084333333333,UnitedStates,California,AmadorCounty,37,NA
GCM35A,MineHole,NA,35.6865166666667,-92.2140333333333,UnitedStates,Arkansas,FranklinCounty,52,NA
GCM361,CanisteoMineSite,NA,47.29915,-92.5808166666667,UnitedStates,Minnesota,ItascaCounty,35,NA
GCM4F9,Thislandismine,NA,33.7435,-116.002916666667,UnitedStates,California,OrangeCounty,39,NA
GCM6CG,OLDGYPSUMMINEBYNOTHCOUNTYDESERTRATS,NA,33.0393833333333,-115.96975,UnitedStates,California,ImperialCounty,89,NA
GCM8CN,TheGermanCave,NA,38.9730333333333,-97.1239,UnitedStates,Kansas,RussellCounty,244,NA
GCM9R8,Stickman'sChildofMine,NA,40.7387166666667,-121.004066666667,UnitedStates,California,TrinityCounty,218,NA
GCMC2E,CaveMansHome,NA,39.4802333333333,-76.6376,UnitedStates,Maryland,FrederickCounty,229,NA
GCMDTM,CaveMountainChallenge,NA,35.0709333333333,-115.676483333333,UnitedStates,California,SanBernardinoCounty,17,NA
GCMEAE,"DruidTrainingExercise1:TheWoodenCave",NA,47.8549333333333,-120.0372,UnitedStates,Washington,SnohomishCounty,96,NA
GCMEHC,AbovetheMine,NA,37.2010166666667,-120.12135,UnitedStates,California,SantaClaraCounty,211,NA
GCMF2Z,LonesomeCaveOverlook,NA,34.9427833333333,-100.360933333333,UnitedStates,Texas,RandallCounty,80,NA
GCMFF9,Grim'sDisasterCave,NA,33.6128833333333,-115.731366666667,UnitedStates,California,RiversideCounty,1,NA
GCMGNG,LANDMINE,NA,34.19275,-118.76435,UnitedStates,California,VenturaCounty,72,NA
GCMKA9,LakeSereneMine,NA,47.79295,-120.427833333333,UnitedStates,Washington,SnohomishCounty,148,NA
GCMM9G,MineCreekCampGround,NA,47.4792166666667,-120.3377,UnitedStates,Washington,KingCounty,86,NA
GCMMAY,KitanningMine,NA,47.8737,-120.542183333333,UnitedStates,Washington,SnohomishCounty,33,NA
GCMMED,MohawkFallsandMine,NA,47.6750333333333,-120.602583333333,UnitedStates,Washington,KingCounty,42,NA
GCMNC7,SunsetMine,NA,47.8557666666667,-120.537366666667,UnitedStates,Washington,SnohomishCounty,30,NA
GCMNFZ,AprilMineTrestle,NA,37.18185,-120.1531,UnitedStates,California,SantaClaraCounty,175,NA
GCMP14,OcotilloMine...,NA,33.6907666666667,-114.03855,UnitedStates,California,RiversideCounty,126,NA
GCMP3A,LamonaCave,NA,47.3606166666667,-117.512733333333,UnitedStates,Washington,LincolnCounty,140,NA
GCMP4B,GovernorMineView,NA,34.5057,-117.792366666667,UnitedStates,California,LosAngelesCounty,1,NA
GCMR8G,TotheBatCave!,NA,36.9961,-121.931283333333,UnitedStates,California,SantaCruzCounty,141,NA
GCMRMZ,CaveSpringsCaveCache,NA,34.54635,-85.1487166666667,UnitedStates,Alabama,MorganCounty,46,NA
GCMTBM,CanaryinaCoalMine,NA,33.78705,-116.20435,UnitedStates,California,OrangeCounty,35,NA
GCMV50,CaveSpringCemetery,NA,34.11885,-84.6727166666667,UnitedStates,Georgia,FloydCounty,401,NA
GCMWX5,monkiskullcave,NA,33.7494666666667,-115.819833333333,UnitedStates,California,RiversideCounty,11,NA
GCMXB1,BryantMountainCave,NA,33.87935,-85.1623166666667,UnitedStates,Alabama,BlountCounty,153,NA
GCMXKB,HawkinsMineOutlook,NA,47.3804833333333,-92.8307833333333,UnitedStates,Minnesota,ItascaCounty,40,NA
GCMY60,QuarryCaveMultiCache,NA,34.45355,-85.6737166666667,UnitedStates,Alabama,MarshallCounty,3,NA
GCN05V,SanCristobalMineCacheRedux,NA,37.17845,-120.153,UnitedStates,California,SantaClaraCounty,144,NA
GCN2HN,"N""otMine,NA,NA,NA,UnitedStates,California,SanLuisObispoCounty,3,NA
GCN53E,TurquoiseMineCache,NA,NA,NA,UnitedStates,California,SanBernardinoCounty,25,NA
GCN751,Yourtowerormine?,NA,NA,NA,UnitedStates,California,LosAngelesCounty,101,NA
GCXQZ6,StinkyMineCache,NA,NA,NA,UnitedStates,California,AlpineCounty,41,NA
GCXXZW,Goldmineoryours?,NA,NA,NA,UnitedStates,California,SanBernardinoCounty,44,NA
GCY2CZ,OldMineShackCache,NA,NA,NA,UnitedStates,California,AlpineCounty,61,NA
GCYVBH,DoubleMine-ded,NA,NA,NA,UnitedStates,California,SanBernardinoCounty,48,NA
GCYVC5,OKMINE,NA,NA,NA,UnitedStates,California,SanBernardinoCounty,20,NA
GCYVCC,MineoverMatter,NA,NA,NA,UnitedStates,California,SanBernardinoCounty,104,NA
GCYVDZ,SnakeskinMine,NA,NA,NA,UnitedStates,California,SanBernardinoCounty,42,NA
GCYVE2,AnotherMine,NA,NA,NA,UnitedStates,California,SanBernardinoCounty,43,NA
GCZ17F,OhYeah...CoffeeMine,NA,NA,NA,UnitedStates,California,SanBernardinoCounty,120,NA
GCZ3FK,CrystalMine,NA,NA,NA,UnitedStates,California,AlpineCounty,13,NA
GCZ4XB,LostDutchmanMine,NA,NA,NA,UnitedStates,California,PlacerCounty,9,NA
GCZ59A,TazTinMine(CNF#2),NA,NA,NA,UnitedStates,California,OrangeCounty,68,NA
GCZ5X5,FishCreekGypsum-USGypsumMine,NA,NA,NA,UnitedStates,California,ImperialCounty,158,NA
GCZJG1,CloëJean'sMine,NA,NA,NA,UnitedStates,California,SanBenitoCounty,20,NA
GCZN70,McGintyMine,NA,NA,NA,UnitedStates,California,SanDiegoCounty,38,NA
GC103WW,TippieLeeMineExtreme4X4Geocache,NA,NA,NA,UnitedStates,California,TuolumneCounty,7,NA
GC104D4,Not(a)Mine!,NA,NA,NA,UnitedStates,California,PlacerCounty,50,NA
GC1050T,OldMine,NA,NA,NA,UnitedStates,California,ImperialCounty,71,NA
GC10GNY,GibraltarMinebackdoor,NA,NA,NA,UnitedStates,California,SantaBarbaraCounty,9,NA
GC11GX3,SweetChildO'Mine,NA,NA,NA,UnitedStates,California,ShastaCounty,33,NA
GC122M1,DutchessMine,NA,NA,NA,UnitedStates,California,CalaverasCounty,39,NA
GC12BC7,Ol'BathOMine,NA,NA,NA,UnitedStates,California,PlacerCounty,48,NA
GC12Q32,TipTopMine,NA,NA,NA,UnitedStates,California,SanBernardinoCounty,25,NA
GC12Y0G,CACHEMOUNTAINMINE,NA,NA,NA,UnitedStates,California,RiversideCounty,40,NA
GC1320F,ByTheMine,NA,NA,NA,UnitedStates,California,ShastaCounty,99,NA
GC13HWD,HoleintheWall(GoldMine),NA,NA,NA,UnitedStates,California,SanBernardinoCounty,39,NA
GC140W2,ChippsMine,NA,NA,NA,UnitedStates,California,SierraCounty,10,NA
GC14B5H,NearBlackMountainMine,NA,NA,NA,UnitedStates,California,SanDiegoCounty,232,NA
GC14DG2,SpiderMine,NA,NA,NA,UnitedStates,California,TrinityCounty,13,NA
GC14E8G,GreenleadMine,NA,NA,NA,UnitedStates,California,SanBernardinoCounty,4,NA
GC14ZVB,ForgottenMine,NA,NA,NA,UnitedStates,California,SantaClaraCounty,185,NA
GC158PK,TheRoseMine,NA,NA,NA,UnitedStates,California,SanBernardinoCounty,57,NA
GC163J9,JuneLakeMine,NA,NA,NA,UnitedStates,California,MonoCounty,114,NA
GC176FF,CarlyleMineRoad,NA,NA,NA,UnitedStates,California,SanBernardinoCounty,425,NA
GC176FV,CarlyleMineRoad""TheTanks",NA,34.1086333333333,-114.288866666667,UnitedStates,California,SanBernardinoCounty,92,NA
GCN3A7,StumpedatGlen'sCave,NA,29.3263333333333,-102.446366666667,UnitedStates,Texas,BrewsterCounty,185,NA
GCN4QB,CaveLanding,NA,35.1761,-119.2847,UnitedStates,California,SanLuisObispoCounty,0,NA
GCN4VJ,PowayCave,NA,32.9777166666667,-116.998416666667,UnitedStates,California,SanDiegoCounty,79,NA
GCN890,MontrealMine#1,NA,46.4300666666667,-89.7655333333333,UnitedStates,Wisconsin,IronCounty,266,NA
GCN9KP,#3coalmine,NA,41.328,-88.7698666666667,UnitedStates,Illinois,BureauCounty,153,NA
GCNCP7,MineMuskratHaven,NA,45.44515,-90.8871666666667,UnitedStates,Wisconsin,RuskCounty,137,NA
GCNCX1,FlambeauMineRecovered,NA,45.441,-90.87935,UnitedStates,Wisconsin,RuskCounty,63,NA
GCND4C,MidnightCave,NA,30.2004,-96.1119166666667,UnitedStates,Texas,TravisCounty,100,NA
GCNDG7,THEBATCAVE!!!,NA,33.7483,-115.828683333333,UnitedStates,California,RiversideCounty,4,NA
GCNGH6,leysercavecache,NA,46.4619833333333,-120.1386,UnitedStates,Washington,LewisCounty,5,NA
GCNK18,Mineme,NA,26.1878666666667,-97.7876166666667,UnitedStates,Texas,HidalgoCounty,1,NA
GCNKZE,SolomonCreekMine,NA,53.3583333333333,-116.059133333333,Canada,Alberta,DivisionNo.14Hinton,6,NA
GCNN26,TinyRockCave,NA,38.103,-121.818366666667,UnitedStates,California,SolanoCounty,69,NA
GCNP1T,Mine-Mine-Mine!,NA,30.03795,-94.4707666666667,UnitedStates,Texas,HarrisCounty,22,NA
GCNR7C,"CaveViewonthe""QuietSide""",NA,44.9305166666667,-86.82775,UnitedStates,Wisconsin,DoorCounty,442,NA
GCNVC1,Reuben'sCave,NA,42.7223666666667,-88.5473333333333,UnitedStates,Wisconsin,GreenCounty,127,NA
GCNXZG,ZENITHMINECOREEARTHCACHE,NA,47.9065166666667,-90.1558666666667,UnitedStates,Minnesota,St.LouisCounty,420,NA
GCNYBG,ClanoftheCaveBear,NA,42.5623666666667,-88.9490333333333,UnitedStates,Wisconsin,RockCounty,62,NA
GCNZWN,PIONEERMINE,NA,47.9112166666667,-90.1380833333333,UnitedStates,Minnesota,St.LouisCounty,405,NA
GCP04R,AvaCave,NA,37.8406,-88.4833,UnitedStates,Illinois,JacksonCounty,9,NA
GCP12X,IndianCaveDayTrip,NA,40.2775833333333,-94.4263,UnitedStates,Nebraska,NemahaCounty,27,NA
GCP2C3,CHUMASHCAVECACHE,NA,34.2242,-117.3463,UnitedStates,California,LosAngelesCounty,78,NA
GCP2E6,ForrestCaveCache,NA,42.2617333333333,-87.7765333333333,UnitedStates,Illinois,McHenryCounty,52,NA
GCP4B7,Courtnie'sCave,NA,34.3175666666667,-115.397933333333,UnitedStates,California,SanBernardinoCounty,29,NA
GCPBG8,Caveroadcache,NA,39.3849333333333,-97.0478,UnitedStates,Kansas,OsborneCounty,31,NA
GCPE87,Mine#1DamBridge,NA,46.9491666666667,-122.2287,UnitedStates,Washington,GraysHarborCounty,115,NA
GCPEE7,Mine#2ElksClub,NA,46.8973833333333,-122.012283333333,UnitedStates,Washington,GraysHarborCounty,82,NA
GCPERA,DelawareMine,NA,47.4240666666667,-87.9020666666667,UnitedStates,Michigan,KeweenawCounty,288,NA
GCPEYC,THECAVE,NA,34.1224,-117.049516666667,UnitedStates,California,VenturaCounty,58,NA
GCPF95,Mine#3TweetyBird,NA,46.97415,-122.053633333333,UnitedStates,Washington,GraysHarborCounty,15,NA
GCPFBP,Mine#4BlackHeart,NA,46.9755833333333,-122.1212,UnitedStates,Washington,GraysHarborCounty,65,NA
GCPHHR,Mine#5ToyBox,NA,46.98675,-122.109233333333,UnitedStates,Washington,GraysHarborCounty,122,NA
GCPHKT,Mine#6SherwoodForest,NA,46.9894833333333,-122.169633333333,UnitedStates,Washington,GraysHarborCounty,146,NA
GCPHP5,Mine#7LionsandGrizzlies,NA,46.9845,-122.092583333333,UnitedStates,Washington,GraysHarborCounty,94,NA
GCPHVC,CanisteoMineAccess,NA,47.3051166666667,-92.5705,UnitedStates,Minnesota,ItascaCounty,39,NA
GCPK91,BlackhawkMine,NA,47.6748166666667,-120.437166666667,UnitedStates,Washington,KingCounty,24,NA
GCPKNA,EdgerTheTrollsTreasureCave,NA,NA,NA,NA,NA,NA,NA,NA
GCPM3Z,Mine#8Launch,NA,46.9628333333333,-122.396466666667,UnitedStates,Washington,GraysHarborCounty,311,NA
GCPMBH,Mine#9BigGuns,NA,46.9771833333333,-122.11565,UnitedStates,Washington,GraysHarborCounty,368,NA
GCPRB7,Mine#10RowRowRow,NA,46.9713333333333,-122.196633333333,UnitedStates,Washington,GraysHarborCounty,328,NA
GCPTAA,"Mine#11-IThinkI""Can""",NA,46.9779833333333,-122.117483333333,UnitedStates,Washington,GraysHarborCounty,345,NA
GCPWK8,"Mine#12""LeavingOnAJetPlane""",NA,46.9722666666667,-122.077333333333,UnitedStates,Washington,GraysHarborCounty,226,NA
GCPXHT,TalusCave-PinnaclesNM,NA,NA,NA,NA,NA,NA,NA,NA
GCQ0ND,MineHoleOverlook,NA,35.68745,-92.2132333333333,UnitedStates,Arkansas,FranklinCounty,73,NA
GCQ32A,Caveburner?,NA,41.7902333333333,-123.92055,UnitedStates,California,DelNorteCounty,13,NA
GCQ5WJ,Mark'sCaveII,NA,31.01225,-96.4680833333333,UnitedStates,Texas,BellCounty,158,NA
GCQJZ2,CaveDwellerofPurisimaCreek,NA,37.4401,-121.632783333333,UnitedStates,California,SanMateoCounty,112,NA
GCQM2P,CannonValleyTreasureCave,NA,44.5229,-91.1746833333333,UnitedStates,Minnesota,GoodhueCounty,147,NA
GCQW9X,"Dudewhat'sminesay?",NA,41.6611833333333,-92.3292666666667,UnitedStates,Iowa,PolkCounty,11,NA
GCQWZC,"Mine#15SmallParkSmallCache",NA,46.9564333333333,-122.228916666667,UnitedStates,Washington,GraysHarborCounty,265,NA
GCQX7Q,Mine#16Ivar'sFishFarm,NA,47.2362833333333,-122.014833333333,UnitedStates,Washington,GraysHarborCounty,5,NA
GCQX7Y,"Mine#17""B""-Gone",NA,46.98835,-122.089166666667,UnitedStates,Washington,GraysHarborCounty,8,NA
GCQXM3,CaveDwellers,NA,30.3389,-97.7486666666667,UnitedStates,Texas,BlancoCounty,89,NA
GCQXPP,TheBearCave-West,NA,50.63605,-114.90705,Canada,Alberta,DivisionNo.15Canmore,74,NA
GCQZET,TheBearCave-East,NA,51.2170166666667,-112.2912,Canada,Alberta,DivisionNo.6Calgary,271,NA
GCR27M,TheBearCave-TBHotel,NA,51.3205833333333,-113.951266666667,Canada,Alberta,DivisionNo.6Calgary,478,NA
GCR27Q,MontrealMine#2,NA,46.4249666666667,-89.7572166666667,UnitedStates,Wisconsin,IronCounty,141,NA
GCR2Y7,IndianCave,NA,34.6394,-118.905066666667,UnitedStates,California,VenturaCounty,7,NA
GCR3ED,TinyTreeCave,NA,NA,NA,NA,NA,NA,NA,NA
GCR3HH,LeeMine,NA,47.81135,-91.7371666666667,UnitedStates,Minnesota,St.LouisCounty,85,NA
GCR5MB,CaveHunting,NA,44.4236833333333,-102.122016666667,UnitedStates,SouthDakota,LawrenceCounty,118,NA
GCR8A5,CaveCache,NA,30.5012166666667,-96.2720666666667,UnitedStates,Texas,WilliamsonCounty,268,NA
GCR9PR,GreenBeltCaveCache,NA,30.2452833333333,-96.20125,UnitedStates,Texas,TravisCounty,58,NA
GCRA30,AlbertsonCave,NA,39.74235,-74.3684833333333,UnitedStates,Delaware,NewCastleCounty,58,NA
GCRB89,Cavegoesloco,NA,33.1269166666667,-96.9394833333333,UnitedStates,Texas,DentonCounty,64,NA
GCRH9N,KeyCave,NA,34.76375,-86.2146,UnitedStates,Alabama,LauderdaleCounty,55,NA
GCRJ5A,CaveCachers,NA,33.9851,-116.699216666667,UnitedStates,California,RiversideCounty,11,NA
GCRK9T,HefoughttheCaveandtheCavewon,NA,32.9566666666667,-96.9516666666667,UnitedStates,Texas,TarrantCounty,4,NA
GCRRTE,Don'tForgettheCave,NA,32.4289833333333,-93.5608666666667,UnitedStates,Texas,HarrisonCounty,162,NA
GCRT93,Airman'sCave,NA,30.2416666666667,-96.2086166666667,UnitedStates,Texas,TravisCounty,23,NA
GCRY8E,BringYourOwnPen...YouCan'tUseMine,NA,35.2733333333333,-92.8317,UnitedStates,Arkansas,PopeCounty,20,NA
GCT0A3,TheClayMine's,NA,44.8142333333333,-90.4786833333333,UnitedStates,Wisconsin,EauClaireCounty,17,NA
GCT12F,SweetLoveofMine,NA,41.77165,-87.8501666666667,UnitedStates,Illinois,DuPageCounty,102,NA
GCT1BH,Mine#18M.C.C.R.,NA,47.0042666666667,-122.3137,UnitedStates,Washington,GraysHarborCounty,71,NA
GCT27W,Luke'sRockCave,NA,NA,NA,NA,NA,NA,NA,NA
GCT3B7,Cave-In,NA,38.0257833333333,-121.8341,UnitedStates,California,ContraCostaCounty,98,NA
GCT446,Mine#19TharSheBlows!,NA,46.86495,-123.95175,UnitedStates,Washington,GraysHarborCounty,65,NA
GCT4KR,Wally'sCave,NA,37.2843,-121.83985,UnitedStates,California,SanMateoCounty,123,NA
GCT72Y,TheCaveCache,NA,35.22695,-118.311816666667,UnitedStates,California,SanLuisObispoCounty,1,NA
GCT7ZK,Thebatcave,NA,34.4584666666667,-93.8051166666667,UnitedStates,Arkansas,PolkCounty,7,NA
GCT7ZR,HawverCave,NA,38.9117666666667,-120.965533333333,UnitedStates,California,ElDoradoCounty,69,NA
GCTAEH,4MilePostRocksViewoftheCave!,NA,34.6567666666667,-85.4937666666667,UnitedStates,Alabama,MadisonCounty,140,NA
GCTDE8,TreasuresofDutton'sCave,NA,42.9968,-90.2299666666667,UnitedStates,Iowa,FayetteCounty,60,NA
GCTDNQ,ThePaintedCave,NA,34.73365,-85.49035,UnitedStates,Alabama,MadisonCounty,200,NA
GCTEP4,W.L.Cave,NA,33.7402166666667,-84.1883166666667,UnitedStates,Alabama,CalhounCounty,41,NA
GCTEPE,TheMine&TheC-mentPond,NA,47.6530333333333,-119.77105,UnitedStates,Washington,ChelanCounty,67,NA
GCTJ75,QuartzCave,NA,33.12735,-115.705933333333,UnitedStates,California,SanDiegoCounty,28,NA
GCTMAK,Mine#20.TennisTree,NA,46.9520166666667,-122.157983333333,UnitedStates,Washington,GraysHarborCounty,72,NA
GCTPHC,ViroquaCave,NA,43.55525,-89.1038,UnitedStates,Wisconsin,VernonCounty,11,NA
GCTQJ2,Mine#21YoungAtHeart,NA,46.9874833333333,-122.095716666667,UnitedStates,Washington,GraysHarborCounty,27,NA
GCTQYB,BatCave,NA,44.3612166666667,-102.468033333333,UnitedStates,SouthDakota,MeadeCounty,25,NA
GCTR88,Cavethinksitsfunny,NA,33.2096,-96.84855,UnitedStates,Texas,DentonCounty,8,NA
GCTRTX,Mine#22BillieGohl,NA,46.9751333333333,-122.1911,UnitedStates,Washington,GraysHarborCounty,200,NA
GCTRY6,Cave-aphilicCache,NA,33.5822333333333,-114.09565,UnitedStates,California,RiversideCounty,28,NA
GCTTHZ,CaveDweller,NA,37.1259166666667,-112.334733333333,UnitedStates,Utah,WashingtonCounty,178,NA
GCTVG2,"MileSquare#2TheCave",NA,33.72565,-116.062116666667,UnitedStates,California,OrangeCounty,15,NA
GCTVHW,RussellCave,NA,34.9807666666667,-84.1938333333333,UnitedStates,Alabama,JacksonCounty,203,NA
GCTW0R,Mine#23DoYouKnow?,NA,46.9783333333333,-122.21015,UnitedStates,Washington,GraysHarborCounty,295,NA
GCTW17,Mine#24FishingHole.,NA,46.9606,-122.2722,UnitedStates,Washington,GraysHarborCounty,10,NA
GCTX1T,CaveInCaveOUT!!,NA,36.0530333333333,-94.1625166666667,UnitedStates,Oklahoma,TulsaCounty,2,NA
GCTX77,BeeCaveNo.1,NA,30.3042166666667,-96.05595,UnitedStates,Texas,TravisCounty,242,NA
GCTYQJ,Mine#25*PossibleSpam*,NA,46.9438333333333,-122.23665,UnitedStates,Washington,GraysHarborCounty,25,NA
GCTZ6C,THECAVE,NA,33.4951,-116.8977,UnitedStates,California,RiversideCounty,3,NA
GCV0ZA,"Mine#26""Choppers""",NA,46.9761333333333,-122.148483333333,UnitedStates,Washington,GraysHarborCounty,36,NA
GCV233,^^KidsCave^^,NA,44.0121833333333,-102.57075,UnitedStates,SouthDakota,PenningtonCounty,65,NA
GCV26E,TheTrailtotheLostCave,NA,34.1835,-116.70475,UnitedStates,California,SanBernardinoCounty,8,NA
GCV363,squrcave,NA,34.8372666666667,-118.90765,UnitedStates,California,KernCounty,21,NA
GCV3Q4,CaveTrailCache,NA,34.3875833333333,-85.7827,UnitedStates,Alabama,MarshallCounty,31,NA
GCV9EY,StoneOakParkCave,NA,29.64755,-97.5297666666667,UnitedStates,Texas,BexarCounty,187,NA
GCV9JD,Mine#27JustVisiting,NA,46.9785,-122.152583333333,UnitedStates,Washington,GraysHarborCounty,170,NA
GCVB2C,ArrowHeadCave,NA,41.53455,-108.208566666667,UnitedStates,Wyoming,SweetwaterCounty,40,NA
GCVEVJ,TheMudCave,NA,38.5441666666667,-121.534483333333,UnitedStates,California,NapaCounty,9,NA
GCVFEF,LavaCave,NA,34.9509333333333,-115.155983333333,UnitedStates,California,SanBernardinoCounty,92,NA
GCVRV4,MakeMineAWaterOnTheRocks,NA,33.7409333333333,-83.2777166666667,UnitedStates,Georgia,DouglasCounty,11,NA
GCVW3F,!$*SquirelCaveTree*$!,NA,33.6518833333333,-116.40455,UnitedStates,California,OrangeCounty,155,NA
GCVXY5,CaveTrail,NA,37.0456666666667,-93.3597833333333,UnitedStates,Kansas,CherokeeCounty,3,NA
GCVZ3Q,Pit-Stop(TotheBearCave_Ritz),NA,50.28725,-113.4683,Canada,Alberta,DivisionNo.15Canmore,33,NA
GCVZ9Q,ThePleasureWasMine!2006CITOEventCache,NA,29.8466666666667,-92.0532166666667,UnitedStates,Texas,JeffersonCounty,13,NA
GCVZHH,TheBearCave-North,NA,51.3916333333333,-113.9285,Canada,Alberta,DivisionNo.6Calgary,158,NA
GCW4AW,MakeMineWellDonePlease,NA,32.6179,-82.3169833333333,UnitedStates,Georgia,HoustonCounty,13,NA
GCW4EG,AtlasMineTestHole,NA,51.4015166666667,-111.40825,Canada,Alberta,DivisionNo.5Strathmore,277,NA
GCW4EJ,MurrayMineTestHole,NA,51.4196,-111.41665,Canada,Alberta,DivisionNo.5Strathmore,72,NA
GCW53D,JasperCave,NA,43.7375666666667,-102.131183333333,UnitedStates,SouthDakota,CusterCounty,47,NA
GCW6XV,PaliCave'slittleSister,NA,34.084,-117.431233333333,UnitedStates,California,LosAngelesCounty,14,NA
GCW70F,TheBearCave-South,NA,50.28555,-113.426016666667,Canada,Alberta,DivisionNo.15Canmore,56,NA
GCW9G4,SweetCacheO'Mine,NA,32.2147,-93.4408833333333,UnitedStates,Texas,PanolaCounty,53,NA
GCWAP5,YeCaveoftheDragon,NA,33.59135,-116.806316666667,UnitedStates,California,RiversideCounty,30,NA
GCWAWT,AtlasCoalMinePartOne,NA,51.33275,-111.5125,Canada,Alberta,DivisionNo.5Strathmore,15,NA
GCWAWW,AtlasCoalMinePartTwo,NA,51.3285,-111.519983333333,Canada,Alberta,DivisionNo.5Strathmore,59,NA
GCWBY4,TheCaveoftheWilaFairy,NA,34.2350833333333,-116.21095,UnitedStates,California,LosAngelesCounty,56,NA
GCWJJ5,HEADLIGHTCAVE@RefrigeratorHarbor,NA,48.1991833333333,-119.412483333333,UnitedStates,Washington,ChelanCounty,26,NA
GCWJMV,IsThatcherTroutorMine?,NA,45.2009666666667,-91.8760833333333,UnitedStates,Wisconsin,DunnCounty,51,NA
GCWQA5,OakleyCoalMine,NA,41.7543833333333,-109.4715,UnitedStates,Wyoming,LincolnCounty,25,NA
GCWT89,Mine#29BetterNow!!,NA,46.8582333333333,-123.887533333333,UnitedStates,Washington,GraysHarborCounty,39,NA
GCWT8H,Mine#30Haunted,NA,46.7084,-122.0151,UnitedStates,Washington,PacificCounty,257,NA
GCWT8Q,Mine#31Don'tForgetThePot,NA,46.70745,-122.033516666667,UnitedStates,Washington,PacificCounty,155,NA
GCWT9E,Mine#28UmmmGood!!,NA,46.9499833333333,-122.1,UnitedStates,Washington,GraysHarborCounty,16,NA
GCWWT1,TheBerryCreekCave,NA,30.7021666666667,-96.3158333333333,UnitedStates,Texas,WilliamsonCounty,136,NA
GCWWW2,MouthoftheCave,NA,38.2685,-120.713333333333,UnitedStates,California,SacramentoCounty,20,NA
GCWX3D,MarbleMine,NA,NA,NA,NA,NA,NA,NA,NA
GCWY1V,ICECAVE,NA,43.31125,-90.2195,UnitedStates,Iowa,WinneshiekCounty,26,NA
GCX2XK,FountainCaveRevisited,NA,44.9234166666667,-92.8772,UnitedStates,Minnesota,RamseyCounty,183,NA
GCX4FT,PikaCave,NA,50.9005,-113.216416666667,Canada,Alberta,DivisionNo.15Canmore,20,NA
GCX4JC,TheBearCave-Ritz,NA,50.2902833333333,-113.475583333333,Canada,Alberta,DivisionNo.15Canmore,41,NA
GCX5M2,BlowingCaveCache,NA,35.8766,-90.2279,UnitedStates,Arkansas,IndependenceCounty,11,NA
GCX5MQ,BlowingCaveBonusCache,NA,35.8754666666667,-90.2416,UnitedStates,Arkansas,IndependenceCounty,10,NA
GCX7ZN,Mine#32Sam'sPark,NA,46.9827333333333,-122.179616666667,UnitedStates,Washington,GraysHarborCounty,13,NA
GCXAKR,Mine#33BacktoSchool,NA,47.1154666666667,-122.22725,UnitedStates,Washington,GraysHarborCounty,61,NA
GCXAKZ,Mine#34BringtheDog!,NA,47.038,-122.131966666667,UnitedStates,Washington,GraysHarborCounty,24,NA
GCXC82,AbandonedMine,NA,49.9799333333333,-55.8017833333333,Canada,NewfoundlandandLabrador,DivisionNo.1AvalonPeninsula-St.John's,35,NA
GCXDJA,CaveofGhostWaters,NA,32.6255,-115.298266666667,UnitedStates,California,SanDiegoCounty,75,NA
GCXE3Z,DaveCave,NA,37.51895,-88.9714,UnitedStates,Illinois,JohnsonCounty,28,NA
GCXGT3,Mineisstiff!,NA,33.4736,-85.2135,UnitedStates,Alabama,JeffersonCounty,53,NA
GCXK3D,ThisLittleLightofMine...,NA,42.8598333333333,-105.671616666667,UnitedStates,Wyoming,NatronaCounty,86,NA
GCXM0G,PaintedCave,NA,34.5042833333333,-118.212416666667,UnitedStates,California,SantaBarbaraCounty,220,NA
GCXMET,CoolBreezeCave,NA,44.0652666666667,-102.23835,UnitedStates,SouthDakota,PenningtonCounty,27,NA
GCXNJA,Mine#35KeepClam,NA,46.7320666666667,-122.040666666667,UnitedStates,Washington,PacificCounty,210,NA
GCXNJP,Mine#37GottaB1There.,NA,46.7276333333333,-123.947466666667,UnitedStates,Washington,PacificCounty,306,NA
GCXPBJ,Mine#36AandC,NA,46.9812833333333,-122.616666666667,UnitedStates,Washington,GraysHarborCounty,25,NA
GCXRRG,LakeMichiganBluff's@CavePoint--DoorCounty,NA,44.9259833333333,-86.8193666666667,UnitedStates,Wisconsin,DoorCounty,40,NA
GCXWPM,TwinBluffsCave,NA,43.8857,-89.7775,UnitedStates,Wisconsin,JuneauCounty,189,NA
GCXWRY,HorseThieve'sCave,NA,NA,NA,NA,NA,NA,NA,NA
GCY01P,WinniePoohCave,NA,39.7454333333333,-74.3620666666667,UnitedStates,Delaware,NewCastleCounty,44,NA
GCY17H,SubwayCave,NA,40.6841333333333,-120.582933333333,UnitedStates,California,ShastaCounty,23,NA
GCY1BX,"Mine#38""PostIt""",NA,46.9738666666667,-122.09445,UnitedStates,Washington,GraysHarborCounty,43,NA
GCY20J,SidneyGoldMine,NA,41.1451666666667,-101.026016666667,UnitedStates,Nebraska,CheyenneCounty,410,NA
GCY4X8,IntheFaceofNature,NA,39.1436,-75.1675666666667,UnitedStates,Maryland,HowardCounty,117,NA
GCY5HE,"NorthLakes""Cave""PurpleCache",NA,33.2440666666667,-96.8483666666667,UnitedStates,Texas,DentonCounty,26,NA
GCY65B,TheTeamCaveCache,NA,33.1518833333333,-96.8777666666667,UnitedStates,Texas,DentonCounty,119,NA
GCY7W0,Mine'sBigger,NA,34.0459833333333,-83.4182666666667,UnitedStates,Georgia,CobbCounty,38,NA
GCY89H,TheRat'sCave,NA,40.3041333333333,-120.861583333333,UnitedStates,California,PlumasCounty,103,NA
GCYA1R,treecave,NA,32.5221333333333,-96.6724666666667,UnitedStates,Texas,JohnsonCounty,18,NA
GCYCAQ,OakForkCave,NA,33.9614833333333,-88.2770666666667,UnitedStates,Mississippi,YalobushaCounty,90,NA
GCYCTF,Mine#39ABigBirdSeenHere!,NA,47.0216,-122.083616666667,UnitedStates,Washington,GraysHarborCounty,195,NA
GCYCX5,Mine#40CountOnWho???,NA,46.9822166666667,-122.13335,UnitedStates,Washington,GraysHarborCounty,40,NA
GCYGXA,CavegoesCampingCrazy!,NA,33.1143333333333,-96.925,UnitedStates,Texas,DentonCounty,18,NA
GCYN50,TheBeastoftheMicroCave,NA,43.3928333333333,-86.1357833333333,UnitedStates,Wisconsin,OzaukeeCounty,59,NA
GCYQ93,Mine#41MyFirstTime,NA,46.7083333333333,-122.260916666667,UnitedStates,Washington,PacificCounty,226,NA
GCYQ9D,"Mine#42""LEFTON""",NA,46.67745,-122.329783333333,UnitedStates,Washington,PacificCounty,21,NA
GCYQWK,TheThinMintMine,NA,39.1099166666667,-76.90725,UnitedStates,Maryland,MontgomeryCounty,232,NA
GCYRY6,SundownorIndianCave?,NA,47.5163833333333,-122.460833333333,UnitedStates,Washington,GraysHarborCounty,8,NA
GCYWFE,TheCaveCache,NA,39.1258166666667,-99.1451666666667,UnitedStates,Kansas,LoganCounty,239,NA
GCYYR2,CaveParkMicroCache,NA,37.2754333333333,-96.8364333333333,UnitedStates,Kansas,SumnerCounty,57,NA
GCYZZM,WiskeyCave,NA,42.7097666666667,-101.017783333333,UnitedStates,Nebraska,DawesCounty,7,NA
GCZ0X4,CAVESPRINGSNUMBER1,NA,31.9926833333333,-93.5240333333333,UnitedStates,Texas,PanolaCounty,11,NA
GCZ3B0,"Mine#43""BigGooseEgg""",NA,46.9763666666667,-122.119983333333,UnitedStates,Washington,GraysHarborCounty,225,NA
GCZ42K,MontrealMine#3,NA,46.4279833333333,-89.7634166666667,UnitedStates,Wisconsin,IronCounty,176,NA
GCZ42X,MontrealMine#4,NA,46.4287166666667,-89.7706,UnitedStates,Wisconsin,IronCounty,74,NA
GCZ8AZ,EagleCave,NA,43.2437166666667,-89.4670166666667,UnitedStates,Wisconsin,RichlandCounty,13,NA
GCZFW5,oregonhousecave,NA,39.3583333333333,-120.731333333333,UnitedStates,California,YubaCounty,34,NA
GCZPF7,JewelCaveNationalMonument,NA,43.7296,-102.170583333333,UnitedStates,SouthDakota,CusterCounty,588,NA
GCZQ5H,WindCaveNationalPark,NA,43.5579333333333,-102.520566666667,UnitedStates,SouthDakota,CusterCounty,1108,NA
GCZW4F,"Mine#45""RATON""",NA,46.9346833333333,-122.272666666667,UnitedStates,Washington,GraysHarborCounty,128,NA
GCZW4P,"Mine#44""LooksFlatToMe""",NA,46.7299833333333,-123.9408,UnitedStates,Washington,PacificCounty,40,NA
GC1822C,DirectionstotheBatCave,NA,33.8119666666667,-77.3179333333333,UnitedStates,SouthCarolina,HorryCounty,49,NA
GC1C5,CaveIn,NA,41.7814,-121.347166666667,UnitedStates,California,SiskiyouCounty,158,NA
GC2412,CaveWithanIronDoor,NA,34.73145,-97.43145,UnitedStates,Oklahoma,ComancheCounty,536,NA
GC2A6,ShawneeParkGoldMine,NA,33.0457666666667,-95.3076666666667,UnitedStates,Texas,CollinCounty,42,NA
GC43D7,Dutton'sCaveCache,NA,42.9981333333333,-90.23175,UnitedStates,Iowa,FayetteCounty,15,NA
GC4C0W1,BadlandsBatCave,NA,47.5849333333333,-102.733966666667,UnitedStates,NorthDakota,McKenzieCounty,12,NA
GC4C4B,HomestakeGoldMineCache,NA,44.3569833333333,-102.241233333333,UnitedStates,SouthDakota,LawrenceCounty,20,NA
GC607A,LostCaveCache,NA,31.9982166666667,-105.48995,UnitedStates,Texas,ElPasoCounty,44,NA
GC7312,YLHDCoalMine'sDaughter,NA,53.5825833333333,-113.535833333333,Canada,Alberta,DivisionNo.11Edmonton,91,NA
GC75B5,CacheO'Mine,NA,46.73845,-120.633766666667,UnitedStates,Washington,YakimaCounty,26,NA
GC8475,BearCaveHideaway,NA,43.8566833333333,-91.4983333333333,UnitedStates,Minnesota,OlmstedCounty,271,NA
GC8E21,MineGames,NA,34.71615,-97.27925,UnitedStates,Oklahoma,ComancheCounty,101,NA
GC9675,HorseThievesCave,NA,45,-107.7759,UnitedStates,Wyoming,BigHornCounty,14,NA
GCG452,TiogaMine,NA,47.2198333333333,-92.3856833333333,UnitedStates,Minnesota,ItascaCounty,103,NA
GCG8NK,RockHouseCave,NA,35.12315,-91.06515,UnitedStates,Arkansas,ConwayCounty,67,NA
GCH36W,TheLog'sCaveCache,NA,48.9272666666667,-56.0933333333333,Canada,NewfoundlandandLabrador,DivisionNo.1AvalonPeninsula-St.John's,93,NA
GCHFFW,St.Ellen'sMine,NA,38.5794333333333,-88.0407166666667,UnitedStates,Illinois,St.ClairCounty,310,NA
GCJZ8K,LostCabinmine?...NOT,NA,44.8027666666667,-106.523683333333,UnitedStates,Wyoming,SheridanCounty,110,NA
GCK03M,CAVEDWELLER,NA,40.7013333333333,-98.8888166666667,UnitedStates,Nebraska,BuffaloCounty,193,NA
GCNYD5,THECHALKMINE,NA,41.4414666666667,-97.2926333333333,UnitedStates,Nebraska,GreeleyCounty,222,NA
GCW1MG,OldNewfoundlandZincMineSite,NA,50.26685,-56.5498666666667,Canada,NewfoundlandandLabrador,DivisionNo.1AvalonPeninsula-St.John's,23,NA
